{"version": 0.6, "generator": "Overpass API 0.7.62.5 1bd436f1", "osm3s": {"timestamp_osm_base": "2025-03-11T14:54:30Z", "copyright": "The data included in this document is from www.openstreetmap.org. The data is made available under ODbL."}, "elements": [{"type": "node", "id": 17327106, "lat": 12.917209, "lon": 77.5858603, "tags": {"highway": "traffic_signals"}}, {"type": "node", "id": 17327420, "lat": 13.0952244, "lon": 77.5941775, "tags": {"highway": "traffic_signals", "traffic_signals": "signal"}}, {"type": "node", "id": 26529522, "lat": 12.9746109, "lon": 77.6200447, "tags": {"highway": "traffic_signals"}}, {"type": "node", "id": 26529553, "lat": 12.9815923, "lon": 77.6232203, "tags": {"crossing": "traffic_signals", "highway": "traffic_signals"}}, {"type": "node", "id": 60952260, "lat": 12.9661186, "lon": 77.6067621, "tags": {"highway": "traffic_signals"}}, {"type": "node", "id": 60952288, "lat": 12.9580248, "lon": 77.6059822, "tags": {"alt_name": "CMP Junction", "crossing": "traffic_signals", "highway": "traffic_signals", "junction": "yes", "name": "Elgin Junction", "traffic_signals:sound": "no"}}, {"type": "node", "id": 60952294, "lat": 12.9599337, "lon": 77.6019168, "tags": {"highway": "traffic_signals"}}, {"type": "node", "id": 60952479, "lat": 12.9706012, "lon": 77.6102995, "tags": {"highway": "traffic_signals", "traffic_signals": "signal"}}, {"type": "node", "id": 61746200, "lat": 12.9400273, "lon": 77.6253351, "tags": {"highway": "traffic_signals", "traffic_signals": "signal"}}, {"type": "node", "id": 61746217, "lat": 12.9427582, "lon": 77.6225279, "tags": {"highway": "traffic_signals"}}, {"type": "node", "id": 61748543, "lat": 12.9685209, "lon": 77.6144953, "tags": {"highway": "traffic_signals"}}, {"type": "node", "id": 61748553, "lat": 12.952415, "lon": 77.6202156, "tags": {"highway": "traffic_signals"}}, {"type": "node", "id": 61748555, "lat": 12.9516788, "lon": 77.6214774, "tags": {"highway": "traffic_signals"}}, {"type": "node", "id": 62053503, "lat": 12.960517, "lon": 77.5043062, "tags": {"highway": "traffic_signals"}}, {"type": "node", "id": 62053645, "lat": 12.960513, "lon": 77.5043695, "tags": {"highway": "traffic_signals"}}, {"type": "node", "id": 62067292, "lat": 12.9613763, "lon": 77.5840428, "tags": {"crossing": "traffic_signals", "highway": "traffic_signals"}}, {"type": "node", "id": 158687972, "lat": 12.9541872, "lon": 77.5852663, "tags": {"highway": "traffic_signals"}}, {"type": "node", "id": 176470763, "lat": 12.937997, "lon": 77.5497383, "tags": {"designation": "Seetha Circle", "highway": "traffic_signals", "name": "Seeta Circle", "name:kn": "\u0cb8\u0cc0\u0ca4\u0cbe \u0cb5\u0cb0\u0ccd\u0ca4"}}, {"type": "node", "id": 245614692, "lat": 12.9484823, "lon": 77.5737822, "tags": {"highway": "traffic_signals"}}, {"type": "node", "id": 246171012, "lat": 12.9656578, "lon": 77.5869253, "tags": {"highway": "traffic_signals", "traffic_signals": "signal", "traffic_signals:countdown": "yes"}}, {"type": "node", "id": 246171013, "lat": 12.9636229, "lon": 77.5851479, "tags": {"highway": "traffic_signals", "junction": "yes", "traffic_signals:countdown": "yes"}}, {"type": "node", "id": 246171016, "lat": 12.9577464, "lon": 77.5821331, "tags": {"crossing": "traffic_signals", "highway": "traffic_signals"}}, {"type": "node", "id": 247972974, "lat": 12.907437, "lon": 77.6005725, "tags": {"highway": "traffic_signals", "traffic_signals": "signal"}}, {"type": "node", "id": 247989220, "lat": 12.9164504, "lon": 77.6101986, "tags": {"highway": "traffic_signals", "traffic_signals:countdown": "yes"}}, {"type": "node", "id": 247989224, "lat": 12.9163018, "lon": 77.6152765, "tags": {"highway": "traffic_signals", "traffic_signals:countdown": "yes"}}, {"type": "node", "id": 247991553, "lat": 12.9284001, "lon": 77.6005936, "tags": {"crossing": "traffic_signals", "highway": "traffic_signals"}}, {"type": "node", "id": 247991563, "lat": 12.9526686, "lon": 77.6051573, "tags": {"highway": "traffic_signals"}}, {"type": "node", "id": 248181114, "lat": 12.9459107, "lon": 77.5955342, "tags": {"highway": "traffic_signals"}}, {"type": "node", "id": 248455441, "lat": 12.9621574, "lon": 77.5944681, "tags": {"highway": "traffic_signals", "junction": "yes", "name": "St. Joseph's Junction", "name:kn": "\u0cb8\u0c82\u0ca4 \u0c9c\u0ccb\u0cb8\u0cc6\u0cab\u0ccd \u0c9c\u0c82\u0c95\u0ccd\u0cb7\u0ca8\u0ccd"}}, {"type": "node", "id": 248455447, "lat": 12.9646748, "lon": 77.5967276, "tags": {"highway": "traffic_signals"}}, {"type": "node", "id": 248455465, "lat": 12.9679192, "lon": 77.600212, "tags": {"highway": "traffic_signals", "note": "no right turn, no left"}}, {"type": "node", "id": 248459796, "lat": 12.9721256, "lon": 77.6070148, "tags": {"highway": "traffic_signals", "traffic_signals": "signal"}}, {"type": "node", "id": 248525401, "lat": 12.9555334, "lon": 77.5857316, "tags": {"crossing": "traffic_signals", "highway": "traffic_signals", "traffic_signals:sound": "no"}}, {"type": "node", "id": 248525409, "lat": 12.9538826, "lon": 77.5913472, "tags": {"highway": "traffic_signals"}}, {"type": "node", "id": 248552486, "lat": 12.8929011, "lon": 77.610479, "tags": {"highway": "traffic_signals", "traffic_signals": "signal"}}, {"type": "node", "id": 248671285, "lat": 12.9454711, "lon": 77.5285693, "tags": {"highway": "traffic_signals"}}, {"type": "node", "id": 248678559, "lat": 12.9252707, "lon": 77.550087, "tags": {"highway": "traffic_signals"}}, {"type": "node", "id": 248678594, "lat": 12.9064246, "lon": 77.5734546, "tags": {"highway": "traffic_signals", "traffic_signals:countdown": "yes"}}, {"type": "node", "id": 248679505, "lat": 12.9057665, "lon": 77.5427034, "tags": {"highway": "traffic_signals", "traffic_signals": "signal"}}, {"type": "node", "id": 248679597, "lat": 12.9266771, "lon": 77.5612878, "tags": {"highway": "traffic_signals", "traffic_signals": "signal"}}, {"type": "node", "id": 248679644, "lat": 12.9288776, "lon": 77.566296, "tags": {"highway": "traffic_signals", "traffic_signals": "signal"}}, {"type": "node", "id": 248680032, "lat": 12.9208633, "lon": 77.5745887, "tags": {"highway": "traffic_signals"}}, {"type": "node", "id": 248680033, "lat": 12.9211023, "lon": 77.5734649, "tags": {"highway": "traffic_signals"}}, {"type": "node", "id": 248680036, "lat": 12.9294201, "lon": 77.5736196, "tags": {"highway": "traffic_signals"}}, {"type": "node", "id": 248776663, "lat": 12.9369042, "lon": 77.5738183, "tags": {"crossing": "traffic_signals", "highway": "traffic_signals"}}, {"type": "node", "id": 248808777, "lat": 12.9437041, "lon": 77.5736802, "tags": {"highway": "traffic_signals"}}, {"type": "node", "id": 248808932, "lat": 12.9436325, "lon": 77.5678527, "tags": {"highway": "traffic_signals"}}, {"type": "node", "id": 248808939, "lat": 12.9436249, "lon": 77.5802208, "tags": {"crossing": "traffic_signals", "highway": "traffic_signals"}}, {"type": "node", "id": 248809641, "lat": 12.9368768, "lon": 77.5752561, "tags": {"crossing": "traffic_signals", "highway": "traffic_signals"}}, {"type": "node", "id": 248809814, "lat": 12.9390748, "lon": 77.5715572, "tags": {"highway": "traffic_signals"}}, {"type": "node", "id": 248838859, "lat": 12.9393825, "lon": 77.5666834, "tags": {"highway": "traffic_signals"}}, {"type": "node", "id": 248839215, "lat": 12.916966, "lon": 77.5736454, "tags": {"highway": "traffic_signals"}}, {"type": "node", "id": 249072291, "lat": 12.923994, "lon": 77.5532717, "tags": {"highway": "traffic_signals"}}, {"type": "node", "id": 249072292, "lat": 12.9239157, "lon": 77.5532445, "tags": {"highway": "traffic_signals"}}, {"type": "node", "id": 249074049, "lat": 12.9284545, "lon": 77.5972154, "tags": {"highway": "traffic_signals", "traffic_signals": "signal"}}, {"type": "node", "id": 249074386, "lat": 12.9309078, "lon": 77.5761739, "tags": {"alt_name": "Chairman Betappa Junction", "highway": "traffic_signals", "name": "Yediyuru Circle", "name:kn": "\u0c8e\u0ca1\u0cbf\u0caf\u0cc2\u0cb0\u0ccd \u0c9c\u0c82\u0c95\u0ccd\u0cb7\u0ca8\u0ccd", "traffic_signals": "signal"}}, {"type": "node", "id": 249075247, "lat": 12.9206044, "lon": 77.5951629, "tags": {"highway": "traffic_signals", "junction": "yes", "name": "Karnataka Bank Junction", "name:kn": "\u0c95\u0cb0\u0ccd\u0ca8\u0cbe\u0c9f\u0c95 \u0cac\u0ccd\u0caf\u0cbe\u0c82\u0c95\u0ccd \u0c9c\u0c82\u0c95\u0ccd\u0cb7\u0ca8\u0ccd", "traffic_signals": "signal"}}, {"type": "node", "id": 249075973, "lat": 12.917181, "lon": 77.589541, "tags": {"highway": "traffic_signals", "traffic_signals:countdown": "yes"}}, {"type": "node", "id": 249075975, "lat": 12.9169561, "lon": 77.5969016, "tags": {"highway": "traffic_signals"}}, {"type": "node", "id": 249076281, "lat": 12.9571605, "lon": 77.5673721, "tags": {"highway": "traffic_signals"}}, {"type": "node", "id": 249076302, "lat": 12.957309, "lon": 77.5696091, "tags": {"crossing": "traffic_signals", "highway": "traffic_signals"}}, {"type": "node", "id": 249076305, "lat": 12.9482704, "lon": 77.5700739, "tags": {"crossing": "traffic_signals", "highway": "traffic_signals"}}, {"type": "node", "id": 249080527, "lat": 12.9279676, "lon": 77.5463249, "tags": {"highway": "traffic_signals", "traffic_signals": "signal"}}, {"type": "node", "id": 249081188, "lat": 12.9622247, "lon": 77.5757939, "tags": {"highway": "traffic_signals", "traffic_signals": "signal"}}, {"type": "node", "id": 249081285, "lat": 12.9596672, "lon": 77.5744679, "tags": {"highway": "traffic_signals", "traffic_signals": "signal"}}, {"type": "node", "id": 249081922, "lat": 12.9907397, "lon": 77.599624, "tags": {"crossing": "traffic_signals", "highway": "traffic_signals", "traffic_signals:sound": "no"}}, {"type": "node", "id": 249082012, "lat": 12.989754, "lon": 77.5927032, "tags": {"button_operated": "no", "highway": "traffic_signals", "junction": "yes", "traffic_signals:sound": "no", "traffic_signals:vibration": "no"}}, {"type": "node", "id": 249082186, "lat": 12.9779781, "lon": 77.6065554, "tags": {"crossing": "traffic_signals", "crossing:markings": "zebra", "highway": "traffic_signals"}}, {"type": "node", "id": 249082188, "lat": 12.9754984, "lon": 77.6144911, "tags": {"highway": "traffic_signals"}}, {"type": "node", "id": 249082234, "lat": 12.98099, "lon": 77.6100644, "tags": {"highway": "traffic_signals"}}, {"type": "node", "id": 249083107, "lat": 12.9925975, "lon": 77.609805, "tags": {"highway": "traffic_signals", "traffic_signals": "signal"}}, {"type": "node", "id": 249083111, "lat": 12.9936479, "lon": 77.6072115, "tags": {"highway": "traffic_signals"}}, {"type": "node", "id": 249083677, "lat": 12.9595492, "lon": 77.5559464, "tags": {"highway": "traffic_signals"}}, {"type": "node", "id": 249084138, "lat": 12.950334, "lon": 77.5376362, "tags": {"highway": "traffic_signals"}}, {"type": "node", "id": 249084423, "lat": 12.9577314, "lon": 77.5341001, "tags": {"highway": "traffic_signals", "traffic_signals": "signal"}}, {"type": "node", "id": 249084426, "lat": 12.9599483, "lon": 77.5331539, "tags": {"highway": "traffic_signals"}}, {"type": "node", "id": 249084472, "lat": 12.9661053, "lon": 77.535589, "tags": {"highway": "traffic_signals"}}, {"type": "node", "id": 249084482, "lat": 12.9741273, "lon": 77.5447325, "tags": {"highway": "traffic_signals"}}, {"type": "node", "id": 249084487, "lat": 12.9752543, "lon": 77.548233, "tags": {"highway": "traffic_signals"}}, {"type": "node", "id": 249086392, "lat": 12.9613737, "lon": 77.5592663, "tags": {"highway": "traffic_signals"}}, {"type": "node", "id": 249086438, "lat": 12.9605005, "lon": 77.5685496, "tags": {"highway": "traffic_signals", "junction": "yes", "name": "Royan Circle", "name:kn": "\u0cb0\u0cbe\u0caf\u0ca8\u0ccd \u0cb5\u0cc3\u0ca4\u0ccd\u0ca4", "source": "Royan Circle"}}, {"type": "node", "id": 249087719, "lat": 12.9563509, "lon": 77.5772014, "tags": {"highway": "traffic_signals"}}, {"type": "node", "id": 249087936, "lat": 12.9657245, "lon": 77.5865182, "tags": {"highway": "traffic_signals", "traffic_signals": "signal", "traffic_signals:countdown": "yes"}}, {"type": "node", "id": 249087971, "lat": 12.9729254, "lon": 77.5810224, "tags": {"highway": "traffic_signals", "junction": "yes", "name": "Mysore Bank Circle", "name:kn": "\u0cae\u0cc8\u0cb8\u0cc2\u0cb0\u0cc1 \u0cac\u0ccd\u0caf\u0cbe\u0c82\u0c95\u0ccd \u0cb5\u0cc3\u0ca4\u0ccd\u0ca4"}}, {"type": "node", "id": 249098535, "lat": 12.9555305, "lon": 77.5919837, "tags": {"highway": "traffic_signals"}}, {"type": "node", "id": 249258666, "lat": 12.9485876, "lon": 77.5799538, "tags": {"highway": "traffic_signals", "junction": "yes", "name": "Lalbagh West Gate", "name:kn": "\u0cb2\u0cbe\u0cb2\u0cac\u0cbe\u0c97\u0ccd \u0caa\u0cb6\u0ccd\u0c9a\u0cbf\u0cae \u0ca6\u0ccd\u0cb5\u0cbe\u0cb0"}}, {"type": "node", "id": 249585502, "lat": 12.9610125, "lon": 77.5591727, "tags": {"designation": "Sirsi Circle", "highway": "traffic_signals"}}, {"type": "node", "id": 249589809, "lat": 12.956011, "lon": 77.5463943, "tags": {"highway": "traffic_signals", "traffic_signals": "signal"}}, {"type": "node", "id": 249775286, "lat": 12.9397582, "lon": 77.5739629, "tags": {"highway": "traffic_signals"}}, {"type": "node", "id": 249788404, "lat": 12.9407793, "lon": 77.5738045, "tags": {"highway": "traffic_signals"}}, {"type": "node", "id": 251082959, "lat": 12.9814997, "lon": 77.631196, "tags": {"crossing": "traffic_signals", "highway": "traffic_signals"}}, {"type": "node", "id": 251082964, "lat": 12.9869588, "lon": 77.6478913, "tags": {"highway": "traffic_signals"}}, {"type": "node", "id": 251105190, "lat": 12.9836256, "lon": 77.7523529, "tags": {"highway": "traffic_signals"}}, {"type": "node", "id": 251145689, "lat": 12.9841437, "lon": 77.6406029, "tags": {"highway": "traffic_signals"}}, {"type": "node", "id": 251146209, "lat": 12.9666398, "lon": 77.6203284, "tags": {"highway": "traffic_signals"}}, {"type": "node", "id": 251361750, "lat": 12.9932818, "lon": 77.571493, "tags": {"highway": "traffic_signals"}}, {"type": "node", "id": 251361754, "lat": 13.0084297, "lon": 77.5711436, "tags": {"crossing": "traffic_signals", "highway": "traffic_signals", "traffic_signals:sound": "no"}}, {"type": "node", "id": 251361762, "lat": 13.0170551, "lon": 77.5605477, "tags": {"highway": "traffic_signals", "traffic_signals": "signal"}}, {"type": "node", "id": 253179978, "lat": 12.9857661, "lon": 77.6449358, "tags": {"highway": "traffic_signals"}}, {"type": "node", "id": 253179984, "lat": 12.9784796, "lon": 77.6465988, "tags": {"highway": "traffic_signals"}}, {"type": "node", "id": 253179993, "lat": 12.9688448, "lon": 77.6476289, "tags": {"highway": "traffic_signals", "traffic_signals:countdown": "yes", "traffic_signals:direction": "forward"}}, {"type": "node", "id": 253518979, "lat": 12.9670177, "lon": 77.6615244, "tags": {"highway": "traffic_signals"}}, {"type": "node", "id": 253521393, "lat": 12.9783441, "lon": 77.6410411, "tags": {"highway": "traffic_signals"}}, {"type": "node", "id": 253521398, "lat": 12.9781423, "lon": 77.6366403, "tags": {"highway": "traffic_signals"}}, {"type": "node", "id": 253521405, "lat": 12.9783815, "lon": 77.6286205, "tags": {"highway": "traffic_signals"}}, {"type": "node", "id": 254665635, "lat": 12.9860822, "lon": 77.5894728, "tags": {"highway": "traffic_signals"}}, {"type": "node", "id": 254665681, "lat": 12.9807434, "lon": 77.6029061, "tags": {"highway": "traffic_signals"}}, {"type": "node", "id": 254665683, "lat": 12.9804068, "lon": 77.6038622, "tags": {"highway": "traffic_signals"}}, {"type": "node", "id": 254920223, "lat": 12.9345854, "lon": 77.623801, "tags": {"highway": "traffic_signals"}}, {"type": "node", "id": 255558038, "lat": 12.9730613, "lon": 77.6469104, "tags": {"highway": "traffic_signals", "name": "Thippasandra Cross", "name:kn": "\u0ca4\u0cbf\u0caa\u0ccd\u0caa\u0cb8\u0c82\u0ca6\u0ccd\u0cb0 \u0c95\u0ccd\u0cb0\u0cbe\u0cb8\u0ccd"}}, {"type": "node", "id": 260729391, "lat": 12.9373044, "lon": 77.6270752, "tags": {"highway": "traffic_signals", "name": "Sony World Signal", "name:kn": "\u0cb8\u0ccb\u0ca8\u0cbf \u0cb5\u0cb0\u0ccd\u0cb2\u0ccd\u0ca1\u0ccd \u0cb8\u0cbf\u0c97\u0ccd\u0ca8\u0cb2\u0ccd", "traffic_signals": "signal", "traffic_signals:direction": "forward"}}, {"type": "node", "id": 260908338, "lat": 12.910998, "lon": 77.6837774, "tags": {"highway": "traffic_signals", "traffic_signals": "signal"}}, {"type": "node", "id": 263155275, "lat": 12.9684482, "lon": 77.6061032, "tags": {"highway": "traffic_signals", "traffic_signals": "signal"}}, {"type": "node", "id": 264191074, "lat": 12.8697535, "lon": 77.6533581, "tags": {"button_operated": "no", "crossing": "traffic_signals", "highway": "traffic_signals", "traffic_signals:sound": "no"}}, {"type": "node", "id": 266865270, "lat": 12.8890463, "lon": 77.6398958, "tags": {"crossing": "traffic_signals", "highway": "traffic_signals"}}, {"type": "node", "id": 272710687, "lat": 12.8895878, "lon": 77.5635013, "tags": {"highway": "traffic_signals"}}, {"type": "node", "id": 278163345, "lat": 13.0817755, "lon": 77.5931229, "tags": {"highway": "traffic_signals"}}, {"type": "node", "id": 278163350, "lat": 13.0822706, "lon": 77.5931329, "tags": {"highway": "traffic_signals", "traffic_signals": "signal"}}, {"type": "node", "id": 286679410, "lat": 12.9668549, "lon": 77.5875354, "tags": {"highway": "traffic_signals"}}, {"type": "node", "id": 286679427, "lat": 12.9668279, "lon": 77.5875646, "tags": {"highway": "traffic_signals", "traffic_signals": "signal"}}, {"type": "node", "id": 286679458, "lat": 12.9677579, "lon": 77.5874378, "tags": {"camera:mount": "pole", "camera:type": "dome", "highway": "traffic_signals", "surveillance": "public", "surveillance:zone": "area", "traffic_signals": "signal"}}, {"type": "node", "id": 286679575, "lat": 12.9742804, "lon": 77.5746956, "tags": {"highway": "traffic_signals"}}, {"type": "node", "id": 286681113, "lat": 12.978533, "lon": 77.5426214, "tags": {"designation": "Jaimuni Rao Circle", "highway": "traffic_signals"}}, {"type": "node", "id": 286681888, "lat": 12.9810486, "lon": 77.5746382, "tags": {"crossing": "traffic_signals", "highway": "traffic_signals", "traffic_signals:direction": "backward"}}, {"type": "node", "id": 286965860, "lat": 12.977876, "lon": 77.5909687, "tags": {"highway": "traffic_signals", "traffic_signals": "signal"}}, {"type": "node", "id": 287793968, "lat": 12.9681517, "lon": 77.5873435, "tags": {"highway": "traffic_signals", "traffic_signals": "signal"}}, {"type": "node", "id": 287793997, "lat": 12.9634181, "lon": 77.5891393, "tags": {"button_operated": "no", "crossing": "traffic_signals", "highway": "traffic_signals", "traffic_signals:sound": "no", "traffic_signals:vibration": "no"}}, {"type": "node", "id": 287904671, "lat": 12.9793532, "lon": 77.6023582, "tags": {"crossing": "traffic_signals", "crossing:markings": "zebra", "highway": "traffic_signals"}}, {"type": "node", "id": 287905080, "lat": 12.9792685, "lon": 77.6070952, "tags": {"highway": "traffic_signals", "junction": "yes", "name": "Safina Plaza Junction"}}, {"type": "node", "id": 287911099, "lat": 12.9715933, "lon": 77.6359347, "tags": {"highway": "traffic_signals"}}, {"type": "node", "id": 287911537, "lat": 12.9751043, "lon": 77.6252162, "tags": {"highway": "traffic_signals"}}, {"type": "node", "id": 287912509, "lat": 12.9703619, "lon": 77.6413242, "tags": {"highway": "traffic_signals"}}, {"type": "node", "id": 294076280, "lat": 12.9903012, "lon": 77.5886396, "tags": {"highway": "traffic_signals"}}, {"type": "node", "id": 294081382, "lat": 12.9828071, "lon": 77.5969513, "tags": {"highway": "traffic_signals"}}, {"type": "node", "id": 294082867, "lat": 12.985094, "lon": 77.5722241, "tags": {"highway": "traffic_signals"}}, {"type": "node", "id": 294083347, "lat": 12.9754635, "lon": 77.5747567, "tags": {"highway": "traffic_signals"}}, {"type": "node", "id": 294083513, "lat": 12.9752011, "lon": 77.5763387, "tags": {"highway": "traffic_signals", "traffic_signals": "signal"}}, {"type": "node", "id": 294083863, "lat": 12.9878262, "lon": 77.5742634, "tags": {"crossing": "traffic_signals", "highway": "traffic_signals"}}, {"type": "node", "id": 294084044, "lat": 12.9890267, "lon": 77.5739571, "tags": {"highway": "traffic_signals"}}, {"type": "node", "id": 295735336, "lat": 13.008766, "lon": 77.5691398, "tags": {"button_operated": "no", "crossing": "traffic_signals", "highway": "traffic_signals", "traffic_signals:sound": "no"}}, {"type": "node", "id": 295735338, "lat": 13.0055874, "lon": 77.5692348, "tags": {"button_operated": "yes", "crossing": "traffic_signals", "crossing_ref": "zebra", "highway": "traffic_signals", "traffic_signals:sound": "walk"}}, {"type": "node", "id": 295735342, "lat": 12.9968863, "lon": 77.5693081, "tags": {"highway": "traffic_signals"}}, {"type": "node", "id": 295735476, "lat": 13.0146245, "lon": 77.572887, "tags": {"highway": "traffic_signals"}}, {"type": "node", "id": 295747253, "lat": 13.0089426, "lon": 77.5632154, "tags": {"highway": "traffic_signals"}}, {"type": "node", "id": 295747255, "lat": 13.0056978, "lon": 77.5651879, "tags": {"highway": "traffic_signals", "junction": "yes", "name": "Chitrapur Circle", "name:kn": "\u0c9a\u0cbf\u0ca4\u0ccd\u0cb0\u0cbe\u0caa\u0cc1\u0cb0 \u0cb5\u0cc3\u0ca4\u0ccd\u0ca4"}}, {"type": "node", "id": 296029973, "lat": 13.0160673, "lon": 77.6292384, "tags": {"highway": "traffic_signals", "traffic_signals": "signal"}}, {"type": "node", "id": 296029992, "lat": 13.0039898, "lon": 77.6195774, "tags": {"highway": "traffic_signals", "traffic_signals": "signal"}}, {"type": "node", "id": 298830710, "lat": 12.9657377, "lon": 77.6252023, "tags": {"highway": "traffic_signals", "note": "ts both sides"}}, {"type": "node", "id": 298830828, "lat": 12.9667429, "lon": 77.6206838, "tags": {"highway": "traffic_signals", "traffic_signals": "signal"}}, {"type": "node", "id": 298830842, "lat": 12.9597361, "lon": 77.6491458, "tags": {"highway": "traffic_signals"}}, {"type": "node", "id": 298831052, "lat": 12.9552045, "lon": 77.6894444, "tags": {"highway": "traffic_signals"}}, {"type": "node", "id": 301350890, "lat": 12.9405075, "lon": 77.6202253, "tags": {"highway": "traffic_signals"}}, {"type": "node", "id": 303926963, "lat": 12.9205798, "lon": 77.6001864, "tags": {"highway": "traffic_signals", "name": "Gurappana Palya Junction"}}, {"type": "node", "id": 303975904, "lat": 12.9483189, "lon": 77.5767783, "tags": {"crossing": "uncontrolled", "highway": "traffic_signals"}}, {"type": "node", "id": 304277418, "lat": 12.9274056, "lon": 77.6208361, "tags": {"highway": "traffic_signals"}}, {"type": "node", "id": 304771894, "lat": 12.9314922, "lon": 77.6226225, "tags": {"highway": "traffic_signals"}}, {"type": "node", "id": 305154536, "lat": 12.910244, "lon": 77.5952994, "tags": {"highway": "traffic_signals", "traffic_signals:countdown": "yes"}}, {"type": "node", "id": 306074373, "lat": 12.9608956, "lon": 77.6388258, "tags": {"highway": "traffic_signals"}}, {"type": "node", "id": 306586928, "lat": 12.9345385, "lon": 77.6123203, "tags": {"highway": "traffic_signals", "traffic_signals": "signal"}}, {"type": "node", "id": 306592300, "lat": 12.9370323, "lon": 77.6015531, "tags": {"highway": "traffic_signals", "traffic_signals": "signal"}}, {"type": "node", "id": 306594280, "lat": 12.9172507, "lon": 77.6224563, "tags": {"highway": "traffic_signals"}}, {"type": "node", "id": 306601671, "lat": 12.9372153, "lon": 77.6018645, "tags": {"highway": "traffic_signals", "traffic_signals": "signal"}}, {"type": "node", "id": 306601726, "lat": 12.9372509, "lon": 77.6016078, "tags": {"highway": "traffic_signals", "traffic_signals": "signal"}}, {"type": "node", "id": 306601731, "lat": 12.9369939, "lon": 77.6018085, "tags": {"highway": "traffic_signals", "traffic_signals": "signal"}}, {"type": "node", "id": 306834748, "lat": 12.9664257, "lon": 77.6142217, "tags": {"highway": "traffic_signals", "junction": "yes", "survey:date": "2023-09-15"}}, {"type": "node", "id": 306854061, "lat": 12.913937, "lon": 77.6101015, "tags": {"highway": "traffic_signals"}}, {"type": "node", "id": 307404566, "lat": 12.9237827, "lon": 77.6398975, "tags": {"highway": "traffic_signals"}}, {"type": "node", "id": 308063197, "lat": 12.9845161, "lon": 77.5718021, "tags": {"highway": "traffic_signals", "traffic_signals": "signal"}}, {"type": "node", "id": 308063843, "lat": 12.9571579, "lon": 77.5284137, "tags": {"highway": "traffic_signals", "traffic_signals": "signal"}}, {"type": "node", "id": 308064375, "lat": 12.9521149, "lon": 77.4998105, "tags": {"highway": "traffic_signals"}}, {"type": "node", "id": 308069216, "lat": 12.9808805, "lon": 77.5365605, "tags": {"highway": "traffic_signals"}}, {"type": "node", "id": 308072410, "lat": 13.0258594, "lon": 77.5207425, "tags": {"highway": "traffic_signals"}}, {"type": "node", "id": 308072451, "lat": 13.0398882, "lon": 77.5183596, "tags": {"highway": "traffic_signals", "junction": "yes", "name": "Jalahalli Cross", "name:kn": "\u0c9c\u0cbe\u0cb2\u0cb9\u0cb3\u0ccd\u0cb3\u0cbf \u0c95\u0ccd\u0cb0\u0cbe\u0cb8\u0ccd"}}, {"type": "node", "id": 308072864, "lat": 13.0567639, "lon": 77.5467062, "tags": {"highway": "traffic_signals", "junction": "yes", "name": "Gangamma Circle", "name:kn": "\u0c97\u0c82\u0c97\u0cae\u0ccd\u0cae \u0cb5\u0cc3\u0ca4\u0ccd\u0ca4"}}, {"type": "node", "id": 308074193, "lat": 13.028726, "lon": 77.540158, "tags": {"highway": "traffic_signals"}}, {"type": "node", "id": 308081022, "lat": 13.0471228, "lon": 77.5699836, "tags": {"highway": "traffic_signals", "traffic_signals": "signal"}}, {"type": "node", "id": 308184600, "lat": 12.9880732, "lon": 77.5122824, "tags": {"highway": "traffic_signals"}}, {"type": "node", "id": 308188550, "lat": 13.0059429, "lon": 77.5486862, "tags": {"highway": "traffic_signals"}}, {"type": "node", "id": 308188640, "lat": 13.0061167, "lon": 77.5486474, "tags": {"highway": "traffic_signals"}}, {"type": "node", "id": 308218810, "lat": 13.052715, "lon": 77.6460252, "tags": {"highway": "traffic_signals", "traffic_signals:countdown": "yes"}}, {"type": "node", "id": 308231592, "lat": 13.0683999, "lon": 77.5603713, "tags": {"highway": "traffic_signals", "name": "Nanjappa Circle", "name:kn": "\u0ca8\u0c82\u0c9c\u0caa\u0ccd\u0caa \u0cb5\u0cc3\u0ca4\u0ccd\u0ca4", "traffic_signals": "signal"}}, {"type": "node", "id": 308231734, "lat": 13.0348022, "lon": 77.5573491, "tags": {"highway": "traffic_signals"}}, {"type": "node", "id": 308231837, "lat": 13.049637, "lon": 77.5537592, "tags": {"highway": "traffic_signals", "traffic_signals": "signal"}}, {"type": "node", "id": 308232359, "lat": 13.0076813, "lon": 77.5488161, "tags": {"highway": "traffic_signals"}}, {"type": "node", "id": 308232366, "lat": 13.0040722, "lon": 77.5491659, "tags": {"highway": "traffic_signals", "traffic_signals": "signal"}}, {"type": "node", "id": 308232380, "lat": 12.987695, "lon": 77.5500648, "tags": {"highway": "traffic_signals"}}, {"type": "node", "id": 308232384, "lat": 12.9844607, "lon": 77.5491829, "tags": {"highway": "traffic_signals", "junction": "yes", "name": "National Public School Circle", "name:kn": "\u0ca8\u0ccd\u0caf\u0cbe\u0cb6\u0ca8\u0cb2\u0ccd \u0caa\u0cac\u0ccd\u0cb2\u0cbf\u0c95\u0ccd \u0cb6\u0cbe\u0cb2\u0cc6 \u0cb5\u0cc3\u0ca4\u0ccd\u0ca4"}}, {"type": "node", "id": 308232637, "lat": 12.9600676, "lon": 77.5328908, "tags": {"highway": "traffic_signals"}}, {"type": "node", "id": 308232833, "lat": 12.9661048, "lon": 77.5353176, "tags": {"highway": "traffic_signals", "traffic_signals:direction": "forward"}}, {"type": "node", "id": 308232847, "lat": 12.9742803, "lon": 77.5447396, "tags": {"highway": "traffic_signals"}}, {"type": "node", "id": 308232862, "lat": 12.9842583, "lon": 77.5489013, "tags": {"highway": "traffic_signals", "junction": "yes", "name": "National Public School Circle", "name:kn": "\u0ca8\u0ccd\u0caf\u0cbe\u0cb6\u0ca8\u0cb2\u0ccd \u0caa\u0cac\u0ccd\u0cb2\u0cbf\u0c95\u0ccd \u0cb6\u0cbe\u0cb2\u0cc6 \u0cb5\u0cc3\u0ca4\u0ccd\u0ca4"}}, {"type": "node", "id": 308232865, "lat": 12.9879677, "lon": 77.5497657, "tags": {"highway": "traffic_signals"}}, {"type": "node", "id": 308232877, "lat": 13.003821, "lon": 77.5490665, "tags": {"highway": "traffic_signals", "traffic_signals": "signal"}}, {"type": "node", "id": 308232885, "lat": 13.0061811, "lon": 77.5488004, "tags": {"highway": "traffic_signals"}}, {"type": "node", "id": 308232886, "lat": 13.0060037, "lon": 77.5488442, "tags": {"highway": "traffic_signals"}}, {"type": "node", "id": 308232925, "lat": 13.0077186, "lon": 77.5485965, "tags": {"highway": "traffic_signals"}}, {"type": "node", "id": 308233404, "lat": 12.9576812, "lon": 77.5339714, "tags": {"highway": "traffic_signals", "traffic_signals": "signal"}}, {"type": "node", "id": 308238296, "lat": 13.032017, "lon": 77.6217986, "tags": {"highway": "traffic_signals", "junction": "yes", "name": "Govindapura Cross", "name:kn": "\u0c97\u0ccb\u0cb5\u0cbf\u0c82\u0ca6\u0caa\u0cc1\u0cb0 \u0c95\u0ccd\u0cb0\u0cbe\u0cb8\u0ccd"}}, {"type": "node", "id": 308238310, "lat": 13.0404899, "lon": 77.6244573, "tags": {"highway": "traffic_signals"}}, {"type": "node", "id": 308729117, "lat": 12.9233016, "lon": 77.576102, "tags": {"highway": "traffic_signals", "traffic_signals": "signal"}}, {"type": "node", "id": 308729150, "lat": 12.9234836, "lon": 77.5762524, "tags": {"highway": "traffic_signals"}}, {"type": "node", "id": 308729151, "lat": 12.9234243, "lon": 77.5735584, "tags": {"highway": "traffic_signals"}}, {"type": "node", "id": 308807795, "lat": 12.9273387, "lon": 77.5769552, "tags": {"highway": "traffic_signals", "name": "Avarekalu Circle", "name:kn": "\u0c85\u0cb5\u0cb0\u0cc6\u0c95\u0cbe\u0cb3\u0cc1 \u0cb5\u0cc3\u0ca4\u0ccd\u0ca4", "note": "Dual carriageway"}}, {"type": "node", "id": 308923397, "lat": 12.943891, "lon": 77.6075973, "tags": {"highway": "traffic_signals", "traffic_signals": "signal"}}, {"type": "node", "id": 308923925, "lat": 12.9519523, "lon": 77.6051135, "tags": {"highway": "traffic_signals"}}, {"type": "node", "id": 308924882, "lat": 12.9666874, "lon": 77.6088877, "tags": {"alt_name": "Neelasandra Junction", "highway": "traffic_signals"}}, {"type": "node", "id": 309592695, "lat": 12.9351903, "lon": 77.6244413, "tags": {"highway": "traffic_signals"}}, {"type": "node", "id": 309595499, "lat": 12.9102099, "lon": 77.5932544, "tags": {"highway": "traffic_signals"}}, {"type": "node", "id": 315208341, "lat": 12.9385736, "lon": 77.6325528, "tags": {"highway": "traffic_signals"}}, {"type": "node", "id": 315208342, "lat": 12.9384443, "lon": 77.6328936, "tags": {"designation": "Ejipur Signal", "highway": "traffic_signals"}}, {"type": "node", "id": 320647365, "lat": 12.9642064, "lon": 77.5768931, "tags": {"bus": "yes", "crossing": "uncontrolled", "highway": "traffic_signals", "name": "KR Market", "name:en": "Krishnarajendra Market", "name:kn": "\u0c95\u0cc3\u0cb7\u0ccd\u0ca3\u0cb0\u0cbe\u0c9c\u0cc7\u0c82\u0ca6\u0ccd\u0cb0 \u0cae\u0cbe\u0cb0\u0cc1\u0c95\u0c9f\u0ccd\u0c9f\u0cc6", "network": "BMTC", "operator": "BMTC", "public_transport": "stop_position"}}, {"type": "node", "id": 331665381, "lat": 13.1036366, "lon": 77.6002543, "tags": {"highway": "traffic_signals", "name": "Kogilu Cross", "name:kn": "\u0c95\u0ccb\u0c97\u0cbf\u0cb2\u0cc1 \u0c95\u0ccd\u0cb0\u0cbe\u0cb8\u0ccd"}}, {"type": "node", "id": 332952069, "lat": 13.0227588, "lon": 77.6371717, "tags": {"highway": "traffic_signals"}}, {"type": "node", "id": 332955178, "lat": 13.0818833, "lon": 77.5934193, "tags": {"highway": "traffic_signals"}}, {"type": "node", "id": 334482516, "lat": 12.9750156, "lon": 77.6082151, "tags": {"highway": "traffic_signals"}}, {"type": "node", "id": 335663834, "lat": 13.0427108, "lon": 77.5907043, "tags": {"highway": "traffic_signals"}}, {"type": "node", "id": 343088229, "lat": 12.9918387, "lon": 77.614572, "tags": {"highway": "traffic_signals", "junction": "yes", "name": "Shri T R A Thumba Chetty Circle", "name:etymology:wikidata": "Q37999567", "name:kn": "\u0cb6\u0ccd\u0cb0\u0cc0 \u0c9f\u0cbf \u0c86\u0cb0\u0ccd \u0c8e \u0ca4\u0cc1\u0c82\u0cac\u0c9a\u0cc6\u0c9f\u0ccd\u0c9f\u0cbf \u0cb8\u0cb0\u0ccd\u0c95\u0cb2\u0ccd"}}, {"type": "node", "id": 343094471, "lat": 13.0019917, "lon": 77.6122611, "tags": {"highway": "traffic_signals"}}, {"type": "node", "id": 343320203, "lat": 12.9942926, "lon": 77.6635086, "tags": {"highway": "traffic_signals", "traffic_signals": "signal"}}, {"type": "node", "id": 343322076, "lat": 13.0133145, "lon": 77.6619872, "tags": {"highway": "traffic_signals"}}, {"type": "node", "id": 343322673, "lat": 13.0000227, "lon": 77.681275, "tags": {"highway": "traffic_signals", "traffic_signals": "signal"}}, {"type": "node", "id": 343322679, "lat": 13.0002049, "lon": 77.6768433, "tags": {"highway": "traffic_signals"}}, {"type": "node", "id": 343459489, "lat": 13.0051531, "lon": 77.6850038, "tags": {"highway": "traffic_signals"}}, {"type": "node", "id": 343462692, "lat": 13.0135336, "lon": 77.6624212, "tags": {"highway": "traffic_signals"}}, {"type": "node", "id": 343594553, "lat": 12.9815657, "lon": 77.6054118, "tags": {"highway": "traffic_signals"}}, {"type": "node", "id": 343601638, "lat": 13.0398944, "lon": 77.6243107, "tags": {"highway": "traffic_signals", "traffic_signals": "signal"}}, {"type": "node", "id": 347295433, "lat": 12.9750461, "lon": 77.5763994, "tags": {"highway": "traffic_signals", "traffic_signals": "signal"}}, {"type": "node", "id": 347295554, "lat": 12.9746331, "lon": 77.5708033, "tags": {"highway": "traffic_signals"}}, {"type": "node", "id": 348036175, "lat": 12.9248465, "lon": 77.6342272, "tags": {"highway": "traffic_signals", "traffic_signals:direction": "forward"}}, {"type": "node", "id": 353196735, "lat": 13.0152516, "lon": 77.6427526, "tags": {"highway": "traffic_signals"}}, {"type": "node", "id": 355427675, "lat": 12.9912525, "lon": 77.6573283, "tags": {"highway": "traffic_signals", "traffic_signals": "signal"}}, {"type": "node", "id": 355427677, "lat": 12.991134, "lon": 77.6568584, "tags": {"highway": "traffic_signals", "traffic_signals": "signal"}}, {"type": "node", "id": 355428774, "lat": 12.9791928, "lon": 77.6464567, "tags": {"highway": "traffic_signals", "traffic_signals": "signal"}}, {"type": "node", "id": 364626139, "lat": 12.917536, "lon": 77.5739762, "tags": {"highway": "traffic_signals", "traffic_signals": "signal"}}, {"type": "node", "id": 374217275, "lat": 13.034138, "lon": 77.5686006, "tags": {"highway": "traffic_signals"}}, {"type": "node", "id": 374217314, "lat": 13.0370077, "lon": 77.5659978, "tags": {"crossing": "traffic_signals", "highway": "traffic_signals", "traffic_signals": "signal", "traffic_signals:sound": "yes"}}, {"type": "node", "id": 394817593, "lat": 12.8843578, "lon": 77.5964256, "tags": {"highway": "traffic_signals", "traffic_signals": "signal"}}, {"type": "node", "id": 412135152, "lat": 12.9954, "lon": 77.602078, "tags": {"highway": "traffic_signals"}}, {"type": "node", "id": 416419153, "lat": 13.0092971, "lon": 77.6433987, "tags": {"highway": "traffic_signals"}}, {"type": "node", "id": 419638217, "lat": 13.0290733, "lon": 77.53987, "tags": {"highway": "traffic_signals", "junction": "yes", "name": "Gorguntepalaya Cross", "name:kn": "\u0c97\u0cca\u0cb0\u0c97\u0cc1\u0c82\u0c9f\u0cc6\u0caa\u0cbe\u0cb3\u0ccd\u0caf \u0c95\u0ccd\u0cb0\u0cbe\u0cb8\u0ccd"}}, {"type": "node", "id": 419638282, "lat": 13.0285308, "lon": 77.5197034, "tags": {"designation": "TVS Cross", "highway": "traffic_signals"}}, {"type": "node", "id": 426823702, "lat": 13.0400737, "lon": 77.5184224, "tags": {"highway": "traffic_signals", "name": "Jalahalli Cross", "name:kn": "\u0c9c\u0cbe\u0cb2\u0cb9\u0cb3\u0ccd\u0cb3\u0cbf \u0c95\u0ccd\u0cb0\u0cbe\u0cb8\u0ccd"}}, {"type": "node", "id": 426835306, "lat": 13.0171281, "lon": 77.5605923, "tags": {"highway": "traffic_signals", "traffic_signals": "signal"}}, {"type": "node", "id": 426962389, "lat": 12.996935, "lon": 77.5732442, "tags": {"highway": "traffic_signals"}}, {"type": "node", "id": 427531037, "lat": 12.9919113, "lon": 77.575415, "tags": {"button_operated": "no", "crossing": "traffic_signals", "highway": "traffic_signals", "traffic_signals:sound": "no", "traffic_signals:vibration": "no"}}, {"type": "node", "id": 427593076, "lat": 13.0036714, "lon": 77.5699962, "tags": {"highway": "traffic_signals"}}, {"type": "node", "id": 427593081, "lat": 12.9992144, "lon": 77.5713561, "tags": {"button_operated": "yes", "crossing_ref": "zebra", "highway": "traffic_signals", "kerb": "flush", "supervised": "06:00-20:00", "traffic_signals:sound": "walk"}}, {"type": "node", "id": 427593098, "lat": 13.005729, "lon": 77.5637892, "tags": {"highway": "traffic_signals"}}, {"type": "node", "id": 427593100, "lat": 13.0036936, "lon": 77.5653044, "tags": {"highway": "traffic_signals"}}, {"type": "node", "id": 427593103, "lat": 13.0056226, "lon": 77.5667143, "tags": {"highway": "traffic_signals"}}, {"type": "node", "id": 427593300, "lat": 13.0036878, "lon": 77.5667685, "tags": {"highway": "traffic_signals"}}, {"type": "node", "id": 427593301, "lat": 13.0055491, "lon": 77.5681646, "tags": {"highway": "traffic_signals"}}, {"type": "node", "id": 427593305, "lat": 13.0054364, "lon": 77.5712126, "tags": {"highway": "traffic_signals"}}, {"type": "node", "id": 427593398, "lat": 13.0036822, "lon": 77.5681969, "tags": {"highway": "traffic_signals"}}, {"type": "node", "id": 427594203, "lat": 13.0185033, "lon": 77.5579816, "tags": {"highway": "traffic_signals"}}, {"type": "node", "id": 428435127, "lat": 12.9649679, "lon": 77.596607, "tags": {"highway": "traffic_signals", "traffic_signals": "signal"}}, {"type": "node", "id": 428457171, "lat": 12.9538497, "lon": 77.5914331, "tags": {"highway": "traffic_signals", "note": "no u turn"}}, {"type": "node", "id": 428457173, "lat": 12.9555701, "lon": 77.5922255, "tags": {"highway": "traffic_signals"}}, {"type": "node", "id": 428853824, "lat": 12.980667, "lon": 77.5768379, "tags": {"crossing": "uncontrolled", "highway": "traffic_signals"}}, {"type": "node", "id": 428853845, "lat": 12.9797639, "lon": 77.5817457, "tags": {"highway": "traffic_signals", "traffic_signals": "signal"}}, {"type": "node", "id": 429001262, "lat": 12.9638856, "lon": 77.585035, "tags": {"highway": "traffic_signals", "traffic_signals": "signal", "traffic_signals:countdown": "yes"}}, {"type": "node", "id": 429001265, "lat": 12.9655022, "lon": 77.5866582, "tags": {"highway": "traffic_signals", "traffic_signals:countdown": "yes"}}, {"type": "node", "id": 429230963, "lat": 12.9669523, "lon": 77.5872021, "tags": {"highway": "traffic_signals", "traffic_signals": "signal", "traffic_signals:direction": "forward"}}, {"type": "node", "id": 429286840, "lat": 12.9799046, "lon": 77.5537504, "tags": {"highway": "traffic_signals", "name": "Rajaji Nagar 6th Block Circle", "name:kn": "\u0cb0\u0cbe\u0c9c\u0cbe\u0c9c\u0cbf\u0ca8\u0c97\u0cb0 \u0cec\u0ca8\u0cc7 \u0cac\u0ccd\u0cb2\u0cbe\u0c95\u0ccd \u0cb8\u0cb0\u0ccd\u0c95\u0cb2\u0ccd", "traffic_signals": "signal"}}, {"type": "node", "id": 429286843, "lat": 12.975251, "lon": 77.5486665, "tags": {"highway": "traffic_signals"}}, {"type": "node", "id": 429726436, "lat": 12.9747702, "lon": 77.570483, "tags": {"highway": "traffic_signals", "traffic_signals": "signal"}}, {"type": "node", "id": 429726441, "lat": 12.968816, "lon": 77.5680475, "tags": {"highway": "traffic_signals", "traffic_signals": "signal"}}, {"type": "node", "id": 429731194, "lat": 12.9530862, "lon": 77.573597, "tags": {"highway": "traffic_signals"}}, {"type": "node", "id": 430043662, "lat": 13.0101366, "lon": 77.5905814, "tags": {"highway": "traffic_signals"}}, {"type": "node", "id": 430043746, "lat": 13.0249717, "lon": 77.5929555, "tags": {"highway": "traffic_signals"}}, {"type": "node", "id": 430127696, "lat": 13.0430481, "lon": 77.5900575, "tags": {"highway": "traffic_signals"}}, {"type": "node", "id": 431524344, "lat": 12.9817204, "lon": 77.6284718, "tags": {"crossing": "traffic_signals", "highway": "traffic_signals"}}, {"type": "node", "id": 431530258, "lat": 13.0356131, "lon": 77.5536152, "tags": {"highway": "traffic_signals"}}, {"type": "node", "id": 432501724, "lat": 12.9840614, "lon": 77.6406191, "tags": {"highway": "traffic_signals"}}, {"type": "node", "id": 432501735, "lat": 12.9867223, "lon": 77.6479887, "tags": {"highway": "traffic_signals"}}, {"type": "node", "id": 433825079, "lat": 13.0567702, "lon": 77.5073114, "tags": {"highway": "traffic_signals", "traffic_signals": "signal"}}, {"type": "node", "id": 433833664, "lat": 13.0666836, "lon": 77.5032893, "tags": {"highway": "traffic_signals", "traffic_signals": "signal"}}, {"type": "node", "id": 442107151, "lat": 12.9970202, "lon": 77.6700327, "tags": {"highway": "traffic_signals", "traffic_signals": "signal", "traffic_signals:countdown": "yes"}}, {"type": "node", "id": 442107189, "lat": 13.0050449, "lon": 77.6850796, "tags": {"highway": "traffic_signals"}}, {"type": "node", "id": 442438288, "lat": 13.0199688, "lon": 77.6744788, "tags": {"highway": "traffic_signals", "name": "Raghavendra Circle", "name:kn": "\u0cb0\u0cbe\u0c98\u0cb5\u0cc7\u0c82\u0ca6\u0ccd\u0cb0 \u0cb5\u0cc3\u0ca4\u0ccd\u0ca4", "traffic_signals": "signal"}}, {"type": "node", "id": 443224605, "lat": 12.9352411, "lon": 77.6243708, "tags": {"highway": "traffic_signals"}}, {"type": "node", "id": 446782731, "lat": 13.019036, "lon": 77.5397483, "tags": {"highway": "traffic_signals"}}, {"type": "node", "id": 446860580, "lat": 12.988087, "lon": 77.5375652, "tags": {"highway": "traffic_signals"}}, {"type": "node", "id": 446860594, "lat": 12.9875494, "lon": 77.5542881, "tags": {"highway": "traffic_signals"}}, {"type": "node", "id": 446860595, "lat": 12.9899503, "lon": 77.5544114, "tags": {"highway": "traffic_signals"}}, {"type": "node", "id": 446860599, "lat": 12.9977445, "lon": 77.5510789, "tags": {"highway": "traffic_signals"}}, {"type": "node", "id": 446860602, "lat": 13.0044349, "lon": 77.5536611, "tags": {"highway": "traffic_signals", "traffic_signals": "signal"}}, {"type": "node", "id": 447072640, "lat": 12.9974172, "lon": 77.5463675, "tags": {"highway": "traffic_signals"}}, {"type": "node", "id": 447113035, "lat": 12.9688067, "lon": 77.5367664, "tags": {"highway": "traffic_signals"}}, {"type": "node", "id": 447113036, "lat": 12.9688547, "lon": 77.5366057, "tags": {"highway": "traffic_signals"}}, {"type": "node", "id": 447114405, "lat": 12.9708147, "lon": 77.5249854, "tags": {"designation": "Moodalpalya Circle", "highway": "traffic_signals", "traffic_signals": "signal"}}, {"type": "node", "id": 448116638, "lat": 12.9901584, "lon": 77.5507857, "tags": {"highway": "traffic_signals"}}, {"type": "node", "id": 448116639, "lat": 12.9900699, "lon": 77.5505078, "tags": {"highway": "traffic_signals"}}, {"type": "node", "id": 465232495, "lat": 13.0015048, "lon": 77.5945171, "tags": {"highway": "traffic_signals", "traffic_signals": "signal"}}, {"type": "node", "id": 481750173, "lat": 12.9899972, "lon": 77.6547867, "tags": {"highway": "traffic_signals", "traffic_signals": "signal"}}, {"type": "node", "id": 481754476, "lat": 12.9773635, "lon": 77.6088201, "tags": {"crossing": "traffic_signals", "crossing:signals": "yes", "highway": "traffic_signals", "traffic_signals:sound": "walk"}}, {"type": "node", "id": 483412094, "lat": 13.0250957, "lon": 77.5111135, "tags": {"designation": "NTTF Junction", "highway": "traffic_signals"}}, {"type": "node", "id": 483412558, "lat": 13.0164967, "lon": 77.5056432, "tags": {"designation": "14th Cross Peenya 2nd Stage", "highway": "traffic_signals"}}, {"type": "node", "id": 493493706, "lat": 12.9481732, "lon": 77.5741139, "tags": {"highway": "traffic_signals"}}, {"type": "node", "id": 494238032, "lat": 12.9205791, "lon": 77.6001168, "tags": {"highway": "traffic_signals", "name": "Gurappana Palya Junction"}}, {"type": "node", "id": 494238035, "lat": 12.9284062, "lon": 77.6004986, "tags": {"crossing": "traffic_signals", "highway": "traffic_signals"}}, {"type": "node", "id": 494238044, "lat": 12.9072862, "lon": 77.6003264, "tags": {"highway": "traffic_signals", "traffic_signals": "signal"}}, {"type": "node", "id": 494271080, "lat": 12.9173081, "lon": 77.6231104, "tags": {"highway": "traffic_signals"}}, {"type": "node", "id": 494271099, "lat": 12.9164695, "lon": 77.6151309, "tags": {"highway": "traffic_signals", "traffic_signals:countdown": "yes"}}, {"type": "node", "id": 494271106, "lat": 12.9211388, "lon": 77.6204844, "tags": {"highway": "traffic_signals"}}, {"type": "node", "id": 503050615, "lat": 12.9274069, "lon": 77.6211127, "tags": {"highway": "traffic_signals"}}, {"type": "node", "id": 503180914, "lat": 12.9264741, "lon": 77.5611722, "tags": {"highway": "traffic_signals", "traffic_signals": "signal"}}, {"type": "node", "id": 512072644, "lat": 13.1220704, "lon": 77.6305434, "tags": {"highway": "traffic_signals", "traffic_signals": "signal"}}, {"type": "node", "id": 512072658, "lat": 13.1222083, "lon": 77.6307811, "tags": {"highway": "traffic_signals", "traffic_signals": "signal"}}, {"type": "node", "id": 514452399, "lat": 12.9452272, "lon": 77.5282455, "tags": {"highway": "traffic_signals"}}, {"type": "node", "id": 514455514, "lat": 12.9384485, "lon": 77.533467, "tags": {"highway": "traffic_signals"}}, {"type": "node", "id": 560642468, "lat": 12.9364154, "lon": 77.518236, "tags": {"highway": "traffic_signals", "name": "Rajarajeshwarinagara Gate", "name:en": "Rajarajeshwarinagara Gate", "name:kn": "\u0cb0\u0cbe\u0c9c\u0cb0\u0cbe\u0c9c\u0cc7\u0cb6\u0ccd\u0cb5\u0cb0\u0cbf \u0ca8\u0c97\u0cb0 \u0ca6\u0ccd\u0cb5\u0cbe\u0cb0", "network": "BMTC", "operator": "BMTC", "traffic_signals": "signal"}}, {"type": "node", "id": 560654632, "lat": 12.8927588, "lon": 77.5989711, "tags": {"highway": "traffic_signals", "traffic_signals": "signal"}}, {"type": "node", "id": 570758310, "lat": 12.9642875, "lon": 77.5699161, "tags": {"highway": "traffic_signals", "junction": "yes", "name": "Briand Square"}}, {"type": "node", "id": 571438265, "lat": 13.0424606, "lon": 77.5146845, "tags": {"highway": "traffic_signals", "traffic_signals": "signal"}}, {"type": "node", "id": 574367083, "lat": 13.0734287, "lon": 77.5929718, "tags": {"highway": "traffic_signals"}}, {"type": "node", "id": 574543671, "lat": 13.0110014, "lon": 77.5069451, "tags": {"highway": "traffic_signals", "traffic_signals": "signal"}}, {"type": "node", "id": 582575956, "lat": 13.0207976, "lon": 77.5924575, "tags": {"highway": "traffic_signals", "traffic_signals": "signal"}}, {"type": "node", "id": 599226700, "lat": 13.030284, "lon": 77.621044, "tags": {"highway": "traffic_signals", "traffic_signals": "signal"}}, {"type": "node", "id": 618251411, "lat": 12.8892466, "lon": 77.6399474, "tags": {"crossing": "traffic_signals", "highway": "traffic_signals"}}, {"type": "node", "id": 618252032, "lat": 12.9069175, "lon": 77.6288825, "tags": {"highway": "traffic_signals"}}, {"type": "node", "id": 650141249, "lat": 12.9164748, "lon": 77.632431, "tags": {"highway": "traffic_signals"}}, {"type": "node", "id": 650141554, "lat": 12.9165984, "lon": 77.6322048, "tags": {"highway": "traffic_signals"}}, {"type": "node", "id": 663313890, "lat": 12.9676299, "lon": 77.5886906, "tags": {"highway": "traffic_signals", "traffic_signals": "signal"}}, {"type": "node", "id": 663313897, "lat": 12.9680525, "lon": 77.589125, "tags": {"highway": "traffic_signals", "traffic_signals": "signal"}}, {"type": "node", "id": 663596564, "lat": 12.9791244, "lon": 77.602366, "tags": {"button_operated": "no", "crossing": "traffic_signals", "crossing:markings": "zebra", "highway": "traffic_signals", "traffic_signals:sound": "walk", "traffic_signals:vibration": "no"}}, {"type": "node", "id": 679993212, "lat": 12.9749701, "lon": 77.5707694, "tags": {"highway": "traffic_signals", "traffic_signals": "signal"}}, {"type": "node", "id": 699576768, "lat": 12.9168857, "lon": 77.5735015, "tags": {"highway": "traffic_signals"}}, {"type": "node", "id": 699576776, "lat": 12.9065768, "lon": 77.5730753, "tags": {"highway": "traffic_signals", "traffic_signals:countdown": "yes"}}, {"type": "node", "id": 699576791, "lat": 12.9175324, "lon": 77.5736007, "tags": {"highway": "traffic_signals"}}, {"type": "node", "id": 699576794, "lat": 12.9178186, "lon": 77.5734427, "tags": {"highway": "traffic_signals"}}, {"type": "node", "id": 699576806, "lat": 12.9066385, "lon": 77.5733265, "tags": {"highway": "traffic_signals", "traffic_signals:countdown": "yes"}}, {"type": "node", "id": 699585158, "lat": 12.9071971, "lon": 77.6006303, "tags": {"highway": "traffic_signals", "traffic_signals": "signal"}}, {"type": "node", "id": 699684258, "lat": 12.9255408, "lon": 77.5500917, "tags": {"highway": "traffic_signals"}}, {"type": "node", "id": 699684299, "lat": 12.9383665, "lon": 77.5333896, "tags": {"highway": "traffic_signals"}}, {"type": "node", "id": 699686049, "lat": 12.9596673, "lon": 77.5557221, "tags": {"highway": "traffic_signals", "traffic_signals:direction": "backward"}}, {"type": "node", "id": 699704164, "lat": 12.9363756, "lon": 77.5187438, "tags": {"highway": "traffic_signals"}}, {"type": "node", "id": 699704182, "lat": 12.9363084, "lon": 77.5182544, "tags": {"highway": "traffic_signals"}}, {"type": "node", "id": 699704288, "lat": 12.9127956, "lon": 77.485376, "tags": {"highway": "traffic_signals"}}, {"type": "node", "id": 701736119, "lat": 13.0400432, "lon": 77.5184589, "tags": {"highway": "traffic_signals", "name": "Jalahalli Cross", "name:kn": "\u0c9c\u0cbe\u0cb2\u0cb9\u0cb3\u0ccd\u0cb3\u0cbf \u0c95\u0ccd\u0cb0\u0cbe\u0cb8\u0ccd"}}, {"type": "node", "id": 736014437, "lat": 12.9701319, "lon": 77.6412438, "tags": {"highway": "traffic_signals", "junction": "yes", "name": "Sony Centre Signal", "name:kn": "\u0cb8\u0ccb\u0ca8\u0cbf \u0cb8\u0cc6\u0c82\u0c9f\u0cb0\u0ccd \u0cb8\u0cbf\u0c97\u0ccd\u0ca8\u0cb2\u0ccd"}}, {"type": "node", "id": 736207271, "lat": 12.9840371, "lon": 77.6405308, "tags": {"highway": "traffic_signals"}}, {"type": "node", "id": 736207419, "lat": 12.978223, "lon": 77.6408226, "tags": {"highway": "traffic_signals"}}, {"type": "node", "id": 767436688, "lat": 12.9613487, "lon": 77.6359629, "tags": {"highway": "traffic_signals", "traffic_signals": "signal"}}, {"type": "node", "id": 774662327, "lat": 13.0379678, "lon": 77.5223197, "tags": {"highway": "traffic_signals", "traffic_signals": "signal"}}, {"type": "node", "id": 858946512, "lat": 13.0347707, "lon": 77.5297388, "tags": {"highway": "traffic_signals", "name": "SRS"}}, {"type": "node", "id": 954175916, "lat": 12.9921334, "lon": 77.7155841, "tags": {"highway": "traffic_signals"}}, {"type": "node", "id": 954914704, "lat": 12.8794862, "lon": 77.5455211, "tags": {"highway": "traffic_signals", "traffic_signals": "signal"}}, {"type": "node", "id": 1054665120, "lat": 13.0425321, "lon": 77.5147035, "tags": {"highway": "traffic_signals", "traffic_signals": "signal"}}, {"type": "node", "id": 1054687502, "lat": 12.9607539, "lon": 77.5127801, "tags": {"highway": "traffic_signals", "junction": "yes", "name": "Nagarabhavi Circle", "name:kn": "\u0ca8\u0c97\u0cb0\u0cad\u0cbe\u0cb5\u0cbf \u0cb5\u0cc3\u0ca4\u0ccd\u0ca4"}}, {"type": "node", "id": 1054687612, "lat": 12.9579142, "lon": 77.5188872, "tags": {"highway": "traffic_signals"}}, {"type": "node", "id": 1067769827, "lat": 12.9604237, "lon": 77.6012676, "tags": {"highway": "traffic_signals", "traffic_signals": "signal"}}, {"type": "node", "id": 1067781019, "lat": 12.9648288, "lon": 77.5972953, "tags": {"highway": "traffic_signals", "traffic_signals": "signal"}}, {"type": "node", "id": 1070314190, "lat": 12.916787, "lon": 77.5736481, "tags": {"highway": "traffic_signals", "traffic_signals": "signal"}}, {"type": "node", "id": 1070314225, "lat": 12.9169852, "lon": 77.5734927, "tags": {"highway": "traffic_signals", "traffic_signals": "signal"}}, {"type": "node", "id": 1070361732, "lat": 12.9319553, "lon": 77.613411, "tags": {"highway": "traffic_signals"}}, {"type": "node", "id": 1070361796, "lat": 12.9277245, "lon": 77.6208562, "tags": {"highway": "traffic_signals"}}, {"type": "node", "id": 1070361799, "lat": 12.9246425, "lon": 77.6183237, "tags": {"highway": "traffic_signals", "source": "AND"}}, {"type": "node", "id": 1083470977, "lat": 12.9208738, "lon": 77.6652688, "tags": {"crossing": "traffic_signals", "crossing:markings": "zebra", "highway": "traffic_signals", "surface": "asphalt", "traffic_signals:sound": "no"}}, {"type": "node", "id": 1087824452, "lat": 12.9727661, "lon": 77.5816763, "tags": {"highway": "traffic_signals", "traffic_signals": "signal"}}, {"type": "node", "id": 1104241030, "lat": 12.9839487, "lon": 77.7525664, "tags": {"highway": "traffic_signals"}}, {"type": "node", "id": 1104243944, "lat": 12.983849, "lon": 77.7523143, "tags": {"highway": "traffic_signals"}}, {"type": "node", "id": 1109138335, "lat": 12.9976281, "lon": 77.5505127, "tags": {"highway": "traffic_signals"}}, {"type": "node", "id": 1109138343, "lat": 12.9974797, "lon": 77.5501793, "tags": {"highway": "traffic_signals"}}, {"type": "node", "id": 1111557421, "lat": 12.9832826, "lon": 77.5601888, "tags": {"highway": "traffic_signals", "name": "SJRC Circle", "name:kn": "\u0c8e\u0cb8\u0ccd\u200c\u0c9c\u0cc6\u0c86\u0cb0\u0ccd\u200c\u0cb8\u0cbf \u0cb8\u0cb0\u0ccd\u0c95\u0cb2\u0ccd", "traffic_signals": "signal"}}, {"type": "node", "id": 1111583828, "lat": 12.9843619, "lon": 77.554368, "tags": {"highway": "traffic_signals", "junction": "yes"}}, {"type": "node", "id": 1142146879, "lat": 12.9068489, "lon": 77.5210807, "tags": {"highway": "traffic_signals"}}, {"type": "node", "id": 1145362952, "lat": 12.9070942, "lon": 77.4991442, "tags": {"highway": "traffic_signals"}}, {"type": "node", "id": 1148895344, "lat": 12.9169237, "lon": 77.5896425, "tags": {"highway": "traffic_signals", "traffic_signals": "traffic_lights", "traffic_signals:countdown": "yes"}}, {"type": "node", "id": 1208642499, "lat": 12.8843419, "lon": 77.5965006, "tags": {"highway": "traffic_signals", "traffic_signals": "signal"}}, {"type": "node", "id": 1212302913, "lat": 12.9782143, "lon": 77.6368516, "tags": {"highway": "traffic_signals"}}, {"type": "node", "id": 1213632636, "lat": 12.9825502, "lon": 77.634728, "tags": {"highway": "traffic_signals"}}, {"type": "node", "id": 1232686144, "lat": 12.9765402, "lon": 77.598983, "tags": {"highway": "traffic_signals", "traffic_signals": "signal"}}, {"type": "node", "id": 1259491784, "lat": 12.9721697, "lon": 77.7117412, "tags": {"highway": "traffic_signals", "traffic_signals": "signal"}}, {"type": "node", "id": 1282881326, "lat": 12.9717707, "lon": 77.635978, "tags": {"highway": "traffic_signals"}}, {"type": "node", "id": 1285913198, "lat": 12.9875021, "lon": 77.5191615, "tags": {"highway": "traffic_signals", "junction": "yes", "name": "Sumanahalli Junction", "name:kn": "\u0cb8\u0cc1\u0cae\u0ca8\u0cb9\u0cb3\u0ccd\u0cb3\u0cbf \u0c9c\u0c82\u0c95\u0ccd\u0cb7\u0ca8\u0ccd"}}, {"type": "node", "id": 1285970595, "lat": 12.9247495, "lon": 77.4852963, "tags": {"highway": "traffic_signals", "traffic_signals": "signal"}}, {"type": "node", "id": 1290058655, "lat": 12.9886116, "lon": 77.6173088, "tags": {"highway": "traffic_signals"}}, {"type": "node", "id": 1290058657, "lat": 12.9955206, "lon": 77.6017655, "tags": {"highway": "traffic_signals"}}, {"type": "node", "id": 1331989759, "lat": 12.9064115, "lon": 77.5784876, "tags": {"highway": "traffic_signals", "traffic_signals": "signal"}}, {"type": "node", "id": 1368829017, "lat": 12.9837283, "lon": 77.7527373, "tags": {"highway": "traffic_signals"}}, {"type": "node", "id": 1404460897, "lat": 12.9782903, "lon": 77.6366011, "tags": {"highway": "traffic_signals"}}, {"type": "node", "id": 1404460899, "lat": 12.9783626, "lon": 77.6367655, "tags": {"highway": "traffic_signals"}}, {"type": "node", "id": 1404460918, "lat": 12.9784181, "lon": 77.6407099, "tags": {"highway": "traffic_signals"}}, {"type": "node", "id": 1404460921, "lat": 12.9785028, "lon": 77.6409112, "tags": {"crossing": "traffic_signals", "highway": "traffic_signals"}}, {"type": "node", "id": 1419475678, "lat": 12.8927681, "lon": 77.5988361, "tags": {"highway": "traffic_signals", "traffic_signals": "signal"}}, {"type": "node", "id": 1420105790, "lat": 12.9660019, "lon": 77.6253419, "tags": {"highway": "traffic_signals", "note": "ts both sides"}}, {"type": "node", "id": 1442364461, "lat": 12.9554114, "lon": 77.6893304, "tags": {"highway": "traffic_signals"}}, {"type": "node", "id": 1447805104, "lat": 12.9980708, "lon": 77.5530419, "tags": {"highway": "traffic_signals"}}, {"type": "node", "id": 1454651894, "lat": 12.9701358, "lon": 77.6103824, "tags": {"highway": "traffic_signals", "traffic_signals": "signal"}}, {"type": "node", "id": 1460720463, "lat": 12.9722464, "lon": 77.6194793, "tags": {"highway": "traffic_signals", "traffic_signals": "signal"}}, {"type": "node", "id": 1464138167, "lat": 12.9598462, "lon": 77.6489972, "tags": {"highway": "traffic_signals"}}, {"type": "node", "id": 1464786119, "lat": 12.9570041, "lon": 77.7008214, "tags": {"highway": "traffic_signals", "traffic_signals": "signal"}}, {"type": "node", "id": 1465590369, "lat": 12.9928395, "lon": 77.6096307, "tags": {"highway": "traffic_signals", "traffic_signals": "signal"}}, {"type": "node", "id": 1466495041, "lat": 12.9350964, "lon": 77.5606731, "tags": {"highway": "traffic_signals", "junction": "yes", "name": "Vidyapita Circle", "name:kn": "\u0cb5\u0cbf\u0ca6\u0ccd\u0caf\u0cbe\u0caa\u0cc0\u0ca0 \u0cb5\u0cc3\u0ca4\u0ccd\u0ca4", "note": "no right turn"}}, {"type": "node", "id": 1472269371, "lat": 12.9318314, "lon": 77.6134432, "tags": {"highway": "traffic_signals", "traffic_signals": "signal"}}, {"type": "node", "id": 1472878937, "lat": 12.9157033, "lon": 77.6381561, "tags": {"highway": "traffic_signals", "traffic_signals:countdown": "yes", "traffic_signals:direction": "forward"}}, {"type": "node", "id": 1472879613, "lat": 12.916377, "lon": 77.632469, "tags": {"highway": "traffic_signals", "traffic_signals": "signal"}}, {"type": "node", "id": 1473972539, "lat": 12.9481069, "lon": 77.5681044, "tags": {"highway": "traffic_signals", "traffic_signals": "signal"}}, {"type": "node", "id": 1473972578, "lat": 12.9476718, "lon": 77.5680541, "tags": {"highway": "traffic_signals"}}, {"type": "node", "id": 1473972602, "lat": 12.9477187, "lon": 77.5676939, "tags": {"highway": "traffic_signals", "traffic_signals": "signal"}}, {"type": "node", "id": 1487973952, "lat": 12.9356158, "lon": 77.5130713, "tags": {"highway": "traffic_signals"}}, {"type": "node", "id": 1521036326, "lat": 12.9948866, "lon": 77.5550879, "tags": {"highway": "traffic_signals", "traffic_signals": "signal"}}, {"type": "node", "id": 1522519270, "lat": 12.9406387, "lon": 77.5736362, "tags": {"highway": "traffic_signals"}}, {"type": "node", "id": 1523537390, "lat": 12.9841964, "lon": 77.5969365, "tags": {"highway": "traffic_signals", "traffic_signals": "signal"}}, {"type": "node", "id": 1523569756, "lat": 12.9766767, "lon": 77.7272738, "tags": {"highway": "traffic_signals", "traffic_signals": "signal", "traffic_signals:countdown": "yes"}}, {"type": "node", "id": 1548748220, "lat": 12.968149, "lon": 77.6002446, "tags": {"highway": "traffic_signals"}}, {"type": "node", "id": 1557291145, "lat": 12.9669918, "lon": 77.6112878, "tags": {"highway": "traffic_signals"}}, {"type": "node", "id": 1559350748, "lat": 12.9573276, "lon": 77.5733025, "tags": {"crossing": "traffic_signals", "designation": "Professor P Shivashankar Circle", "highway": "traffic_signals"}}, {"type": "node", "id": 1560168999, "lat": 12.9806055, "lon": 77.5746095, "tags": {"highway": "traffic_signals", "traffic_signals": "signal"}}, {"type": "node", "id": 1585678352, "lat": 12.9763232, "lon": 77.7270963, "tags": {"highway": "traffic_signals", "traffic_signals": "signal", "traffic_signals:countdown": "yes"}}, {"type": "node", "id": 1586950862, "lat": 12.9886729, "lon": 77.6172469, "tags": {"highway": "traffic_signals"}}, {"type": "node", "id": 1589590957, "lat": 12.9937243, "lon": 77.6074617, "tags": {"highway": "traffic_signals"}}, {"type": "node", "id": 1608973481, "lat": 12.9237686, "lon": 77.6401349, "tags": {"highway": "traffic_signals"}}, {"type": "node", "id": 1609661649, "lat": 12.923984, "lon": 77.6397693, "tags": {"highway": "traffic_signals"}}, {"type": "node", "id": 1611272493, "lat": 12.9675531, "lon": 77.5888979, "tags": {"highway": "traffic_signals", "traffic_signals:countdown": "yes"}}, {"type": "node", "id": 1613152619, "lat": 12.9072616, "lon": 77.6289105, "tags": {"highway": "traffic_signals"}}, {"type": "node", "id": 1613154921, "lat": 12.8942451, "lon": 77.6366853, "tags": {"highway": "traffic_signals"}}, {"type": "node", "id": 1613154922, "lat": 12.8944658, "lon": 77.6367425, "tags": {"highway": "traffic_signals"}}, {"type": "node", "id": 1620344798, "lat": 12.9315406, "lon": 77.622498, "tags": {"highway": "traffic_signals"}}, {"type": "node", "id": 1623700176, "lat": 12.9482303, "lon": 77.5678668, "tags": {"highway": "traffic_signals", "traffic_signals": "signal"}}, {"type": "node", "id": 1625402539, "lat": 12.9345169, "lon": 77.6238935, "tags": {"highway": "traffic_signals"}}, {"type": "node", "id": 1631443660, "lat": 12.9891786, "lon": 77.7267562, "tags": {"highway": "traffic_signals", "traffic_signals": "signal"}}, {"type": "node", "id": 1636623257, "lat": 12.9806277, "lon": 77.5748295, "tags": {"crossing": "traffic_signals", "highway": "traffic_signals", "traffic_signals:direction": "forward"}}, {"type": "node", "id": 1636820456, "lat": 12.9801453, "lon": 77.5711205, "tags": {"highway": "traffic_signals", "traffic_signals": "signal", "traffic_signals:direction": "forward"}}, {"type": "node", "id": 1636820490, "lat": 12.9799466, "lon": 77.5709964, "tags": {"highway": "traffic_signals", "traffic_signals:direction": "forward"}}, {"type": "node", "id": 1650305509, "lat": 12.9768452, "lon": 77.5992807, "tags": {"highway": "traffic_signals"}}, {"type": "node", "id": 1653906418, "lat": 12.9161919, "lon": 77.6382615, "tags": {"highway": "traffic_signals", "traffic_signals": "signal", "traffic_signals:countdown": "yes"}}, {"type": "node", "id": 1668866516, "lat": 12.9638866, "lon": 77.5767121, "tags": {"crossing": "uncontrolled", "highway": "traffic_signals"}}, {"type": "node", "id": 1675239400, "lat": 12.9374466, "lon": 77.6268399, "tags": {"highway": "traffic_signals", "name": "Sony World Signal", "name:kn": "\u0cb8\u0ccb\u0ca8\u0cbf \u0cb5\u0cb0\u0ccd\u0cb2\u0ccd\u0ca1\u0ccd \u0cb8\u0cbf\u0c97\u0ccd\u0ca8\u0cb2\u0ccd", "traffic_signals": "signal", "traffic_signals:direction": "forward"}}, {"type": "node", "id": 1681763291, "lat": 13.0566292, "lon": 77.5073597, "tags": {"highway": "traffic_signals", "traffic_signals": "signal"}}, {"type": "node", "id": 1698055256, "lat": 12.9818429, "lon": 77.6229962, "tags": {"highway": "traffic_signals", "traffic_signals": "signal"}}, {"type": "node", "id": 1719191867, "lat": 12.987519, "lon": 77.5196648, "tags": {"highway": "traffic_signals"}}, {"type": "node", "id": 1726152644, "lat": 12.9775854, "lon": 77.590487, "tags": {"highway": "traffic_signals", "traffic_signals": "signal"}}, {"type": "node", "id": 1732873704, "lat": 12.9065044, "lon": 77.5782584, "tags": {"highway": "traffic_signals", "traffic_signals": "signal"}}, {"type": "node", "id": 1775972263, "lat": 12.9206601, "lon": 77.6651968, "tags": {"highway": "traffic_signals", "name": "Iblur Junction", "traffic_signals": "signal", "traffic_signals:direction": "forward"}}, {"type": "node", "id": 1780288371, "lat": 12.9543756, "lon": 77.544192, "tags": {"highway": "traffic_signals", "traffic_signals": "signal"}}, {"type": "node", "id": 1794666983, "lat": 13.0258942, "lon": 77.5207969, "tags": {"highway": "traffic_signals"}}, {"type": "node", "id": 1820423092, "lat": 12.9758813, "lon": 77.5645262, "tags": {"highway": "traffic_signals"}}, {"type": "node", "id": 1820431143, "lat": 12.9739005, "lon": 77.5496116, "tags": {"highway": "traffic_signals"}}, {"type": "node", "id": 1820431145, "lat": 12.9749654, "lon": 77.5481412, "tags": {"highway": "traffic_signals"}}, {"type": "node", "id": 1827247442, "lat": 12.9205434, "lon": 77.6652441, "tags": {"highway": "traffic_signals", "traffic_signals:direction": "forward"}}, {"type": "node", "id": 1827480124, "lat": 12.9021347, "lon": 77.6011014, "tags": {"highway": "traffic_signals"}}, {"type": "node", "id": 1834315102, "lat": 13.0188431, "lon": 77.6557007, "tags": {"highway": "traffic_signals", "traffic_signals": "signal"}}, {"type": "node", "id": 1835344749, "lat": 12.9126629, "lon": 77.4850997, "tags": {"highway": "traffic_signals"}}, {"type": "node", "id": 1835344809, "lat": 12.915517, "lon": 77.5695788, "tags": {"highway": "traffic_signals", "traffic_signals": "signal"}}, {"type": "node", "id": 1836940343, "lat": 12.9605367, "lon": 77.5716748, "tags": {"highway": "traffic_signals"}}, {"type": "node", "id": 1836982983, "lat": 12.928172, "lon": 77.5462074, "tags": {"highway": "traffic_signals", "traffic_signals": "signal"}}, {"type": "node", "id": 1837005138, "lat": 12.9240947, "lon": 77.6286029, "tags": {"highway": "traffic_signals"}}, {"type": "node", "id": 1837297484, "lat": 13.008328, "lon": 77.6958894, "tags": {"highway": "traffic_signals"}}, {"type": "node", "id": 1837297533, "lat": 13.0170337, "lon": 77.7045159, "tags": {"highway": "traffic_signals", "traffic_signals": "signal"}}, {"type": "node", "id": 1837297537, "lat": 13.0171458, "lon": 77.7044679, "tags": {"highway": "traffic_signals"}}, {"type": "node", "id": 1837297544, "lat": 13.0192879, "lon": 77.7085908, "tags": {"highway": "traffic_signals", "traffic_signals": "signal"}}, {"type": "node", "id": 1837297545, "lat": 13.0193822, "lon": 77.7085208, "tags": {"highway": "traffic_signals"}}, {"type": "node", "id": 1837297546, "lat": 13.0194832, "lon": 77.708454, "tags": {"highway": "traffic_signals", "traffic_signals": "signal"}}, {"type": "node", "id": 1837297547, "lat": 13.0195557, "lon": 77.7084042, "tags": {"highway": "traffic_signals", "traffic_signals": "signal"}}, {"type": "node", "id": 1837378093, "lat": 12.9306069, "lon": 77.5472159, "tags": {"highway": "traffic_signals"}}, {"type": "node", "id": 1837378508, "lat": 12.9747529, "lon": 77.5486041, "tags": {"highway": "traffic_signals"}}, {"type": "node", "id": 1837445421, "lat": 12.975279, "lon": 77.6081191, "tags": {"highway": "traffic_signals"}}, {"type": "node", "id": 1837445449, "lat": 12.977331, "lon": 77.6085674, "tags": {"crossing": "traffic_signals", "crossing:signals": "yes", "highway": "traffic_signals", "traffic_signals:sound": "walk"}}, {"type": "node", "id": 1837445468, "lat": 12.9808785, "lon": 77.6100039, "tags": {"highway": "traffic_signals"}}, {"type": "node", "id": 1837595259, "lat": 12.9779948, "lon": 77.6067007, "tags": {"crossing": "traffic_signals", "crossing:markings": "zebra", "highway": "traffic_signals", "traffic_signals:sound": "walk"}}, {"type": "node", "id": 1837634274, "lat": 12.9885956, "lon": 77.6171653, "tags": {"highway": "traffic_signals"}}, {"type": "node", "id": 1837693718, "lat": 13.028675, "lon": 77.6637949, "tags": {"highway": "traffic_signals", "traffic_signals": "signal"}}, {"type": "node", "id": 1837716605, "lat": 12.9532701, "lon": 77.5737925, "tags": {"highway": "traffic_signals"}}, {"type": "node", "id": 1837716641, "lat": 12.9575946, "lon": 77.5738004, "tags": {"highway": "traffic_signals", "traffic_signals": "signal"}}, {"type": "node", "id": 1837757402, "lat": 12.9483199, "lon": 77.5768889, "tags": {"highway": "traffic_signals", "traffic_signals": "signal"}}, {"type": "node", "id": 1837783512, "lat": 12.9751973, "lon": 77.6143154, "tags": {"highway": "traffic_signals"}}, {"type": "node", "id": 1837783514, "lat": 12.9754417, "lon": 77.6142851, "tags": {"highway": "traffic_signals"}}, {"type": "node", "id": 1837783520, "lat": 12.9762779, "lon": 77.6148239, "tags": {"highway": "traffic_signals"}}, {"type": "node", "id": 1837823400, "lat": 13.0010386, "lon": 77.6118464, "tags": {"highway": "traffic_signals"}}, {"type": "node", "id": 1843612311, "lat": 12.9955715, "lon": 77.6164532, "tags": {"highway": "traffic_signals"}}, {"type": "node", "id": 1843612344, "lat": 12.9956109, "lon": 77.6168699, "tags": {"highway": "traffic_signals"}}, {"type": "node", "id": 1908194764, "lat": 12.9602913, "lon": 77.6015941, "tags": {"highway": "traffic_signals"}}, {"type": "node", "id": 1925410536, "lat": 12.9611046, "lon": 77.5880318, "tags": {"highway": "traffic_signals"}}, {"type": "node", "id": 1931853240, "lat": 12.9675272, "lon": 77.5450151, "tags": {"highway": "traffic_signals", "traffic_signals": "signal"}}, {"type": "node", "id": 1931866158, "lat": 12.9758072, "lon": 77.5644657, "tags": {"highway": "traffic_signals"}}, {"type": "node", "id": 1952787446, "lat": 13.0455908, "lon": 77.5564803, "tags": {"highway": "traffic_signals", "traffic_signals": "signal"}}, {"type": "node", "id": 1952787467, "lat": 13.0456326, "lon": 77.5564088, "tags": {"highway": "traffic_signals", "traffic_signals": "signal"}}, {"type": "node", "id": 1952787469, "lat": 13.0454654, "lon": 77.5564362, "tags": {"highway": "traffic_signals", "traffic_signals": "signal"}}, {"type": "node", "id": 1952787489, "lat": 13.0455571, "lon": 77.5563229, "tags": {"highway": "traffic_signals", "traffic_signals": "signal"}}, {"type": "node", "id": 1952787491, "lat": 13.0456221, "lon": 77.5564386, "tags": {"highway": "traffic_signals", "traffic_signals": "signal"}}, {"type": "node", "id": 1989699952, "lat": 12.9938571, "lon": 77.5852249, "tags": {"highway": "traffic_signals"}}, {"type": "node", "id": 1989699958, "lat": 12.9931813, "lon": 77.5850708, "tags": {"highway": "traffic_signals", "junction": "circular"}}, {"type": "node", "id": 1989700046, "lat": 12.9938447, "lon": 77.5849259, "tags": {"highway": "traffic_signals", "name": "Windsor Square", "traffic_signals": "signal"}}, {"type": "node", "id": 2014710885, "lat": 12.9844575, "lon": 77.5719189, "tags": {"highway": "traffic_signals", "traffic_signals": "signal"}}, {"type": "node", "id": 2014710915, "lat": 12.984492, "lon": 77.5723829, "tags": {"highway": "traffic_signals", "traffic_signals": "signal"}}, {"type": "node", "id": 2014710929, "lat": 12.9852023, "lon": 77.5720997, "tags": {"highway": "traffic_signals", "traffic_signals": "signal"}}, {"type": "node", "id": 2014710951, "lat": 12.9849073, "lon": 77.5721485, "tags": {"highway": "traffic_signals", "traffic_signals": "signal"}}, {"type": "node", "id": 2014710968, "lat": 12.9845988, "lon": 77.5722347, "tags": {"highway": "traffic_signals", "traffic_signals": "signal"}}, {"type": "node", "id": 2014870742, "lat": 12.9307629, "lon": 77.5860545, "tags": {"highway": "traffic_signals", "traffic_signals": "signal"}}, {"type": "node", "id": 2123555481, "lat": 12.9295025, "lon": 77.6155207, "tags": {"highway": "traffic_signals", "junction": "yes", "name": "St. Johns Junction", "name:kn": "\u0cb8\u0c82\u0ca4 \u0c9c\u0cbe\u0ca8\u0ccd\u0cb8\u0ccd \u0c9c\u0c82\u0c95\u0ccd\u0cb7\u0ca8\u0ccd"}}, {"type": "node", "id": 2124745502, "lat": 13.1223335, "lon": 77.6305338, "tags": {"highway": "traffic_signals", "traffic_signals": "signal"}}, {"type": "node", "id": 2124745542, "lat": 13.1222587, "lon": 77.6303079, "tags": {"highway": "traffic_signals", "traffic_signals": "signal"}}, {"type": "node", "id": 2125916065, "lat": 13.0368318, "lon": 77.6407645, "tags": {"highway": "traffic_signals", "traffic_signals": "signal"}}, {"type": "node", "id": 2125916087, "lat": 13.0395254, "lon": 77.6416555, "tags": {"highway": "traffic_signals"}}, {"type": "node", "id": 2221301505, "lat": 12.957379, "lon": 77.5521321, "tags": {"highway": "traffic_signals", "traffic_signals": "signal"}}, {"type": "node", "id": 2268179269, "lat": 12.9662057, "lon": 77.6250413, "tags": {"highway": "traffic_signals", "note": "ts both sides"}}, {"type": "node", "id": 2300032317, "lat": 13.114707, "lon": 77.5789749, "tags": {"highway": "traffic_signals", "name": "Anantapura Gate", "name:kn": "\u0c85\u0ca8\u0c82\u0ca4\u0caa\u0cc1\u0cb0 \u0c97\u0cc7\u0c9f\u0ccd", "traffic_signals": "signal"}}, {"type": "node", "id": 2334208112, "lat": 12.9530285, "lon": 77.5416056, "tags": {"highway": "traffic_signals", "traffic_signals": "signal"}}, {"type": "node", "id": 2382016055, "lat": 12.9831374, "lon": 77.5956513, "tags": {"highway": "traffic_signals"}}, {"type": "node", "id": 2386067856, "lat": 12.9833185, "lon": 77.5960121, "tags": {"highway": "traffic_signals"}}, {"type": "node", "id": 2387127870, "lat": 12.9240075, "lon": 77.6517361, "tags": {"highway": "traffic_signals", "traffic_signals": "signal", "traffic_signals:direction": "forward"}}, {"type": "node", "id": 2387385680, "lat": 12.9246483, "lon": 77.6499056, "tags": {"highway": "traffic_signals", "traffic_signals:direction": "forward"}}, {"type": "node", "id": 2402241110, "lat": 12.9451458, "lon": 77.5277866, "tags": {"highway": "traffic_signals", "traffic_signals": "signal"}}, {"type": "node", "id": 2406980229, "lat": 12.956675, "lon": 77.7009299, "tags": {"highway": "traffic_signals", "traffic_signals": "signal"}}, {"type": "node", "id": 2408586316, "lat": 13.0433984, "lon": 77.5907704, "tags": {"highway": "traffic_signals", "traffic_signals": "signal"}}, {"type": "node", "id": 2446005983, "lat": 13.0436084, "lon": 77.5614265, "tags": {"highway": "traffic_signals"}}, {"type": "node", "id": 2447233119, "lat": 13.0815132, "lon": 77.5483393, "tags": {"highway": "traffic_signals", "traffic_signals": "signal"}}, {"type": "node", "id": 2447233120, "lat": 13.0815752, "lon": 77.5482279, "tags": {"highway": "traffic_signals", "traffic_signals": "signal"}}, {"type": "node", "id": 2447233122, "lat": 13.08168, "lon": 77.5482495, "tags": {"highway": "traffic_signals", "traffic_signals": "signal"}}, {"type": "node", "id": 2447233127, "lat": 13.0816898, "lon": 77.5483847, "tags": {"highway": "traffic_signals", "traffic_signals": "signal"}}, {"type": "node", "id": 2447233128, "lat": 13.0816038, "lon": 77.5484245, "tags": {"highway": "traffic_signals", "traffic_signals": "signal"}}, {"type": "node", "id": 2447233134, "lat": 13.081704, "lon": 77.5482869, "tags": {"highway": "traffic_signals", "traffic_signals": "signal"}}, {"type": "node", "id": 2451336631, "lat": 13.0953061, "lon": 77.5942859, "tags": {"highway": "traffic_signals", "traffic_signals": "signal"}}, {"type": "node", "id": 2451336634, "lat": 13.1037498, "lon": 77.6000901, "tags": {"highway": "traffic_signals", "name": "Kogilu Cross", "name:kn": "\u0c95\u0ccb\u0c97\u0cbf\u0cb2\u0cc1 \u0c95\u0ccd\u0cb0\u0cbe\u0cb8\u0ccd"}}, {"type": "node", "id": 2455311260, "lat": 13.1149996, "lon": 77.5789662, "tags": {"highway": "traffic_signals", "traffic_signals": "signal"}}, {"type": "node", "id": 2460236929, "lat": 13.0675577, "lon": 77.6337558, "tags": {"highway": "traffic_signals"}}, {"type": "node", "id": 2462936984, "lat": 12.984566, "lon": 77.5972588, "tags": {"highway": "traffic_signals", "traffic_signals": "signal"}}, {"type": "node", "id": 2473230014, "lat": 13.0091599, "lon": 77.6433951, "tags": {"highway": "traffic_signals"}}, {"type": "node", "id": 2513553543, "lat": 12.9064718, "lon": 77.5950891, "tags": {"highway": "traffic_signals"}}, {"type": "node", "id": 2572573442, "lat": 13.0434164, "lon": 77.5612012, "tags": {"highway": "traffic_signals"}}, {"type": "node", "id": 2578344267, "lat": 13.0435677, "lon": 77.556902, "tags": {"highway": "traffic_signals"}}, {"type": "node", "id": 2694634184, "lat": 12.9738108, "lon": 77.6137584, "tags": {"crossing": "traffic_signals", "crossing:markings": "zebra", "highway": "traffic_signals", "tactile_paving": "no", "traffic_signals:sound": "walk"}}, {"type": "node", "id": 2694706128, "lat": 12.97388, "lon": 77.6139874, "tags": {"highway": "traffic_signals", "traffic_signals": "signal"}}, {"type": "node", "id": 2703669937, "lat": 13.0140818, "lon": 77.5654923, "tags": {"highway": "traffic_signals"}}, {"type": "node", "id": 2703669945, "lat": 13.0148328, "lon": 77.5728327, "tags": {"highway": "traffic_signals", "traffic_signals": "signal"}}, {"type": "node", "id": 2890442001, "lat": 12.964402, "lon": 77.6066895, "tags": {"highway": "traffic_signals"}}, {"type": "node", "id": 2971089260, "lat": 12.9174509, "lon": 77.6227954, "tags": {"highway": "traffic_signals"}}, {"type": "node", "id": 2999494951, "lat": 12.9716577, "lon": 77.6195948, "tags": {"highway": "traffic_signals"}}, {"type": "node", "id": 2999530964, "lat": 12.9713821, "lon": 77.6195285, "tags": {"highway": "traffic_signals", "traffic_signals": "signal"}}, {"type": "node", "id": 2999530965, "lat": 12.9685126, "lon": 77.6140539, "tags": {"highway": "traffic_signals", "traffic_signals": "signal"}}, {"type": "node", "id": 2999607461, "lat": 12.9669099, "lon": 77.6205972, "tags": {"highway": "traffic_signals", "traffic_signals": "signal"}}, {"type": "node", "id": 3170035580, "lat": 12.9726485, "lon": 77.6204077, "tags": {"highway": "traffic_signals", "traffic_signals": "signal"}}, {"type": "node", "id": 3170035581, "lat": 12.9725667, "lon": 77.6196368, "tags": {"highway": "traffic_signals", "traffic_signals": "signal"}}, {"type": "node", "id": 3191039329, "lat": 13.0041187, "lon": 77.619726, "tags": {"highway": "traffic_signals", "traffic_signals": "signal"}}, {"type": "node", "id": 3242486429, "lat": 12.923482, "lon": 77.5761514, "tags": {"highway": "traffic_signals", "traffic_signals": "signal"}}, {"type": "node", "id": 3268824710, "lat": 12.9650689, "lon": 77.6099455, "tags": {"highway": "traffic_signals"}}, {"type": "node", "id": 3304182907, "lat": 12.9817425, "lon": 77.6286922, "tags": {"highway": "traffic_signals", "traffic_signals": "signal"}}, {"type": "node", "id": 3304182912, "lat": 12.9817896, "lon": 77.6284605, "tags": {"crossing": "traffic_signals", "highway": "traffic_signals"}}, {"type": "node", "id": 3305876069, "lat": 12.9765063, "lon": 77.6020105, "tags": {"highway": "traffic_signals", "traffic_signals": "signal"}}, {"type": "node", "id": 3305876073, "lat": 12.9791573, "lon": 77.6025833, "tags": {"highway": "traffic_signals"}}, {"type": "node", "id": 3342156305, "lat": 13.0020647, "lon": 77.6121555, "tags": {"highway": "traffic_signals"}}, {"type": "node", "id": 3352035441, "lat": 12.9828791, "lon": 77.6374502, "tags": {"highway": "traffic_signals"}}, {"type": "node", "id": 3356003439, "lat": 12.9480638, "lon": 77.5736714, "tags": {"highway": "traffic_signals"}}, {"type": "node", "id": 3356003440, "lat": 12.9483685, "lon": 77.5735362, "tags": {"highway": "traffic_signals"}}, {"type": "node", "id": 3370456514, "lat": 12.968868, "lon": 77.6478925, "tags": {"highway": "traffic_signals", "traffic_signals:countdown": "yes", "traffic_signals:direction": "forward"}}, {"type": "node", "id": 3370456522, "lat": 12.9787067, "lon": 77.6466325, "tags": {"highway": "traffic_signals"}}, {"type": "node", "id": 3370456523, "lat": 12.9786193, "lon": 77.6464966, "tags": {"highway": "traffic_signals"}}, {"type": "node", "id": 3370456524, "lat": 12.9793487, "lon": 77.6464929, "tags": {"highway": "traffic_signals", "traffic_signals": "signal", "traffic_signals:countdown": "yes"}}, {"type": "node", "id": 3370456536, "lat": 12.9857557, "lon": 77.6452204, "tags": {"highway": "traffic_signals"}}, {"type": "node", "id": 3399083525, "lat": 12.935775, "lon": 77.6153649, "tags": {"highway": "traffic_signals", "traffic_signals": "signal"}}, {"type": "node", "id": 3416355497, "lat": 12.983233, "lon": 77.5606048, "tags": {"highway": "traffic_signals", "traffic_signals": "signal"}}, {"type": "node", "id": 3416355498, "lat": 12.9833467, "lon": 77.5602962, "tags": {"highway": "traffic_signals", "traffic_signals": "signal"}}, {"type": "node", "id": 3659483616, "lat": 13.0192733, "lon": 77.6557755, "tags": {"highway": "traffic_signals", "traffic_signals": "signal"}}, {"type": "node", "id": 3664134386, "lat": 12.9674905, "lon": 77.5451089, "tags": {"highway": "traffic_signals", "traffic_signals": "signal"}}, {"type": "node", "id": 3676182371, "lat": 13.009792, "lon": 77.5907195, "tags": {"highway": "traffic_signals"}}, {"type": "node", "id": 3676182395, "lat": 13.0144958, "lon": 77.5843342, "tags": {"highway": "traffic_signals"}}, {"type": "node", "id": 3676198961, "lat": 12.9843485, "lon": 77.5823624, "tags": {"highway": "traffic_signals", "traffic_signals": "signal"}}, {"type": "node", "id": 3677919903, "lat": 12.9319484, "lon": 77.6137122, "tags": {"highway": "traffic_signals", "traffic_signals": "signal"}}, {"type": "node", "id": 3730964461, "lat": 12.9749592, "lon": 77.6253885, "tags": {"highway": "traffic_signals"}}, {"type": "node", "id": 3740957808, "lat": 12.9398042, "lon": 77.6253216, "tags": {"highway": "traffic_signals", "traffic_signals": "signal"}}, {"type": "node", "id": 3740957817, "lat": 12.9423591, "lon": 77.6228777, "tags": {"highway": "traffic_signals"}}, {"type": "node", "id": 3740957818, "lat": 12.9424494, "lon": 77.6225928, "tags": {"highway": "traffic_signals"}}, {"type": "node", "id": 3740962156, "lat": 12.9524384, "lon": 77.6201616, "tags": {"highway": "traffic_signals"}}, {"type": "node", "id": 3751677693, "lat": 12.9861498, "lon": 77.589737, "tags": {"highway": "traffic_signals", "traffic_signals": "signal"}}, {"type": "node", "id": 3755576616, "lat": 12.9803996, "lon": 77.5709223, "tags": {"highway": "traffic_signals", "traffic_signals": "signal"}}, {"type": "node", "id": 3770161990, "lat": 12.9606132, "lon": 77.5716719, "tags": {"highway": "traffic_signals", "traffic_signals": "signal"}}, {"type": "node", "id": 3780895950, "lat": 12.9594525, "lon": 77.6540357, "tags": {"highway": "traffic_signals"}}, {"type": "node", "id": 3780895951, "lat": 12.9593423, "lon": 77.6543758, "tags": {"highway": "traffic_signals"}}, {"type": "node", "id": 3801688125, "lat": 12.9342983, "lon": 77.6297442, "tags": {"highway": "traffic_signals"}}, {"type": "node", "id": 3801688126, "lat": 12.9345563, "lon": 77.629595, "tags": {"highway": "traffic_signals"}}, {"type": "node", "id": 3801692788, "lat": 12.9371207, "lon": 77.6270122, "tags": {"highway": "traffic_signals", "traffic_signals": "signal", "traffic_signals:direction": "forward"}}, {"type": "node", "id": 3801692790, "lat": 12.9372333, "lon": 77.6268138, "tags": {"highway": "traffic_signals", "name": "Sony World Signal", "name:kn": "\u0cb8\u0ccb\u0ca8\u0cbf \u0cb5\u0cb0\u0ccd\u0cb2\u0ccd\u0ca1\u0ccd \u0cb8\u0cbf\u0c97\u0ccd\u0ca8\u0cb2\u0ccd", "traffic_signals": "signal", "traffic_signals:direction": "forward"}}, {"type": "node", "id": 3803149238, "lat": 12.9614906, "lon": 77.6357904, "tags": {"highway": "traffic_signals"}}, {"type": "node", "id": 3805003789, "lat": 12.9169462, "lon": 77.6228375, "tags": {"highway": "traffic_signals", "traffic_signals": "signal"}}, {"type": "node", "id": 3806218133, "lat": 12.9610178, "lon": 77.6385457, "tags": {"highway": "traffic_signals"}}, {"type": "node", "id": 3833983041, "lat": 13.0451875, "lon": 77.5073485, "tags": {"highway": "traffic_signals"}}, {"type": "node", "id": 3856885384, "lat": 13.0455631, "lon": 77.5074436, "tags": {"highway": "traffic_signals", "traffic_signals": "signal"}}, {"type": "node", "id": 3919859765, "lat": 12.9967511, "lon": 77.569567, "tags": {"highway": "traffic_signals"}}, {"type": "node", "id": 3919859801, "lat": 12.998256, "lon": 77.5529207, "tags": {"highway": "traffic_signals", "traffic_signals": "signal"}}, {"type": "node", "id": 3919864562, "lat": 12.9974997, "lon": 77.5463697, "tags": {"highway": "traffic_signals"}}, {"type": "node", "id": 3919864571, "lat": 12.9976499, "lon": 77.5500293, "tags": {"highway": "traffic_signals"}}, {"type": "node", "id": 3919864572, "lat": 12.9978394, "lon": 77.5504004, "tags": {"highway": "traffic_signals"}}, {"type": "node", "id": 3919864573, "lat": 12.9978455, "lon": 77.5510633, "tags": {"highway": "traffic_signals"}}, {"type": "node", "id": 3980460302, "lat": 12.9747321, "lon": 77.6199527, "tags": {"highway": "traffic_signals"}}, {"type": "node", "id": 3982070777, "lat": 12.9880349, "lon": 77.5124219, "tags": {"highway": "traffic_signals"}}, {"type": "node", "id": 4030004341, "lat": 12.9937568, "lon": 77.5955811, "tags": {"highway": "traffic_signals"}}, {"type": "node", "id": 4030321893, "lat": 12.990731, "lon": 77.5994505, "tags": {"highway": "traffic_signals", "traffic_signals": "signal"}}, {"type": "node", "id": 4044110261, "lat": 12.965037, "lon": 77.6099001, "tags": {"highway": "traffic_signals"}}, {"type": "node", "id": 4044110267, "lat": 12.9651727, "lon": 77.6176955, "tags": {"highway": "traffic_signals"}}, {"type": "node", "id": 4044263598, "lat": 12.9744754, "lon": 77.6109767, "tags": {"highway": "traffic_signals"}}, {"type": "node", "id": 4044263599, "lat": 12.9742918, "lon": 77.6112676, "tags": {"highway": "traffic_signals", "traffic_signals": "signal"}}, {"type": "node", "id": 4044288574, "lat": 12.9885236, "lon": 77.6172253, "tags": {"highway": "traffic_signals"}}, {"type": "node", "id": 4058219853, "lat": 12.9933787, "lon": 77.595564, "tags": {"highway": "traffic_signals"}}, {"type": "node", "id": 4058219855, "lat": 12.993319, "lon": 77.5959281, "tags": {"highway": "traffic_signals"}}, {"type": "node", "id": 4058224571, "lat": 12.9869098, "lon": 77.5886234, "tags": {"highway": "traffic_signals", "traffic_signals": "signal"}}, {"type": "node", "id": 4058224812, "lat": 12.9719759, "lon": 77.5941216, "tags": {"highway": "traffic_signals", "traffic_signals": "signal"}}, {"type": "node", "id": 4058224830, "lat": 12.9720662, "lon": 77.5941463, "tags": {"crossing": "traffic_signals", "crossing:markings": "zebra", "highway": "traffic_signals"}}, {"type": "node", "id": 4127931099, "lat": 12.9482388, "lon": 77.576775, "tags": {"highway": "traffic_signals", "traffic_signals": "signal"}}, {"type": "node", "id": 4127931100, "lat": 12.9482401, "lon": 77.5768894, "tags": {"highway": "traffic_signals", "traffic_signals": "signal"}}, {"type": "node", "id": 4161839915, "lat": 12.9276546, "lon": 77.620768, "tags": {"highway": "traffic_signals"}}, {"type": "node", "id": 4393134092, "lat": 13.0038981, "lon": 77.5493688, "tags": {"highway": "traffic_signals", "traffic_signals": "signal"}}, {"type": "node", "id": 4406882464, "lat": 12.9167634, "lon": 77.6101325, "tags": {"highway": "traffic_signals"}}, {"type": "node", "id": 4445274988, "lat": 12.9186953, "lon": 77.6855476, "tags": {"highway": "traffic_signals", "traffic_signals": "signal", "traffic_signals:direction": "forward"}}, {"type": "node", "id": 4465530917, "lat": 12.9569153, "lon": 77.7009595, "tags": {"highway": "traffic_signals", "traffic_signals": "signal"}}, {"type": "node", "id": 4490333425, "lat": 12.9297056, "lon": 77.6331099, "tags": {"highway": "traffic_signals", "traffic_signals": "signal"}}, {"type": "node", "id": 4614143317, "lat": 12.9063126, "lon": 77.5732216, "tags": {"highway": "traffic_signals", "traffic_signals": "signal", "traffic_signals:countdown": "yes"}}, {"type": "node", "id": 4692270064, "lat": 12.9166272, "lon": 77.6099779, "tags": {"highway": "traffic_signals", "traffic_signals:countdown": "yes"}}, {"type": "node", "id": 4692270065, "lat": 12.91641, "lon": 77.6100478, "tags": {"highway": "traffic_signals", "traffic_signals:countdown": "yes"}}, {"type": "node", "id": 4692270067, "lat": 12.9140086, "lon": 77.610037, "tags": {"highway": "traffic_signals"}}, {"type": "node", "id": 4692323186, "lat": 12.987977, "lon": 77.5122546, "tags": {"highway": "traffic_signals"}}, {"type": "node", "id": 4692323187, "lat": 12.9879387, "lon": 77.5123941, "tags": {"highway": "traffic_signals"}}, {"type": "node", "id": 4692331556, "lat": 12.9870776, "lon": 77.5191772, "tags": {"highway": "traffic_signals", "junction": "yes", "name": "Sumanahalli Junction", "name:kn": "\u0cb8\u0cc1\u0cae\u0ca8\u0cb9\u0cb3\u0ccd\u0cb3\u0cbf \u0c9c\u0c82\u0c95\u0ccd\u0cb7\u0ca8\u0ccd"}}, {"type": "node", "id": 4696742622, "lat": 12.9784728, "lon": 77.5426088, "tags": {"highway": "traffic_signals", "name": "Jaimuni Rao Circle", "traffic_signals": "signal"}}, {"type": "node", "id": 4701357989, "lat": 12.9177484, "lon": 77.5735837, "tags": {"highway": "traffic_signals"}}, {"type": "node", "id": 4703140386, "lat": 12.9209276, "lon": 77.6202958, "tags": {"highway": "traffic_signals"}}, {"type": "node", "id": 4703663956, "lat": 12.9949102, "lon": 77.5551716, "tags": {"highway": "traffic_signals", "traffic_signals": "signal"}}, {"type": "node", "id": 4703663964, "lat": 12.9982024, "lon": 77.5531939, "tags": {"highway": "traffic_signals", "traffic_signals": "signal"}}, {"type": "node", "id": 4703697696, "lat": 12.9758723, "lon": 77.5643949, "tags": {"highway": "traffic_signals"}}, {"type": "node", "id": 4703745959, "lat": 12.971069, "lon": 77.6588487, "tags": {"highway": "traffic_signals", "traffic_signals": "signal"}}, {"type": "node", "id": 4703745962, "lat": 12.9666992, "lon": 77.6616405, "tags": {"highway": "traffic_signals"}}, {"type": "node", "id": 4792982257, "lat": 12.9520291, "lon": 77.4995737, "tags": {"highway": "traffic_signals"}}, {"type": "node", "id": 4798470947, "lat": 12.9608478, "lon": 77.5124806, "tags": {"highway": "traffic_signals", "junction": "yes", "name": "Nagarabhavi Circle", "name:kn": "\u0ca8\u0c97\u0cb0\u0cad\u0cbe\u0cb5\u0cbf \u0cb5\u0cc3\u0ca4\u0ccd\u0ca4"}}, {"type": "node", "id": 4798470955, "lat": 12.9604572, "lon": 77.5042836, "tags": {"highway": "traffic_signals"}}, {"type": "node", "id": 4798470956, "lat": 12.9604312, "lon": 77.5043336, "tags": {"highway": "traffic_signals"}}, {"type": "node", "id": 4813269388, "lat": 12.9246881, "lon": 77.4852147, "tags": {"highway": "traffic_signals", "name": "Hoysala Circle", "name:kn": "\u0cb9\u0cca\u0caf\u0ccd\u0cb8\u0cb3 \u0cb5\u0cc3\u0ca4\u0ccd\u0ca4", "traffic_signals": "signal"}}, {"type": "node", "id": 4824686444, "lat": 12.9553619, "lon": 77.6896081, "tags": {"highway": "traffic_signals"}}, {"type": "node", "id": 4824730263, "lat": 13.0040936, "lon": 77.5492983, "tags": {"highway": "traffic_signals", "traffic_signals": "signal", "traffic_signals:direction": "forward"}}, {"type": "node", "id": 4829061654, "lat": 12.9367182, "lon": 77.5753738, "tags": {"highway": "traffic_signals"}}, {"type": "node", "id": 4829124440, "lat": 12.9369297, "lon": 77.5801192, "tags": {"highway": "traffic_signals"}}, {"type": "node", "id": 4829124449, "lat": 12.9435458, "lon": 77.579989, "tags": {"highway": "traffic_signals", "traffic_signals": "signal"}}, {"type": "node", "id": 4829190603, "lat": 12.9364716, "lon": 77.5803114, "tags": {"highway": "traffic_signals"}}, {"type": "node", "id": 4830093913, "lat": 12.93915, "lon": 77.57151, "tags": {"highway": "traffic_signals"}}, {"type": "node", "id": 4839770850, "lat": 12.9162611, "lon": 77.6151746, "tags": {"highway": "traffic_signals", "traffic_signals:countdown": "yes"}}, {"type": "node", "id": 4843481807, "lat": 13.0376885, "lon": 77.5222791, "tags": {"highway": "traffic_signals", "traffic_signals": "signal"}}, {"type": "node", "id": 4843481808, "lat": 13.0378545, "lon": 77.5223884, "tags": {"highway": "traffic_signals", "traffic_signals": "signal"}}, {"type": "node", "id": 4843481809, "lat": 13.0379108, "lon": 77.5224241, "tags": {"highway": "traffic_signals", "traffic_signals": "signal"}}, {"type": "node", "id": 4843481817, "lat": 13.0377403, "lon": 77.5221843, "tags": {"highway": "traffic_signals", "traffic_signals": "signal"}}, {"type": "node", "id": 4843481818, "lat": 13.0379095, "lon": 77.5222885, "tags": {"highway": "traffic_signals", "traffic_signals": "signal"}}, {"type": "node", "id": 4843631313, "lat": 12.9519705, "lon": 77.4998542, "tags": {"highway": "traffic_signals", "traffic_signals": "signal"}}, {"type": "node", "id": 4845178133, "lat": 12.9441815, "lon": 77.607604, "tags": {"highway": "traffic_signals", "traffic_signals": "signal"}}, {"type": "node", "id": 4867634826, "lat": 12.9294146, "lon": 77.5736748, "tags": {"highway": "traffic_signals", "traffic_signals": "signal"}}, {"type": "node", "id": 4867634836, "lat": 12.9235159, "lon": 77.5737275, "tags": {"highway": "traffic_signals"}}, {"type": "node", "id": 4867634840, "lat": 12.9211576, "lon": 77.5735941, "tags": {"highway": "traffic_signals"}}, {"type": "node", "id": 4867659906, "lat": 12.9209712, "lon": 77.573661, "tags": {"highway": "traffic_signals"}}, {"type": "node", "id": 4867659916, "lat": 12.9236898, "lon": 77.5736159, "tags": {"highway": "traffic_signals"}}, {"type": "node", "id": 4867659917, "lat": 12.9236008, "lon": 77.5734793, "tags": {"highway": "traffic_signals"}}, {"type": "node", "id": 4872113219, "lat": 12.9264594, "lon": 77.5612493, "tags": {"highway": "traffic_signals", "traffic_signals": "signal"}}, {"type": "node", "id": 4872132537, "lat": 12.9155276, "lon": 77.5696524, "tags": {"highway": "traffic_signals", "traffic_signals": "signal"}}, {"type": "node", "id": 4903183638, "lat": 12.9674833, "lon": 77.6113958, "tags": {"highway": "traffic_signals"}}, {"type": "node", "id": 4912560032, "lat": 13.0045175, "lon": 77.5538815, "tags": {"highway": "traffic_signals", "traffic_signals": "signal"}}, {"type": "node", "id": 4912560047, "lat": 12.9983441, "lon": 77.5530431, "tags": {"highway": "traffic_signals", "traffic_signals": "signal"}}, {"type": "node", "id": 4960830659, "lat": 12.980611, "lon": 77.5976412, "tags": {"crossing": "traffic_signals", "crossing:markings": "zebra", "highway": "traffic_signals", "traffic_signals": "signal", "traffic_signals:sound": "walk"}}, {"type": "node", "id": 5012476625, "lat": 13.0003056, "lon": 77.6810613, "tags": {"highway": "traffic_signals", "traffic_signals": "signal"}}, {"type": "node", "id": 5346843765, "lat": 12.928323, "lon": 77.6004956, "tags": {"crossing": "traffic_signals", "highway": "traffic_signals"}}, {"type": "node", "id": 5346843768, "lat": 12.928375, "lon": 77.5972151, "tags": {"highway": "traffic_signals", "traffic_signals": "signal"}}, {"type": "node", "id": 5346843769, "lat": 12.9283763, "lon": 77.5971397, "tags": {"highway": "traffic_signals", "traffic_signals": "signal"}}, {"type": "node", "id": 5346843788, "lat": 12.9171636, "lon": 77.5894693, "tags": {"highway": "traffic_signals", "traffic_signals:countdown": "yes"}}, {"type": "node", "id": 5354313548, "lat": 12.9101641, "lon": 77.5932548, "tags": {"highway": "traffic_signals"}}, {"type": "node", "id": 5354313587, "lat": 12.9101695, "lon": 77.5951611, "tags": {"highway": "traffic_signals", "traffic_signals:countdown": "yes"}}, {"type": "node", "id": 5354313589, "lat": 12.9103882, "lon": 77.595215, "tags": {"highway": "traffic_signals", "traffic_signals:countdown": "yes"}}, {"type": "node", "id": 5354313590, "lat": 12.9102827, "lon": 77.5950777, "tags": {"highway": "traffic_signals", "traffic_signals:countdown": "yes"}}, {"type": "node", "id": 5354313604, "lat": 12.9167021, "lon": 77.5950388, "tags": {"highway": "traffic_signals"}}, {"type": "node", "id": 5372295313, "lat": 12.9846845, "lon": 77.5823365, "tags": {"highway": "traffic_signals"}}, {"type": "node", "id": 5372824878, "lat": 12.9714477, "lon": 77.6070231, "tags": {"highway": "traffic_signals", "traffic_signals": "signal"}}, {"type": "node", "id": 5389437924, "lat": 12.9299326, "lon": 77.6331716, "tags": {"highway": "traffic_signals", "traffic_signals": "signal"}}, {"type": "node", "id": 5392852814, "lat": 13.0369592, "lon": 77.5659323, "tags": {"crossing": "traffic_signals", "highway": "traffic_signals", "traffic_signals": "signal", "traffic_signals:sound": "yes"}}, {"type": "node", "id": 5558663806, "lat": 12.9862701, "lon": 77.5887585, "tags": {"highway": "traffic_signals", "traffic_signals": "signal"}}, {"type": "node", "id": 5558684129, "lat": 12.9786698, "lon": 77.5731925, "tags": {"highway": "traffic_signals", "traffic_signals": "signal"}}, {"type": "node", "id": 5778431791, "lat": 12.9244217, "lon": 77.6503668, "tags": {"highway": "traffic_signals", "traffic_signals:direction": "forward"}}, {"type": "node", "id": 5942550424, "lat": 12.9248418, "lon": 77.6334583, "tags": {"highway": "traffic_signals", "traffic_signals": "junction", "traffic_signals:direction": "forward"}}, {"type": "node", "id": 5942550425, "lat": 12.9251326, "lon": 77.6336178, "tags": {"highway": "traffic_signals", "traffic_signals": "junction", "traffic_signals:direction": "forward"}}, {"type": "node", "id": 5966255495, "lat": 13.0675878, "lon": 77.6335278, "tags": {"highway": "traffic_signals"}}, {"type": "node", "id": 6033543910, "lat": 13.0379385, "lon": 77.521822, "tags": {"highway": "traffic_signals", "traffic_signals": "signal"}}, {"type": "node", "id": 6033543943, "lat": 13.0422722, "lon": 77.5146345, "tags": {"highway": "traffic_signals", "traffic_signals": "signal"}}, {"type": "node", "id": 6130580752, "lat": 13.0529557, "lon": 77.6461605, "tags": {"highway": "traffic_signals", "traffic_signals:countdown": "yes"}}, {"type": "node", "id": 6131746732, "lat": 13.1036285, "lon": 77.6006481, "tags": {"highway": "traffic_signals", "name": "Kogilu Cross", "name:kn": "\u0c95\u0ccb\u0c97\u0cbf\u0cb2\u0cc1 \u0c95\u0ccd\u0cb0\u0cbe\u0cb8\u0ccd"}}, {"type": "node", "id": 6142618373, "lat": 13.0443433, "lon": 77.626308, "tags": {"highway": "traffic_signals", "traffic_signals": "signal"}}, {"type": "node", "id": 6142618374, "lat": 13.0442829, "lon": 77.6263794, "tags": {"highway": "traffic_signals", "traffic_signals": "signal"}}, {"type": "node", "id": 6144095953, "lat": 12.9187634, "lon": 77.6855116, "tags": {"highway": "traffic_signals", "traffic_signals": "signal"}}, {"type": "node", "id": 6144112170, "lat": 12.9355069, "lon": 77.512996, "tags": {"highway": "traffic_signals"}}, {"type": "node", "id": 6196942368, "lat": 12.9831667, "lon": 77.5602693, "tags": {"highway": "traffic_signals", "traffic_signals": "signal"}}, {"type": "node", "id": 6197117882, "lat": 13.0345791, "lon": 77.6228196, "tags": {"highway": "traffic_signals", "traffic_signals": "signal"}}, {"type": "node", "id": 6341774847, "lat": 12.9760743, "lon": 77.6202316, "tags": {"highway": "traffic_signals", "traffic_signals": "signal"}}, {"type": "node", "id": 6341774848, "lat": 12.976351, "lon": 77.6203084, "tags": {"highway": "traffic_signals", "traffic_signals": "signal"}}, {"type": "node", "id": 6341774849, "lat": 12.9756026, "lon": 77.6202156, "tags": {"highway": "traffic_signals", "traffic_signals": "signal"}}, {"type": "node", "id": 6390283420, "lat": 12.9528208, "lon": 77.6052683, "tags": {"highway": "traffic_signals", "traffic_signals": "signal"}}, {"type": "node", "id": 6421171389, "lat": 12.9662538, "lon": 77.6068662, "tags": {"highway": "traffic_signals", "traffic_signals": "signal"}}, {"type": "node", "id": 6457608221, "lat": 13.0014697, "lon": 77.5943951, "tags": {"highway": "traffic_signals", "traffic_signals": "signal"}}, {"type": "node", "id": 6460998310, "lat": 12.9635851, "lon": 77.5849613, "tags": {"highway": "traffic_signals", "traffic_signals": "signal", "traffic_signals:countdown": "yes"}}, {"type": "node", "id": 6478194285, "lat": 13.0438425, "lon": 77.5609372, "tags": {"highway": "traffic_signals"}}, {"type": "node", "id": 6528476365, "lat": 12.9398742, "lon": 77.6255411, "tags": {"highway": "traffic_signals", "traffic_signals": "signal"}}, {"type": "node", "id": 6536640226, "lat": 12.9396995, "lon": 77.6254463, "tags": {"highway": "traffic_signals", "traffic_signals": "signal"}}, {"type": "node", "id": 6681243367, "lat": 12.9287775, "lon": 77.566273, "tags": {"highway": "traffic_signals", "traffic_signals": "signal"}}, {"type": "node", "id": 6852266946, "lat": 12.9216826, "lon": 77.5601313, "tags": {"highway": "traffic_signals"}}, {"type": "node", "id": 6885082495, "lat": 12.916315, "lon": 77.6322941, "tags": {"highway": "traffic_signals", "traffic_signals": "signal"}}, {"type": "node", "id": 6901338036, "lat": 12.9061811, "lon": 77.5951682, "tags": {"highway": "traffic_signals"}}, {"type": "node", "id": 6901551440, "lat": 12.9829593, "lon": 77.6374258, "tags": {"highway": "traffic_signals"}}, {"type": "node", "id": 6904207706, "lat": 12.9303605, "lon": 77.5433784, "tags": {"highway": "traffic_signals", "traffic_signals": "signal", "traffic_signals:direction": "forward"}}, {"type": "node", "id": 6904207726, "lat": 12.9302806, "lon": 77.5435386, "tags": {"highway": "traffic_signals", "traffic_signals": "signal"}}, {"type": "node", "id": 6904892124, "lat": 12.9850983, "lon": 77.5720638, "tags": {"highway": "traffic_signals", "traffic_signals": "signal"}}, {"type": "node", "id": 6932109139, "lat": 12.9364735, "lon": 77.5187314, "tags": {"highway": "traffic_signals", "traffic_signals": "signal"}}, {"type": "node", "id": 6949633168, "lat": 13.0014174, "lon": 77.5944124, "tags": {"highway": "traffic_signals", "traffic_signals": "signal"}}, {"type": "node", "id": 6949633169, "lat": 13.0014563, "lon": 77.5945315, "tags": {"highway": "traffic_signals", "traffic_signals": "signal"}}, {"type": "node", "id": 7100612878, "lat": 12.9584109, "lon": 77.518754, "tags": {"highway": "traffic_signals", "traffic_signals": "signal"}}, {"type": "node", "id": 7132495604, "lat": 12.9649462, "lon": 77.5972439, "tags": {"highway": "traffic_signals"}}, {"type": "node", "id": 7164445939, "lat": 12.9611819, "lon": 77.5592119, "tags": {"highway": "traffic_signals", "traffic_signals": "signal"}}, {"type": "node", "id": 7172895621, "lat": 13.0396028, "lon": 77.6415245, "tags": {"highway": "traffic_signals", "traffic_signals:countdown": "yes"}}, {"type": "node", "id": 7172895628, "lat": 13.0395366, "lon": 77.6413177, "tags": {"highway": "traffic_signals", "traffic_signals:countdown": "yes"}}, {"type": "node", "id": 7180450199, "lat": 12.9294684, "lon": 77.5736757, "tags": {"highway": "traffic_signals", "traffic_signals": "signal"}}, {"type": "node", "id": 7228151804, "lat": 13.0436432, "lon": 77.5571566, "tags": {"highway": "traffic_signals", "traffic_signals": "signal"}}, {"type": "node", "id": 7228151805, "lat": 13.0440362, "lon": 77.5570855, "tags": {"highway": "traffic_signals", "traffic_signals": "signal"}}, {"type": "node", "id": 7257695672, "lat": 13.0146854, "lon": 77.5725927, "tags": {"highway": "traffic_signals", "traffic_signals": "signal"}}, {"type": "node", "id": 7265495336, "lat": 12.9298394, "lon": 77.6329605, "tags": {"highway": "traffic_signals", "traffic_signals": "signal"}}, {"type": "node", "id": 7276500322, "lat": 12.9843822, "lon": 77.5822694, "tags": {"highway": "traffic_signals", "traffic_signals": "signal"}}, {"type": "node", "id": 7280461398, "lat": 13.0054785, "lon": 77.5933823, "tags": {"highway": "traffic_signals"}}, {"type": "node", "id": 7287467677, "lat": 12.9235533, "lon": 77.5763207, "tags": {"highway": "traffic_signals"}}, {"type": "node", "id": 7287518217, "lat": 12.9286284, "lon": 77.5859254, "tags": {"highway": "traffic_signals"}}, {"type": "node", "id": 7287571767, "lat": 12.9166344, "lon": 77.5968525, "tags": {"highway": "traffic_signals", "traffic_signals:direction": "backward"}}, {"type": "node", "id": 7287571768, "lat": 12.9169701, "lon": 77.5950759, "tags": {"highway": "traffic_signals"}}, {"type": "node", "id": 7287984425, "lat": 12.9308255, "lon": 77.576133, "tags": {"highway": "traffic_signals", "traffic_signals": "signal"}}, {"type": "node", "id": 7287984426, "lat": 12.9308245, "lon": 77.5762084, "tags": {"highway": "traffic_signals", "traffic_signals": "signal"}}, {"type": "node", "id": 7287984441, "lat": 12.9309086, "lon": 77.5761017, "tags": {"highway": "traffic_signals", "traffic_signals": "signal"}}, {"type": "node", "id": 7287984471, "lat": 12.9235524, "lon": 77.5762111, "tags": {"highway": "traffic_signals", "traffic_signals": "signal"}}, {"type": "node", "id": 7287984472, "lat": 12.9233658, "lon": 77.5760493, "tags": {"highway": "traffic_signals", "traffic_signals": "signal"}}, {"type": "node", "id": 7287984479, "lat": 12.920903, "lon": 77.5743183, "tags": {"highway": "traffic_signals"}}, {"type": "node", "id": 7289130033, "lat": 12.9246736, "lon": 77.4852728, "tags": {"highway": "traffic_signals", "traffic_signals": "signal"}}, {"type": "node", "id": 7290547276, "lat": 12.930819, "lon": 77.5837206, "tags": {"highway": "traffic_signals", "traffic_signals": "signal"}}, {"type": "node", "id": 7290547278, "lat": 12.9328967, "lon": 77.5840598, "tags": {"highway": "traffic_signals"}}, {"type": "node", "id": 7290764570, "lat": 12.9284539, "lon": 77.597143, "tags": {"highway": "traffic_signals", "traffic_signals": "signal"}}, {"type": "node", "id": 7291335557, "lat": 12.9283223, "lon": 77.6005903, "tags": {"highway": "traffic_signals", "traffic_signals": "signal"}}, {"type": "node", "id": 7291578195, "lat": 12.8896756, "lon": 77.5634256, "tags": {"highway": "traffic_signals"}}, {"type": "node", "id": 7374276349, "lat": 12.8795037, "lon": 77.5457458, "tags": {"highway": "traffic_signals", "traffic_signals": "signal", "traffic_signals:direction": "forward"}}, {"type": "node", "id": 7374276363, "lat": 12.8834486, "lon": 77.5487601, "tags": {"highway": "traffic_signals", "traffic_signals": "signal", "traffic_signals:direction": "forward"}}, {"type": "node", "id": 7384187432, "lat": 13.0188998, "lon": 77.6554248, "tags": {"highway": "traffic_signals", "traffic_signals": "signal"}}, {"type": "node", "id": 7384187433, "lat": 13.0192621, "lon": 77.655581, "tags": {"highway": "traffic_signals", "traffic_signals": "signal"}}, {"type": "node", "id": 7404474556, "lat": 13.0287432, "lon": 77.6637365, "tags": {"highway": "traffic_signals", "traffic_signals": "signal"}}, {"type": "node", "id": 7466248765, "lat": 12.8928284, "lon": 77.6104465, "tags": {"highway": "traffic_signals", "traffic_signals": "signal"}}, {"type": "node", "id": 7466293974, "lat": 12.8844508, "lon": 77.5964417, "tags": {"highway": "traffic_signals", "traffic_signals": "signal"}}, {"type": "node", "id": 7466293975, "lat": 12.884434, "lon": 77.5965157, "tags": {"highway": "traffic_signals", "traffic_signals": "signal"}}, {"type": "node", "id": 7484168009, "lat": 12.9294738, "lon": 77.5736204, "tags": {"highway": "traffic_signals", "traffic_signals": "signal"}}, {"type": "node", "id": 7485457399, "lat": 13.0129337, "lon": 77.6621283, "tags": {"highway": "traffic_signals", "traffic_signals": "signal"}}, {"type": "node", "id": 7485457400, "lat": 13.0131296, "lon": 77.6625191, "tags": {"highway": "traffic_signals", "traffic_signals": "signal"}}, {"type": "node", "id": 7617898611, "lat": 12.9928719, "lon": 77.6097408, "tags": {"highway": "traffic_signals", "traffic_signals": "signal", "traffic_signals:direction": "backward"}}, {"type": "node", "id": 7686283259, "lat": 12.9736464, "lon": 77.6139762, "tags": {"highway": "traffic_signals"}}, {"type": "node", "id": 8504197414, "lat": 12.9846024, "lon": 77.5886256, "tags": {"highway": "traffic_signals"}}, {"type": "node", "id": 9140200248, "lat": 12.9729559, "lon": 77.5816982, "tags": {"highway": "traffic_signals"}}, {"type": "node", "id": 9339539331, "lat": 12.9306532, "lon": 77.5436424, "tags": {"highway": "traffic_signals"}}, {"type": "node", "id": 9506746892, "lat": 12.9292918, "lon": 77.6152112, "tags": {"highway": "traffic_signals", "traffic_signals": "signal"}}, {"type": "node", "id": 9507354636, "lat": 13.0400826, "lon": 77.6244008, "tags": {"highway": "traffic_signals", "traffic_signals": "signal"}}, {"type": "node", "id": 9577039172, "lat": 13.0319529, "lon": 77.6217723, "tags": {"highway": "traffic_signals", "traffic_signals": "signal"}}, {"type": "node", "id": 9603588754, "lat": 12.9878295, "lon": 77.5374297, "tags": {"highway": "traffic_signals"}}, {"type": "node", "id": 9629025771, "lat": 12.9794664, "lon": 77.5819718, "tags": {"highway": "traffic_signals"}}, {"type": "node", "id": 9691908031, "lat": 13.0454607, "lon": 77.5072484, "tags": {"highway": "traffic_signals", "traffic_signals": "signal"}}, {"type": "node", "id": 9691908032, "lat": 13.0454997, "lon": 77.507267, "tags": {"highway": "traffic_signals", "traffic_signals": "signal"}}, {"type": "node", "id": 9691908049, "lat": 13.0566128, "lon": 77.5072593, "tags": {"highway": "traffic_signals", "traffic_signals": "signal"}}, {"type": "node", "id": 9691908062, "lat": 13.0567509, "lon": 77.5072292, "tags": {"highway": "traffic_signals", "traffic_signals": "signal"}}, {"type": "node", "id": 9695761624, "lat": 13.1022736, "lon": 77.5862862, "tags": {"highway": "traffic_signals"}}, {"type": "node", "id": 9817001114, "lat": 13.0393364, "lon": 77.5640809, "tags": {"highway": "traffic_signals", "traffic_signals": "signal"}}, {"type": "node", "id": 9820351002, "lat": 12.8700468, "lon": 77.6533235, "tags": {"highway": "traffic_signals", "traffic_signals": "signal"}}, {"type": "node", "id": 9820351003, "lat": 12.8700093, "lon": 77.6535236, "tags": {"highway": "traffic_signals", "traffic_signals": "signal"}}, {"type": "node", "id": 9843291185, "lat": 12.9557708, "lon": 77.7150315, "tags": {"highway": "traffic_signals", "traffic_signals": "signal"}}, {"type": "node", "id": 9844475372, "lat": 12.9393719, "lon": 77.6954445, "tags": {"button_operated": "no", "highway": "traffic_signals", "red_turn:right:bicycle": "no", "red_turn:straight:bicycle": "no", "traffic_signals": "signal", "traffic_signals:direction": "forward"}}, {"type": "node", "id": 9844475373, "lat": 12.9394618, "lon": 77.6949651, "tags": {"button_operated": "no", "highway": "traffic_signals", "red_turn:right:bicycle": "no", "red_turn:straight:bicycle": "no", "traffic_signals": "signal", "traffic_signals:direction": "forward"}}, {"type": "node", "id": 9857144282, "lat": 12.9242242, "lon": 77.6518465, "tags": {"highway": "traffic_signals", "traffic_signals": "signal"}}, {"type": "node", "id": 9857144283, "lat": 12.9242955, "lon": 77.6516743, "tags": {"highway": "traffic_signals", "traffic_signals": "signal"}}, {"type": "node", "id": 9880815311, "lat": 13.0952044, "lon": 77.5943934, "tags": {"highway": "traffic_signals", "traffic_signals": "signal"}}, {"type": "node", "id": 9930000954, "lat": 12.9904853, "lon": 77.5996658, "tags": {"highway": "traffic_signals", "traffic_signals": "signal", "traffic_signals:direction": "forward"}}, {"type": "node", "id": 9930001009, "lat": 12.9794981, "lon": 77.5817433, "tags": {"highway": "traffic_signals", "traffic_signals": "signal"}}, {"type": "node", "id": 9932318844, "lat": 12.9727556, "lon": 77.7116295, "tags": {"highway": "traffic_signals", "traffic_signals": "signal"}}, {"type": "node", "id": 9933265932, "lat": 12.9682673, "lon": 77.6063014, "tags": {"highway": "traffic_signals", "traffic_signals": "signal"}}, {"type": "node", "id": 9938657075, "lat": 12.9956077, "lon": 77.5895917, "tags": {"highway": "traffic_signals", "traffic_signals": "signal"}}, {"type": "node", "id": 9939398569, "lat": 12.9641286, "lon": 77.5698151, "tags": {"highway": "traffic_signals", "traffic_signals": "signal"}}, {"type": "node", "id": 9939398599, "lat": 12.9640617, "lon": 77.5696055, "tags": {"highway": "traffic_signals", "traffic_signals": "signal"}}, {"type": "node", "id": 9939407828, "lat": 12.9642019, "lon": 77.5695397, "tags": {"highway": "traffic_signals", "traffic_signals": "signal"}}, {"type": "node", "id": 9951192668, "lat": 12.9724014, "lon": 77.7115623, "tags": {"highway": "traffic_signals", "traffic_signals": "signal"}}, {"type": "node", "id": 9952997318, "lat": 12.9640352, "lon": 77.5855074, "tags": {"highway": "traffic_signals", "traffic_signals": "signal", "traffic_signals:countdown": "yes"}}, {"type": "node", "id": 9953892391, "lat": 12.9560443, "lon": 77.7145709, "tags": {"highway": "traffic_signals", "traffic_signals": "signal"}}, {"type": "node", "id": 9953892394, "lat": 12.956172, "lon": 77.7149403, "tags": {"highway": "traffic_signals", "traffic_signals": "signal"}}, {"type": "node", "id": 9953892395, "lat": 12.9556991, "lon": 77.7147636, "tags": {"highway": "traffic_signals", "traffic_signals": "signal"}}, {"type": "node", "id": 9984551452, "lat": 12.9741939, "lon": 77.6110656, "tags": {"highway": "traffic_signals", "traffic_signals": "signal"}}, {"type": "node", "id": 10001161216, "lat": 12.9679224, "lon": 77.5871148, "tags": {"camera:mount": "pole", "camera:type": "dome", "highway": "traffic_signals", "surveillance": "public", "surveillance:zone": "area", "traffic_signals": "signal"}}, {"type": "node", "id": 10003979594, "lat": 13.006527, "lon": 77.5788804, "tags": {"highway": "traffic_signals", "traffic_signals": "signal"}}, {"type": "node", "id": 10003979595, "lat": 13.0065399, "lon": 77.5786862, "tags": {"highway": "traffic_signals", "traffic_signals": "signal"}}, {"type": "node", "id": 10003979596, "lat": 13.0063819, "lon": 77.5786367, "tags": {"highway": "traffic_signals", "traffic_signals": "signal"}}, {"type": "node", "id": 10005593343, "lat": 12.9729382, "lon": 77.5387469, "tags": {"highway": "traffic_signals", "traffic_signals": "signal"}}, {"type": "node", "id": 10005593344, "lat": 12.9728978, "lon": 77.5384684, "tags": {"highway": "traffic_signals", "traffic_signals": "signal"}}, {"type": "node", "id": 10010955383, "lat": 12.9613476, "lon": 77.5591301, "tags": {"highway": "traffic_signals", "traffic_signals": "signal"}}, {"type": "node", "id": 10010955384, "lat": 12.9611584, "lon": 77.5591051, "tags": {"highway": "traffic_signals", "traffic_signals": "signal"}}, {"type": "node", "id": 10015684285, "lat": 12.9798836, "lon": 77.5711031, "tags": {"highway": "traffic_signals", "traffic_signals": "signal", "traffic_signals:direction": "forward"}}, {"type": "node", "id": 10016225612, "lat": 12.9808395, "lon": 77.5975491, "tags": {"button_operated": "no", "crossing": "traffic_signals", "crossing:markings": "zebra", "highway": "traffic_signals", "traffic_signals:sound": "walk", "traffic_signals:vibration": "no"}}, {"type": "node", "id": 10016225616, "lat": 12.9811264, "lon": 77.597237, "tags": {"crossing": "traffic_signals", "crossing:markings": "zebra", "highway": "traffic_signals"}}, {"type": "node", "id": 10016225617, "lat": 12.9809221, "lon": 77.5970329, "tags": {"crossing": "traffic_signals", "crossing:markings": "zebra", "highway": "traffic_signals"}}, {"type": "node", "id": 10016346057, "lat": 12.9767581, "lon": 77.6019096, "tags": {"highway": "traffic_signals", "traffic_signals": "signal"}}, {"type": "node", "id": 10035532963, "lat": 12.9787401, "lon": 77.573267, "tags": {"highway": "traffic_signals", "traffic_signals": "signal"}}, {"type": "node", "id": 10043357419, "lat": 12.929752, "lon": 77.6150337, "tags": {"highway": "traffic_signals", "traffic_signals": "signal"}}, {"type": "node", "id": 10043357421, "lat": 12.9526922, "lon": 77.6051091, "tags": {"highway": "traffic_signals", "traffic_signals": "signal"}}, {"type": "node", "id": 10043357423, "lat": 12.9663803, "lon": 77.6067892, "tags": {"highway": "traffic_signals", "traffic_signals": "signal"}}, {"type": "node", "id": 10068662144, "lat": 12.9383568, "lon": 77.6328208, "tags": {"highway": "traffic_signals", "traffic_signals": "signal", "traffic_signals:direction": "backward"}}, {"type": "node", "id": 10068662145, "lat": 12.9386664, "lon": 77.6326356, "tags": {"highway": "traffic_signals", "traffic_signals": "signal", "traffic_signals:direction": "forward"}}, {"type": "node", "id": 10068956785, "lat": 12.9342159, "lon": 77.6123554, "tags": {"highway": "traffic_signals", "traffic_signals": "signal"}}, {"type": "node", "id": 10068956821, "lat": 12.9358762, "lon": 77.6152156, "tags": {"highway": "traffic_signals", "traffic_signals": "signal"}}, {"type": "node", "id": 10072942642, "lat": 12.913959, "lon": 77.6100369, "tags": {"highway": "traffic_signals", "traffic_signals": "signal"}}, {"type": "node", "id": 10072942645, "lat": 12.9140121, "lon": 77.6101028, "tags": {"highway": "traffic_signals", "traffic_signals": "signal"}}, {"type": "node", "id": 10092099736, "lat": 12.938913, "lon": 77.5851573, "tags": {"highway": "traffic_signals", "traffic_signals": "signal"}}, {"type": "node", "id": 10120941856, "lat": 12.9680734, "lon": 77.6062028, "tags": {"highway": "traffic_signals", "traffic_signals": "signal"}}, {"type": "node", "id": 10121050218, "lat": 12.9832923, "lon": 77.5956143, "tags": {"highway": "traffic_signals", "traffic_signals": "signal"}}, {"type": "node", "id": 10121158786, "lat": 12.9805134, "lon": 77.577043, "tags": {"highway": "traffic_signals", "traffic_signals": "signal"}}, {"type": "node", "id": 10121158788, "lat": 12.9805199, "lon": 77.576955, "tags": {"highway": "traffic_signals", "traffic_signals": "signal"}}, {"type": "node", "id": 10123663919, "lat": 12.9809189, "lon": 77.6100053, "tags": {"highway": "traffic_signals"}}, {"type": "node", "id": 10123663920, "lat": 12.9809149, "lon": 77.6102419, "tags": {"highway": "traffic_signals"}}, {"type": "node", "id": 10123826914, "lat": 12.9775599, "lon": 77.5909308, "tags": {"highway": "traffic_signals", "traffic_signals": "signal"}}, {"type": "node", "id": 10156396908, "lat": 13.038175, "lon": 77.5219426, "tags": {"highway": "traffic_signals", "traffic_signals": "signal"}}, {"type": "node", "id": 10187842618, "lat": 13.032016, "lon": 77.6218805, "tags": {"highway": "traffic_signals", "traffic_signals": "signal"}}, {"type": "node", "id": 10187842626, "lat": 13.032052, "lon": 77.6218122, "tags": {"highway": "traffic_signals", "traffic_signals": "signal"}}, {"type": "node", "id": 10187842627, "lat": 13.0319824, "lon": 77.621866, "tags": {"highway": "traffic_signals", "traffic_signals": "signal"}}, {"type": "node", "id": 10187842628, "lat": 13.0319164, "lon": 77.6218376, "tags": {"highway": "traffic_signals", "traffic_signals": "signal"}}, {"type": "node", "id": 10196262521, "lat": 12.9111474, "lon": 77.6836732, "tags": {"highway": "traffic_signals", "traffic_signals": "signal"}}, {"type": "node", "id": 10231033892, "lat": 12.9743993, "lon": 77.5783115, "tags": {"highway": "traffic_signals"}}, {"type": "node", "id": 10274836884, "lat": 13.0451542, "lon": 77.5073415, "tags": {"highway": "traffic_signals", "traffic_signals": "signal"}}, {"type": "node", "id": 10274940012, "lat": 13.0666816, "lon": 77.5033502, "tags": {"highway": "traffic_signals", "traffic_signals": "signal"}}, {"type": "node", "id": 10274960896, "lat": 12.9714683, "lon": 77.6588689, "tags": {"direction": "backward", "highway": "traffic_signals", "traffic_signals": "signal"}}, {"type": "node", "id": 10282769898, "lat": 12.9213128, "lon": 77.6202306, "tags": {"highway": "traffic_signals"}}, {"type": "node", "id": 10284348022, "lat": 12.9298091, "lon": 77.6332856, "tags": {"highway": "traffic_signals", "traffic_signals": "signal"}}, {"type": "node", "id": 10284348038, "lat": 12.9440489, "lon": 77.6073719, "tags": {"highway": "traffic_signals", "traffic_signals": "signal"}}, {"type": "node", "id": 10289145756, "lat": 12.9558191, "lon": 77.5921979, "tags": {"highway": "traffic_signals"}}, {"type": "node", "id": 10291078965, "lat": 12.9855192, "lon": 77.6450999, "tags": {"highway": "traffic_signals"}}, {"type": "node", "id": 10560858053, "lat": 12.9726391, "lon": 77.6193087, "tags": {"highway": "traffic_signals"}}, {"type": "node", "id": 10585575510, "lat": 13.0393549, "lon": 77.6414418, "tags": {"highway": "traffic_signals", "traffic_signals:countdown": "yes"}}, {"type": "node", "id": 10678693502, "lat": 12.9924741, "lon": 77.7162864, "tags": {"highway": "traffic_signals", "traffic_signals": "signal"}}, {"type": "node", "id": 10684982315, "lat": 13.0370702, "lon": 77.5659484, "tags": {"crossing": "traffic_signals", "highway": "traffic_signals", "traffic_signals": "signal", "traffic_signals:sound": "yes"}}, {"type": "node", "id": 10684982316, "lat": 13.0370192, "lon": 77.5658846, "tags": {"crossing": "traffic_signals", "highway": "traffic_signals", "traffic_signals": "signal", "traffic_signals:sound": "yes"}}, {"type": "node", "id": 10685000243, "lat": 12.9444605, "lon": 77.6028475, "tags": {"highway": "traffic_signals", "traffic_signals": "signal"}}, {"type": "node", "id": 10685000244, "lat": 12.9444546, "lon": 77.60276, "tags": {"highway": "traffic_signals", "traffic_signals": "signal"}}, {"type": "node", "id": 10685000245, "lat": 12.9443862, "lon": 77.602856, "tags": {"highway": "traffic_signals", "traffic_signals": "signal"}}, {"type": "node", "id": 10685000246, "lat": 12.9443767, "lon": 77.6027722, "tags": {"highway": "traffic_signals", "traffic_signals": "signal"}}, {"type": "node", "id": 10685321384, "lat": 12.9571651, "lon": 77.573945, "tags": {"highway": "traffic_signals", "traffic_signals": "signal"}}, {"type": "node", "id": 10685321385, "lat": 12.9570089, "lon": 77.5734926, "tags": {"highway": "traffic_signals", "traffic_signals": "signal"}}, {"type": "node", "id": 10685860710, "lat": 12.9614543, "lon": 77.5842713, "tags": {"highway": "traffic_signals", "traffic_signals": "signal"}}, {"type": "node", "id": 10685860711, "lat": 12.9611395, "lon": 77.5884055, "tags": {"highway": "traffic_signals", "traffic_signals": "signal"}}, {"type": "node", "id": 10687622732, "lat": 13.039395, "lon": 77.5641214, "tags": {"highway": "traffic_signals", "traffic_signals": "signal"}}, {"type": "node", "id": 10695052518, "lat": 12.9765887, "lon": 77.7270215, "tags": {"highway": "traffic_signals", "traffic_signals": "signal", "traffic_signals:countdown": "yes"}}, {"type": "node", "id": 10698644147, "lat": 13.0404914, "lon": 77.6242997, "tags": {"highway": "traffic_signals", "traffic_signals": "signal"}}, {"type": "node", "id": 10698644148, "lat": 13.039978, "lon": 77.6241945, "tags": {"highway": "traffic_signals", "traffic_signals": "signal"}}, {"type": "node", "id": 10731023449, "lat": 12.9764721, "lon": 77.7273767, "tags": {"highway": "traffic_signals", "traffic_signals": "signal", "traffic_signals:direction": "backward"}}, {"type": "node", "id": 10763445385, "lat": 12.9384139, "lon": 77.5334679, "tags": {"highway": "traffic_signals"}}, {"type": "node", "id": 10763445402, "lat": 12.9383831, "lon": 77.533417, "tags": {"highway": "traffic_signals"}}, {"type": "node", "id": 10783592398, "lat": 12.9723212, "lon": 77.5939182, "tags": {"highway": "traffic_signals"}}, {"type": "node", "id": 10783657574, "lat": 13.0302539, "lon": 77.6210978, "tags": {"highway": "traffic_signals", "traffic_signals": "signal"}}, {"type": "node", "id": 10783997175, "lat": 12.9266675, "lon": 77.5613779, "tags": {"highway": "traffic_signals", "traffic_signals": "signal"}}, {"type": "node", "id": 10784103514, "lat": 12.9389034, "lon": 77.5850754, "tags": {"highway": "traffic_signals", "traffic_signals": "signal"}}, {"type": "node", "id": 10784133389, "lat": 13.0496305, "lon": 77.5928584, "tags": {"highway": "traffic_signals", "traffic_signals": "signal"}}, {"type": "node", "id": 10784133390, "lat": 13.0496668, "lon": 77.5927471, "tags": {"highway": "traffic_signals", "traffic_signals": "signal"}}, {"type": "node", "id": 10786947292, "lat": 13.0345607, "lon": 77.6228731, "tags": {"highway": "traffic_signals", "traffic_signals": "signal"}}, {"type": "node", "id": 10839591755, "lat": 13.0347143, "lon": 77.5573607, "tags": {"highway": "traffic_signals", "traffic_signals": "signal"}}, {"type": "node", "id": 10839591756, "lat": 13.0347635, "lon": 77.5574245, "tags": {"highway": "traffic_signals", "traffic_signals": "signal"}}, {"type": "node", "id": 10839591759, "lat": 13.0348589, "lon": 77.557418, "tags": {"highway": "traffic_signals", "traffic_signals": "signal"}}, {"type": "node", "id": 10860559946, "lat": 12.9120996, "lon": 77.6448611, "tags": {"highway": "traffic_signals", "traffic_signals": "signal"}}, {"type": "node", "id": 10860559948, "lat": 12.9123909, "lon": 77.6446606, "tags": {"highway": "traffic_signals", "traffic_signals": "signal"}}, {"type": "node", "id": 10860559949, "lat": 12.9121874, "lon": 77.6444776, "tags": {"highway": "traffic_signals", "traffic_signals": "signal"}}, {"type": "node", "id": 10861673599, "lat": 12.9561767, "lon": 77.5774688, "tags": {"highway": "traffic_signals", "traffic_signals": "signal"}}, {"type": "node", "id": 10948126481, "lat": 12.9187593, "lon": 77.6853693, "tags": {"highway": "traffic_signals", "traffic_signals": "signal", "traffic_signals:direction": "backward"}}, {"type": "node", "id": 10975890137, "lat": 13.103509, "lon": 77.6006196, "tags": {"highway": "traffic_signals", "name": "Kogilu Cross", "name:kn": "\u0c95\u0ccb\u0c97\u0cbf\u0cb2\u0cc1 \u0c95\u0ccd\u0cb0\u0cbe\u0cb8\u0ccd"}}, {"type": "node", "id": 10978687898, "lat": 12.9757279, "lon": 77.5867625, "tags": {"highway": "traffic_signals", "traffic_signals": "signal"}}, {"type": "node", "id": 10978687899, "lat": 12.9756888, "lon": 77.5876014, "tags": {"highway": "traffic_signals", "traffic_signals": "signal"}}, {"type": "node", "id": 10978687900, "lat": 12.9761583, "lon": 77.5870202, "tags": {"highway": "traffic_signals", "traffic_signals": "signal"}}, {"type": "node", "id": 10978687901, "lat": 12.9759154, "lon": 77.5876321, "tags": {"highway": "traffic_signals", "traffic_signals": "signal"}}, {"type": "node", "id": 10991477214, "lat": 13.0301845, "lon": 77.5370565, "tags": {"highway": "traffic_signals"}}, {"type": "node", "id": 11003327959, "lat": 12.9716235, "lon": 77.6358156, "tags": {"highway": "traffic_signals", "traffic_signals": "traffic_lights", "traffic_signals:direction": "forward"}}, {"type": "node", "id": 11003327960, "lat": 12.9717147, "lon": 77.6360294, "tags": {"highway": "traffic_signals", "traffic_signals": "traffic_lights", "traffic_signals:direction": "backward"}}, {"type": "node", "id": 11156382804, "lat": 12.9571627, "lon": 77.5697442, "tags": {"crossing": "traffic_signals", "highway": "traffic_signals", "traffic_signals": "signal", "traffic_signals:sound": "walk"}}, {"type": "node", "id": 11156420305, "lat": 12.9572361, "lon": 77.5695506, "tags": {"crossing": "traffic_signals", "highway": "traffic_signals", "traffic_signals": "signal", "traffic_signals:sound": "walk"}}, {"type": "node", "id": 11156420306, "lat": 12.95706, "lon": 77.569626, "tags": {"crossing": "traffic_signals", "highway": "traffic_signals", "traffic_signals:sound": "walk"}}, {"type": "node", "id": 11178643865, "lat": 12.9481853, "lon": 77.5702423, "tags": {"crossing": "traffic_signals", "highway": "traffic_signals"}}, {"type": "node", "id": 11201582978, "lat": 12.906448, "lon": 77.5802293, "tags": {"highway": "traffic_signals", "traffic_signals": "signal", "traffic_signals:countdown": "yes"}}, {"type": "node", "id": 11201582981, "lat": 12.9063624, "lon": 77.5805102, "tags": {"highway": "traffic_signals", "traffic_signals": "signal", "traffic_signals:countdown": "yes"}}, {"type": "node", "id": 11212228043, "lat": 13.0738288, "lon": 77.5927832, "tags": {"highway": "traffic_signals", "traffic_signals": "signal"}}, {"type": "node", "id": 11228965366, "lat": 12.9592362, "lon": 77.654204, "tags": {"highway": "traffic_signals", "traffic_signals": "traffic_lights"}}, {"type": "node", "id": 11260122967, "lat": 12.9157991, "lon": 77.6383683, "tags": {"highway": "traffic_signals", "traffic_signals:direction": "forward"}}, {"type": "node", "id": 11260122969, "lat": 12.9161178, "lon": 77.6380625, "tags": {"highway": "traffic_signals", "traffic_signals": "signal", "traffic_signals:countdown": "yes"}}, {"type": "node", "id": 11265002206, "lat": 12.9307704, "lon": 77.5802834, "tags": {"highway": "traffic_signals"}}, {"type": "node", "id": 11265002207, "lat": 12.9309045, "lon": 77.5801972, "tags": {"highway": "traffic_signals"}}, {"type": "node", "id": 11265002208, "lat": 12.9308674, "lon": 77.5799708, "tags": {"highway": "traffic_signals"}}, {"type": "node", "id": 11265002209, "lat": 12.9307053, "lon": 77.5800701, "tags": {"highway": "traffic_signals"}}, {"type": "node", "id": 11268445211, "lat": 12.986359, "lon": 77.579784, "tags": {"highway": "traffic_signals"}}, {"type": "node", "id": 11268445212, "lat": 12.9863639, "lon": 77.5795805, "tags": {"highway": "traffic_signals"}}, {"type": "node", "id": 11268445213, "lat": 12.9866319, "lon": 77.5798307, "tags": {"highway": "traffic_signals"}}, {"type": "node", "id": 11268445214, "lat": 12.9866349, "lon": 77.5796238, "tags": {"highway": "traffic_signals"}}, {"type": "node", "id": 11268507380, "lat": 12.8904969, "lon": 77.5981993, "tags": {"highway": "traffic_signals"}}, {"type": "node", "id": 11268507381, "lat": 12.8906106, "lon": 77.5979714, "tags": {"highway": "traffic_signals"}}, {"type": "node", "id": 11268507393, "lat": 12.8906096, "lon": 77.5981839, "tags": {"highway": "traffic_signals"}}, {"type": "node", "id": 11268507394, "lat": 12.8904998, "lon": 77.5980462, "tags": {"highway": "traffic_signals"}}, {"type": "node", "id": 11271693400, "lat": 12.8767075, "lon": 77.59518, "tags": {"highway": "traffic_signals"}}, {"type": "node", "id": 11271693401, "lat": 12.876439, "lon": 77.5950518, "tags": {"highway": "traffic_signals"}}, {"type": "node", "id": 11271693402, "lat": 12.8764668, "lon": 77.5952739, "tags": {"highway": "traffic_signals"}}, {"type": "node", "id": 11283488131, "lat": 12.9766455, "lon": 77.6016056, "tags": {"highway": "traffic_signals"}}, {"type": "node", "id": 11283488139, "lat": 12.9763696, "lon": 77.6017337, "tags": {"highway": "traffic_signals", "junction": "yes", "traffic_signals": "signal"}}, {"type": "node", "id": 11286303319, "lat": 12.9842996, "lon": 77.5883213, "tags": {"highway": "traffic_signals", "traffic_signals": "signal"}}, {"type": "node", "id": 11286303320, "lat": 12.9843935, "lon": 77.5878025, "tags": {"highway": "traffic_signals"}}, {"type": "node", "id": 11286303321, "lat": 12.9841482, "lon": 77.5878688, "tags": {"highway": "traffic_signals"}}, {"type": "node", "id": 11286303328, "lat": 12.9848597, "lon": 77.588458, "tags": {"highway": "traffic_signals"}}, {"type": "node", "id": 11286314186, "lat": 12.9805986, "lon": 77.597412, "tags": {"highway": "traffic_signals"}}, {"type": "node", "id": 11286580549, "lat": 12.9718322, "lon": 77.6068356, "tags": {"highway": "traffic_signals"}}, {"type": "node", "id": 11295765838, "lat": 12.9346075, "lon": 77.6096632, "tags": {"highway": "traffic_signals"}}, {"type": "node", "id": 11295765843, "lat": 12.9346462, "lon": 77.6098157, "tags": {"highway": "traffic_signals"}}, {"type": "node", "id": 11295765844, "lat": 12.9348223, "lon": 77.6097044, "tags": {"highway": "traffic_signals"}}, {"type": "node", "id": 11302971564, "lat": 12.9062392, "lon": 77.5860071, "tags": {"highway": "traffic_signals"}}, {"type": "node", "id": 11302971565, "lat": 12.9061693, "lon": 77.5856769, "tags": {"highway": "traffic_signals"}}, {"type": "node", "id": 11302971566, "lat": 12.9064405, "lon": 77.5854734, "tags": {"highway": "traffic_signals"}}, {"type": "node", "id": 11302971567, "lat": 12.9066386, "lon": 77.585763, "tags": {"highway": "traffic_signals"}}, {"type": "node", "id": 11302992907, "lat": 12.9105419, "lon": 77.5855423, "tags": {"highway": "traffic_signals", "traffic_signals": "signal"}}, {"type": "node", "id": 11302992908, "lat": 12.9104702, "lon": 77.5858488, "tags": {"highway": "traffic_signals", "traffic_signals": "signal"}}, {"type": "node", "id": 11302992909, "lat": 12.910672, "lon": 77.5857461, "tags": {"highway": "traffic_signals", "traffic_signals": "signal"}}, {"type": "node", "id": 11302992910, "lat": 12.910372, "lon": 77.5856725, "tags": {"highway": "traffic_signals", "traffic_signals": "signal"}}, {"type": "node", "id": 11303526456, "lat": 12.917302, "lon": 77.5803332, "tags": {"highway": "traffic_signals", "traffic_signals": "signal"}}, {"type": "node", "id": 11303526457, "lat": 12.9170715, "lon": 77.5804456, "tags": {"highway": "traffic_signals", "traffic_signals": "signal"}}, {"type": "node", "id": 11303526458, "lat": 12.9171963, "lon": 77.580068, "tags": {"highway": "traffic_signals", "traffic_signals": "signal"}}, {"type": "node", "id": 11304329710, "lat": 12.9062682, "lon": 77.5920073, "tags": {"highway": "traffic_signals"}}, {"type": "node", "id": 11304329711, "lat": 12.9063429, "lon": 77.5917598, "tags": {"highway": "traffic_signals"}}, {"type": "node", "id": 11306430810, "lat": 12.9314859, "lon": 77.6138616, "tags": {"highway": "traffic_signals", "traffic_signals": "signal"}}, {"type": "node", "id": 11306430812, "lat": 12.9344741, "lon": 77.6126186, "tags": {"highway": "traffic_signals", "traffic_signals": "signal"}}, {"type": "node", "id": 11307884035, "lat": 12.927751, "lon": 77.62111, "tags": {"highway": "traffic_signals"}}, {"type": "node", "id": 11308911772, "lat": 12.9063055, "lon": 77.5783643, "tags": {"highway": "traffic_signals", "traffic_signals": "signal", "traffic_signals:direction": "forward"}}, {"type": "node", "id": 11308911773, "lat": 12.9065953, "lon": 77.5783648, "tags": {"highway": "traffic_signals", "traffic_signals": "signal", "traffic_signals:direction": "backward"}}, {"type": "node", "id": 11337846010, "lat": 12.961238, "lon": 77.6358892, "tags": {"highway": "traffic_signals", "traffic_signals": "signal"}}, {"type": "node", "id": 11337846017, "lat": 12.9611679, "lon": 77.6386382, "tags": {"highway": "traffic_signals"}}, {"type": "node", "id": 11337846020, "lat": 12.9608289, "lon": 77.6386536, "tags": {"highway": "traffic_signals", "traffic_signals": "signal"}}, {"type": "node", "id": 11338711006, "lat": 12.9911105, "lon": 77.657377, "tags": {"highway": "traffic_signals", "traffic_signals": "signal"}}, {"type": "node", "id": 11342881114, "lat": 12.9487765, "lon": 77.5933239, "tags": {"highway": "traffic_signals", "traffic_signals": "signal"}}, {"type": "node", "id": 11342881131, "lat": 12.9486833, "lon": 77.5934434, "tags": {"highway": "traffic_signals", "traffic_signals": "signal"}}, {"type": "node", "id": 11342881132, "lat": 12.9489551, "lon": 77.5934376, "tags": {"highway": "traffic_signals", "traffic_signals": "signal"}}, {"type": "node", "id": 11342900898, "lat": 12.9766156, "lon": 77.5995095, "tags": {"highway": "traffic_signals", "traffic_signals": "signal"}}, {"type": "node", "id": 11342970532, "lat": 12.9828705, "lon": 77.5971408, "tags": {"highway": "traffic_signals"}}, {"type": "node", "id": 11342975178, "lat": 12.9722221, "lon": 77.5941421, "tags": {"highway": "traffic_signals"}}, {"type": "node", "id": 11348815671, "lat": 12.9243786, "lon": 77.6181099, "tags": {"highway": "traffic_signals", "traffic_signals": "signal"}}, {"type": "node", "id": 11375078750, "lat": 12.921135, "lon": 77.6655496, "tags": {"highway": "traffic_signals", "traffic_signals": "signal"}}, {"type": "node", "id": 11385066517, "lat": 13.0303934, "lon": 77.6210916, "tags": {"highway": "traffic_signals", "traffic_signals": "signal"}}, {"type": "node", "id": 11390080363, "lat": 12.974243, "lon": 77.5781461, "tags": {"highway": "traffic_signals"}}, {"type": "node", "id": 11390080364, "lat": 12.9742899, "lon": 77.5783373, "tags": {"highway": "traffic_signals"}}, {"type": "node", "id": 11390114682, "lat": 12.9365225, "lon": 77.5800216, "tags": {"highway": "traffic_signals"}}, {"type": "node", "id": 11390114683, "lat": 12.9366883, "lon": 77.5803961, "tags": {"highway": "traffic_signals"}}, {"type": "node", "id": 11390114684, "lat": 12.9368023, "lon": 77.5797212, "tags": {"highway": "traffic_signals"}}, {"type": "node", "id": 11390114685, "lat": 12.9370431, "lon": 77.579878, "tags": {"highway": "traffic_signals"}}, {"type": "node", "id": 11399572673, "lat": 12.958227, "lon": 77.6665568, "tags": {"highway": "traffic_signals", "traffic_signals": "signal"}}, {"type": "node", "id": 11399572674, "lat": 12.9585275, "lon": 77.66608, "tags": {"highway": "traffic_signals", "traffic_signals": "signal"}}, {"type": "node", "id": 11399572675, "lat": 12.9586591, "lon": 77.6664007, "tags": {"highway": "traffic_signals", "traffic_signals": "signal"}}, {"type": "node", "id": 11420343302, "lat": 12.9729405, "lon": 77.5813058, "tags": {"highway": "traffic_signals"}}, {"type": "node", "id": 11425338082, "lat": 12.9670512, "lon": 77.5946821, "tags": {"highway": "traffic_signals", "traffic_signals": "signal"}}, {"type": "node", "id": 11432458980, "lat": 12.9770839, "lon": 77.6088819, "tags": {"crossing": "traffic_signals", "crossing:markings": "zebra", "highway": "traffic_signals", "traffic_signals": "signal", "traffic_signals:sound": "walk"}}, {"type": "node", "id": 11434604017, "lat": 12.9778091, "lon": 77.6066671, "tags": {"highway": "traffic_signals", "traffic_signals": "signal"}}, {"type": "node", "id": 11445740091, "lat": 13.0935038, "lon": 77.5825305, "tags": {"highway": "traffic_signals", "traffic_signals:direction": "forward"}}, {"type": "node", "id": 11445988395, "lat": 13.1020685, "lon": 77.5861556, "tags": {"highway": "traffic_signals"}}, {"type": "node", "id": 11445988396, "lat": 13.1019656, "lon": 77.5865054, "tags": {"highway": "traffic_signals"}}, {"type": "node", "id": 11446054568, "lat": 13.0936169, "lon": 77.5824975, "tags": {"highway": "traffic_signals", "traffic_signals:direction": "forward"}}, {"type": "node", "id": 11446055369, "lat": 13.093563, "lon": 77.582365, "tags": {"highway": "traffic_signals", "traffic_signals:direction": "backward"}}, {"type": "node", "id": 11446055370, "lat": 13.0934478, "lon": 77.5824233, "tags": {"button_operated": "no", "crossing": "traffic_signals", "crossing:markings": "zebra", "highway": "traffic_signals", "traffic_signals:direction": "backward", "traffic_signals:sound": "no", "traffic_signals:vibration": "no"}}, {"type": "node", "id": 11449172415, "lat": 13.0732341, "lon": 77.5925834, "tags": {"highway": "traffic_signals"}}, {"type": "node", "id": 11449172416, "lat": 13.0732288, "lon": 77.5925071, "tags": {"highway": "traffic_signals"}}, {"type": "node", "id": 11449172425, "lat": 13.0674552, "lon": 77.593337, "tags": {"highway": "traffic_signals"}}, {"type": "node", "id": 11449172444, "lat": 13.0674909, "lon": 77.5931995, "tags": {"highway": "traffic_signals"}}, {"type": "node", "id": 11449172454, "lat": 13.0672447, "lon": 77.5934681, "tags": {"highway": "traffic_signals", "traffic_signals:direction": "backward"}}, {"type": "node", "id": 11449172456, "lat": 13.0671271, "lon": 77.5929388, "tags": {"highway": "traffic_signals"}}, {"type": "node", "id": 11449172458, "lat": 13.0671255, "lon": 77.5930184, "tags": {"highway": "traffic_signals"}}, {"type": "node", "id": 11449185276, "lat": 13.0574961, "lon": 77.5935371, "tags": {"highway": "traffic_signals"}}, {"type": "node", "id": 11449185279, "lat": 13.0571783, "lon": 77.5932346, "tags": {"highway": "traffic_signals"}}, {"type": "node", "id": 11449185283, "lat": 13.0574228, "lon": 77.593115, "tags": {"crossing": "traffic_signals", "crossing:markings": "zebra", "crossing_ref": "zebra", "highway": "traffic_signals"}}, {"type": "node", "id": 11449187227, "lat": 13.0738255, "lon": 77.5928915, "tags": {"highway": "traffic_signals", "traffic_signals": "signal"}}, {"type": "node", "id": 11449187234, "lat": 13.081779, "lon": 77.5930817, "tags": {"highway": "traffic_signals"}}, {"type": "node", "id": 11464483508, "lat": 12.9752275, "lon": 77.6077865, "tags": {"highway": "traffic_signals", "traffic_signals": "signal"}}, {"type": "node", "id": 11476588184, "lat": 12.9117773, "lon": 77.6445845, "tags": {"highway": "traffic_signals"}}, {"type": "node", "id": 11484393853, "lat": 12.9124693, "lon": 77.6381299, "tags": {"highway": "traffic_signals", "traffic_signals": "signal"}}, {"type": "node", "id": 11484393854, "lat": 12.9123423, "lon": 77.6379732, "tags": {"highway": "traffic_signals", "traffic_signals": "signal"}}, {"type": "node", "id": 11484393855, "lat": 12.9121928, "lon": 77.6380532, "tags": {"highway": "traffic_signals", "traffic_signals": "signal"}}, {"type": "node", "id": 11484393856, "lat": 12.9122644, "lon": 77.6382142, "tags": {"highway": "traffic_signals", "traffic_signals": "signal"}}, {"type": "node", "id": 11493493812, "lat": 12.9345296, "lon": 77.6297801, "tags": {"highway": "traffic_signals", "traffic_signals": "signal"}}, {"type": "node", "id": 11493493813, "lat": 12.9343909, "lon": 77.6295609, "tags": {"highway": "traffic_signals", "traffic_signals": "signal", "traffic_signals:direction": "backward"}}, {"type": "node", "id": 11493846396, "lat": 12.9399808, "lon": 77.6255013, "tags": {"highway": "traffic_signals", "traffic_signals": "signal"}}, {"type": "node", "id": 11494461870, "lat": 12.9668594, "lon": 77.6613966, "tags": {"highway": "traffic_signals"}}, {"type": "node", "id": 11496183648, "lat": 12.9678779, "lon": 77.6004227, "tags": {"highway": "traffic_signals", "note": "no right turn, no left"}}, {"type": "node", "id": 11497593345, "lat": 12.9792571, "lon": 77.6463891, "tags": {"direction": "forward", "highway": "traffic_signals", "traffic_signals": "signal"}}, {"type": "node", "id": 11497616822, "lat": 12.9702092, "lon": 77.6414153, "tags": {"highway": "traffic_signals", "traffic_signals": "signal"}}, {"type": "node", "id": 11497616823, "lat": 12.9702377, "lon": 77.6411361, "tags": {"highway": "traffic_signals", "traffic_signals": "signal"}}, {"type": "node", "id": 11533595485, "lat": 12.9240761, "lon": 77.6518602, "tags": {"highway": "traffic_signals", "traffic_signals": "signal"}}, {"type": "node", "id": 11554370593, "lat": 13.0340623, "lon": 77.5685777, "tags": {"highway": "traffic_signals"}}, {"type": "node", "id": 11584555915, "lat": 13.0040723, "lon": 77.6195617, "tags": {"highway": "traffic_signals", "traffic_signals": "signal"}}, {"type": "node", "id": 11584555916, "lat": 13.0040287, "lon": 77.619752, "tags": {"highway": "traffic_signals", "traffic_signals": "signal", "traffic_signals:direction": "backward"}}, {"type": "node", "id": 11630611676, "lat": 12.9807039, "lon": 77.6565361, "tags": {"highway": "traffic_signals", "traffic_signals": "signal"}}, {"type": "node", "id": 11630611677, "lat": 12.9805451, "lon": 77.6563683, "tags": {"highway": "traffic_signals", "traffic_signals": "signal"}}, {"type": "node", "id": 11630611678, "lat": 12.9806621, "lon": 77.6562813, "tags": {"highway": "traffic_signals", "traffic_signals": "signal"}}, {"type": "node", "id": 11639971012, "lat": 12.9558086, "lon": 77.6916039, "tags": {"highway": "traffic_signals", "traffic_signals": "signal", "traffic_signals:countdown": "yes"}}, {"type": "node", "id": 11684233293, "lat": 12.9819655, "lon": 77.5948833, "tags": {"highway": "traffic_signals", "traffic_signals": "signal"}}, {"type": "node", "id": 11684233294, "lat": 12.9817696, "lon": 77.5945167, "tags": {"highway": "traffic_signals", "traffic_signals": "signal"}}, {"type": "node", "id": 11684233295, "lat": 12.9818101, "lon": 77.5949221, "tags": {"highway": "traffic_signals", "traffic_signals": "signal"}}, {"type": "node", "id": 11688203993, "lat": 12.9128425, "lon": 77.4850607, "tags": {"highway": "traffic_signals", "traffic_signals:direction": "backward"}}, {"type": "node", "id": 11688206890, "lat": 12.9543944, "lon": 77.5439959, "tags": {"highway": "traffic_signals", "traffic_signals": "signal"}}, {"type": "node", "id": 11688206893, "lat": 12.955877, "lon": 77.5463219, "tags": {"highway": "traffic_signals", "traffic_signals": "signal"}}, {"type": "node", "id": 11688206894, "lat": 12.9560434, "lon": 77.5461753, "tags": {"highway": "traffic_signals", "traffic_signals": "signal"}}, {"type": "node", "id": 11690829555, "lat": 12.9968901, "lon": 77.5694258, "tags": {"highway": "traffic_signals"}}, {"type": "node", "id": 11690829652, "lat": 13.0182871, "lon": 77.5578156, "tags": {"highway": "traffic_signals"}}, {"type": "node", "id": 11707451093, "lat": 12.9655368, "lon": 77.6175137, "tags": {"highway": "traffic_signals", "traffic_signals": "signal"}}, {"type": "node", "id": 11707451095, "lat": 12.9653456, "lon": 77.618003, "tags": {"highway": "traffic_signals"}}, {"type": "node", "id": 11727973845, "lat": 12.9584255, "lon": 77.5189319, "tags": {"highway": "traffic_signals", "traffic_signals": "signal"}}, {"type": "node", "id": 11727973847, "lat": 12.9579113, "lon": 77.5187262, "tags": {"highway": "traffic_signals"}}, {"type": "node", "id": 11780306882, "lat": 12.9460702, "lon": 77.6401606, "tags": {"highway": "traffic_signals"}}, {"type": "node", "id": 11780306883, "lat": 12.9459778, "lon": 77.6399778, "tags": {"highway": "traffic_signals"}}, {"type": "node", "id": 11780319173, "lat": 12.9633718, "lon": 77.6417283, "tags": {"highway": "traffic_signals"}}, {"type": "node", "id": 11780319174, "lat": 12.9634596, "lon": 77.6414899, "tags": {"highway": "traffic_signals"}}, {"type": "node", "id": 11780319175, "lat": 12.963306, "lon": 77.6415784, "tags": {"highway": "traffic_signals"}}, {"type": "node", "id": 11780319176, "lat": 12.9634624, "lon": 77.641671, "tags": {"highway": "traffic_signals"}}, {"type": "node", "id": 11795755981, "lat": 12.9121758, "lon": 77.5673692, "tags": {"highway": "traffic_signals"}}, {"type": "node", "id": 11801662688, "lat": 12.9870368, "lon": 77.6483325, "tags": {"highway": "traffic_signals"}}, {"type": "node", "id": 11801662689, "lat": 12.9871282, "lon": 77.648087, "tags": {"highway": "traffic_signals"}}, {"type": "node", "id": 11824558258, "lat": 12.8796663, "lon": 77.5454345, "tags": {"highway": "traffic_signals", "traffic_signals": "signal"}}, {"type": "node", "id": 11824558264, "lat": 12.8796365, "lon": 77.5457258, "tags": {"highway": "traffic_signals", "traffic_signals": "signal"}}, {"type": "node", "id": 11841864043, "lat": 13.0019156, "lon": 77.6119418, "tags": {"highway": "traffic_signals"}}, {"type": "node", "id": 11843210612, "lat": 13.0189077, "lon": 77.5575794, "tags": {"highway": "traffic_signals"}}, {"type": "node", "id": 11846423573, "lat": 12.9217167, "lon": 77.5604202, "tags": {"highway": "traffic_signals"}}, {"type": "node", "id": 11853406315, "lat": 12.9970673, "lon": 77.6144449, "tags": {"highway": "traffic_signals"}}, {"type": "node", "id": 11853576386, "lat": 12.9958461, "lon": 77.6133543, "tags": {"highway": "traffic_signals"}}, {"type": "node", "id": 11854316025, "lat": 12.9704818, "lon": 77.6101363, "tags": {"highway": "traffic_signals", "traffic_signals": "signal"}}, {"type": "node", "id": 11856705103, "lat": 12.9959298, "lon": 77.617187, "tags": {"highway": "traffic_signals", "traffic_signals": "signal"}}, {"type": "node", "id": 11856705104, "lat": 12.9960154, "lon": 77.6169707, "tags": {"highway": "traffic_signals", "traffic_signals": "signal"}}, {"type": "node", "id": 11856705121, "lat": 12.9915694, "lon": 77.6146079, "tags": {"highway": "traffic_signals", "junction": "yes"}}, {"type": "node", "id": 11856875807, "lat": 12.9906965, "lon": 77.6137921, "tags": {"highway": "traffic_signals", "traffic_signals": "signal"}}, {"type": "node", "id": 11856875821, "lat": 12.9904893, "lon": 77.6140447, "tags": {"highway": "traffic_signals", "traffic_signals": "signal"}}, {"type": "node", "id": 11856875822, "lat": 12.9904468, "lon": 77.6138361, "tags": {"highway": "traffic_signals", "traffic_signals": "signal"}}, {"type": "node", "id": 11857026800, "lat": 12.991786, "lon": 77.6143869, "tags": {"highway": "traffic_signals", "junction": "yes"}}, {"type": "node", "id": 11860340624, "lat": 12.9546805, "lon": 77.6799598, "tags": {"highway": "traffic_signals", "traffic_signals": "signal", "traffic_signals:direction": "backward"}}, {"type": "node", "id": 11860340625, "lat": 12.9544524, "lon": 77.6800391, "tags": {"highway": "traffic_signals", "traffic_signals": "signal"}}, {"type": "node", "id": 11860340626, "lat": 12.9546555, "lon": 77.6797301, "tags": {"highway": "traffic_signals", "traffic_signals": "signal"}}, {"type": "node", "id": 11890611421, "lat": 12.9518999, "lon": 77.4996639, "tags": {"highway": "traffic_signals"}}, {"type": "node", "id": 11898236318, "lat": 13.0085304, "lon": 77.5710906, "tags": {"highway": "traffic_signals", "traffic_signals": "signal"}}, {"type": "node", "id": 11898236319, "lat": 13.0084702, "lon": 77.5711978, "tags": {"highway": "traffic_signals", "traffic_signals": "signal"}}, {"type": "node", "id": 11898247208, "lat": 13.0085805, "lon": 77.5692416, "tags": {"highway": "traffic_signals", "traffic_signals": "signal"}}, {"type": "node", "id": 11898247210, "lat": 13.0086264, "lon": 77.5690533, "tags": {"highway": "traffic_signals", "traffic_signals": "signal"}}, {"type": "node", "id": 11898860862, "lat": 12.9970827, "lon": 77.5694461, "tags": {"highway": "traffic_signals"}}, {"type": "node", "id": 11898868422, "lat": 12.9992744, "lon": 77.5712855, "tags": {"button_operated": "yes", "crossing_ref": "zebra", "highway": "traffic_signals", "kerb": "flush", "supervised": "06:00-20:00", "traffic_signals:sound": "walk"}}, {"type": "node", "id": 11898958122, "lat": 12.993416, "lon": 77.5713693, "tags": {"highway": "traffic_signals"}}, {"type": "node", "id": 11927462279, "lat": 12.9070089, "lon": 77.62858, "tags": {"highway": "traffic_signals"}}, {"type": "node", "id": 11933333316, "lat": 13.0456388, "lon": 77.5564008, "tags": {"highway": "traffic_signals", "traffic_signals": "signal"}}, {"type": "node", "id": 11937539311, "lat": 12.883344, "lon": 77.5485572, "tags": {"highway": "traffic_signals", "traffic_signals": "signal", "traffic_signals:direction": "forward"}}, {"type": "node", "id": 11937539312, "lat": 12.8835013, "lon": 77.5484029, "tags": {"highway": "traffic_signals", "traffic_signals": "signal", "traffic_signals:direction": "forward"}}, {"type": "node", "id": 11952183376, "lat": 12.9999347, "lon": 77.6766967, "tags": {"highway": "traffic_signals", "traffic_signals:direction": "backward"}}, {"type": "node", "id": 11954211369, "lat": 13.0431473, "lon": 77.5900359, "tags": {"highway": "traffic_signals", "traffic_signals": "signal"}}, {"type": "node", "id": 11954212343, "lat": 13.0145801, "lon": 77.5836796, "tags": {"highway": "traffic_signals", "traffic_signals": "signal"}}, {"type": "node", "id": 11955000938, "lat": 12.9061379, "lon": 77.5949917, "tags": {"highway": "traffic_signals"}}, {"type": "node", "id": 11955000939, "lat": 12.9063876, "lon": 77.5949246, "tags": {"highway": "traffic_signals"}}, {"type": "node", "id": 11964711937, "lat": 13.0291115, "lon": 77.5401527, "tags": {"highway": "traffic_signals", "junction": "yes", "name": "Gorguntepalaya Cross", "name:kn": "\u0c97\u0cca\u0cb0\u0c97\u0cc1\u0c82\u0c9f\u0cc6\u0caa\u0cbe\u0cb3\u0ccd\u0caf \u0c95\u0ccd\u0cb0\u0cbe\u0cb8\u0ccd"}}, {"type": "node", "id": 12000425037, "lat": 12.9480548, "lon": 77.5797907, "tags": {"highway": "traffic_signals", "traffic_signals": "signal"}}, {"type": "node", "id": 12000425038, "lat": 12.947975, "lon": 77.5799438, "tags": {"highway": "traffic_signals", "traffic_signals": "signal"}}, {"type": "node", "id": 12000425044, "lat": 12.9485456, "lon": 77.5801845, "tags": {"highway": "traffic_signals", "traffic_signals": "signal"}}, {"type": "node", "id": 12000425045, "lat": 12.9486383, "lon": 77.5800718, "tags": {"highway": "traffic_signals", "traffic_signals": "signal"}}, {"type": "node", "id": 12000643122, "lat": 12.9480734, "lon": 77.5701207, "tags": {"highway": "traffic_signals", "traffic_signals": "signal", "traffic_signals:direction": "backward"}}, {"type": "node", "id": 12000643123, "lat": 12.9483657, "lon": 77.5701099, "tags": {"crossing": "traffic_signals", "highway": "traffic_signals", "traffic_signals:direction": "forward"}}, {"type": "node", "id": 12006381703, "lat": 12.9750927, "lon": 77.6255063, "tags": {"highway": "traffic_signals"}}, {"type": "node", "id": 12040922852, "lat": 12.88855, "lon": 77.6728596, "tags": {"highway": "traffic_signals", "traffic_signals": "signal", "traffic_signals:direction": "forward"}}, {"type": "node", "id": 12059785431, "lat": 12.9220441, "lon": 77.5602909, "tags": {"highway": "traffic_signals"}}, {"type": "node", "id": 12059785432, "lat": 12.9219797, "lon": 77.5600956, "tags": {"highway": "traffic_signals"}}, {"type": "node", "id": 12059868183, "lat": 13.0305986, "lon": 77.5370762, "tags": {"highway": "traffic_signals"}}, {"type": "node", "id": 12059868184, "lat": 13.0302862, "lon": 77.5373291, "tags": {"highway": "traffic_signals"}}, {"type": "node", "id": 12060569557, "lat": 12.9279735, "lon": 77.5462087, "tags": {"highway": "traffic_signals", "traffic_signals": "signal"}}, {"type": "node", "id": 12060592381, "lat": 12.9255064, "lon": 77.5498496, "tags": {"highway": "traffic_signals"}}, {"type": "node", "id": 12060592382, "lat": 12.925251, "lon": 77.5498857, "tags": {"highway": "traffic_signals", "traffic_signals:direction": "backward"}}, {"type": "node", "id": 12060646306, "lat": 12.9126294, "lon": 77.5671365, "tags": {"highway": "traffic_signals"}}, {"type": "node", "id": 12060646307, "lat": 12.9126932, "lon": 77.5672857, "tags": {"highway": "traffic_signals"}}, {"type": "node", "id": 12060861674, "lat": 12.9394858, "lon": 77.6954711, "tags": {"button_operated": "no", "highway": "traffic_signals", "red_turn:right:bicycle": "no", "red_turn:straight:bicycle": "no", "traffic_signals": "signal", "traffic_signals:direction": "forward"}}, {"type": "node", "id": 12060861675, "lat": 12.9393381, "lon": 77.6949316, "tags": {"button_operated": "no", "highway": "traffic_signals", "red_turn:right:bicycle": "no", "red_turn:straight:bicycle": "no", "traffic_signals": "signal", "traffic_signals:direction": "forward"}}, {"type": "node", "id": 12062818309, "lat": 12.95489, "lon": 77.5799842, "tags": {"highway": "traffic_signals", "traffic_signals": "signal"}}, {"type": "node", "id": 12064311431, "lat": 13.0063105, "lon": 77.5789135, "tags": {"highway": "traffic_signals", "traffic_signals": "signal"}}, {"type": "node", "id": 12068481099, "lat": 12.9901074, "lon": 77.5508142, "tags": {"highway": "traffic_signals", "traffic_signals:direction": "forward"}}, {"type": "node", "id": 12068481101, "lat": 12.9901475, "lon": 77.5504839, "tags": {"highway": "traffic_signals", "traffic_signals:direction": "forward"}}, {"type": "node", "id": 12068481103, "lat": 12.9877604, "lon": 77.5497691, "tags": {"highway": "traffic_signals"}}, {"type": "node", "id": 12068481105, "lat": 12.9843836, "lon": 77.5488543, "tags": {"highway": "traffic_signals", "junction": "yes", "name": "National Public School Circle", "name:kn": "\u0ca8\u0ccd\u0caf\u0cbe\u0cb6\u0ca8\u0cb2\u0ccd \u0caa\u0cac\u0ccd\u0cb2\u0cbf\u0c95\u0ccd \u0cb6\u0cbe\u0cb2\u0cc6 \u0cb5\u0cc3\u0ca4\u0ccd\u0ca4"}}, {"type": "node", "id": 12068481130, "lat": 13.0038943, "lon": 77.5489101, "tags": {"highway": "traffic_signals", "traffic_signals": "signal", "traffic_signals:direction": "backward"}}, {"type": "node", "id": 12073881083, "lat": 12.8892473, "lon": 77.6402197, "tags": {"crossing": "traffic_signals", "highway": "traffic_signals"}}, {"type": "node", "id": 12074449280, "lat": 12.9245863, "lon": 77.6283639, "tags": {"highway": "traffic_signals"}}, {"type": "node", "id": 12074449281, "lat": 12.9246881, "lon": 77.6283219, "tags": {"highway": "traffic_signals", "traffic_signals:direction": "forward"}}, {"type": "node", "id": 12074449291, "lat": 12.9244249, "lon": 77.6284461, "tags": {"highway": "traffic_signals", "traffic_signals:sound": "no", "traffic_signals:vibration": "no"}}, {"type": "node", "id": 12074449292, "lat": 12.9241089, "lon": 77.6291454, "tags": {"button_operated": "no", "highway": "traffic_signals", "traffic_signals:sound": "no", "traffic_signals:vibration": "no"}}, {"type": "node", "id": 12075650280, "lat": 13.0100972, "lon": 77.5907627, "tags": {"highway": "traffic_signals", "traffic_signals:direction": "backward"}}, {"type": "node", "id": 12077171239, "lat": 12.9551212, "lon": 77.5802666, "tags": {"highway": "traffic_signals", "traffic_signals": "signal"}}, {"type": "node", "id": 12077171240, "lat": 12.9552853, "lon": 77.5797627, "tags": {"highway": "traffic_signals", "traffic_signals": "signal"}}, {"type": "node", "id": 12077171241, "lat": 12.9551115, "lon": 77.5797404, "tags": {"highway": "traffic_signals", "traffic_signals": "signal"}}, {"type": "node", "id": 12077841377, "lat": 12.9884986, "lon": 77.6172581, "tags": {"highway": "traffic_signals"}}, {"type": "node", "id": 12077841378, "lat": 12.9885842, "lon": 77.6173393, "tags": {"highway": "traffic_signals"}}, {"type": "node", "id": 12101720464, "lat": 12.9653002, "lon": 77.6007697, "tags": {"highway": "traffic_signals", "traffic_signals": "traffic_lights", "traffic_signals:direction": "forward"}}, {"type": "node", "id": 12107761086, "lat": 12.9731923, "lon": 77.6469751, "tags": {"highway": "traffic_signals", "name": "Thippasandra Cross", "name:kn": "\u0ca4\u0cbf\u0caa\u0ccd\u0caa\u0cb8\u0c82\u0ca6\u0ccd\u0cb0 \u0c95\u0ccd\u0cb0\u0cbe\u0cb8\u0ccd"}}, {"type": "node", "id": 12107776959, "lat": 12.9690153, "lon": 77.647706, "tags": {"highway": "traffic_signals", "traffic_signals": "signal", "traffic_signals:countdown": "yes", "traffic_signals:direction": "backward"}}, {"type": "node", "id": 12110804691, "lat": 12.9540219, "lon": 77.5852788, "tags": {"highway": "traffic_signals", "traffic_signals": "signal"}}, {"type": "node", "id": 12110823225, "lat": 12.9517241, "lon": 77.5901998, "tags": {"highway": "traffic_signals", "traffic_signals": "signal"}}, {"type": "node", "id": 12110823226, "lat": 12.9513994, "lon": 77.5908495, "tags": {"highway": "traffic_signals", "traffic_signals": "signal"}}, {"type": "node", "id": 12110823227, "lat": 12.9518529, "lon": 77.59067, "tags": {"highway": "traffic_signals", "traffic_signals": "signal"}}, {"type": "node", "id": 12111889685, "lat": 12.9659126, "lon": 77.5865612, "tags": {"highway": "traffic_signals", "traffic_signals": "signal", "traffic_signals:countdown": "yes"}}, {"type": "node", "id": 12111944876, "lat": 12.9714749, "lon": 77.6584665, "tags": {"highway": "traffic_signals", "traffic_signals": "signal"}}, {"type": "node", "id": 12120691271, "lat": 12.9707677, "lon": 77.6048693, "tags": {"highway": "traffic_signals"}}, {"type": "node", "id": 12120691272, "lat": 12.9708359, "lon": 77.6046571, "tags": {"highway": "traffic_signals"}}, {"type": "node", "id": 12123536071, "lat": 12.980811, "lon": 77.5745237, "tags": {"crossing": "traffic_signals", "highway": "traffic_signals", "traffic_signals:direction": "forward"}}, {"type": "node", "id": 12123831581, "lat": 12.9199361, "lon": 77.5804419, "tags": {"crossing": "no", "highway": "traffic_signals", "traffic_signals:direction": "backward"}}, {"type": "node", "id": 12123831582, "lat": 12.9200308, "lon": 77.5803126, "tags": {"crossing": "no", "highway": "traffic_signals"}}, {"type": "node", "id": 12123831583, "lat": 12.9198372, "lon": 77.5802082, "tags": {"crossing": "no", "highway": "traffic_signals"}}, {"type": "node", "id": 12123831584, "lat": 12.9199448, "lon": 77.5800604, "tags": {"crossing": "no", "highway": "traffic_signals", "traffic_signals:direction": "forward"}}, {"type": "node", "id": 12128921374, "lat": 12.9634942, "lon": 77.5892656, "tags": {"button_operated": "no", "crossing": "traffic_signals", "highway": "traffic_signals", "traffic_signals:sound": "no", "traffic_signals:vibration": "no"}}, {"type": "node", "id": 12128943114, "lat": 12.9674864, "lon": 77.588418, "tags": {"highway": "traffic_signals", "traffic_signals": "signal"}}, {"type": "node", "id": 12134062487, "lat": 12.9733255, "lon": 77.581299, "tags": {"highway": "traffic_signals", "traffic_signals": "signal"}}, {"type": "node", "id": 12134224864, "lat": 12.9557817, "lon": 77.6919012, "tags": {"highway": "traffic_signals", "traffic_signals": "signal", "traffic_signals:countdown": "yes"}}, {"type": "node", "id": 12134224865, "lat": 12.9559332, "lon": 77.6917618, "tags": {"highway": "traffic_signals", "traffic_signals": "signal", "traffic_signals:countdown": "yes"}}, {"type": "node", "id": 12135211600, "lat": 12.9895265, "lon": 77.592954, "tags": {"highway": "traffic_signals"}}, {"type": "node", "id": 12138994485, "lat": 12.9816187, "lon": 77.5865956, "tags": {"highway": "traffic_signals"}}, {"type": "node", "id": 12138994486, "lat": 12.9818126, "lon": 77.5868178, "tags": {"highway": "traffic_signals"}}, {"type": "node", "id": 12139153727, "lat": 12.9935192, "lon": 77.6075231, "tags": {"highway": "traffic_signals"}}, {"type": "node", "id": 12139153728, "lat": 12.9934405, "lon": 77.6071815, "tags": {"highway": "traffic_signals"}}, {"type": "node", "id": 12139153743, "lat": 12.9925534, "lon": 77.6096791, "tags": {"highway": "traffic_signals", "traffic_signals": "signal", "traffic_signals:direction": "backward"}}, {"type": "node", "id": 12144670572, "lat": 12.9815091, "lon": 77.6228427, "tags": {"crossing": "traffic_signals", "highway": "traffic_signals", "note": "No right turn"}}, {"type": "node", "id": 12145344714, "lat": 12.9560563, "lon": 77.5772254, "tags": {"highway": "traffic_signals", "traffic_signals:direction": "forward"}}, {"type": "node", "id": 12145344737, "lat": 12.9564266, "lon": 77.577393, "tags": {"highway": "traffic_signals", "traffic_signals:direction": "forward"}}, {"type": "node", "id": 12145344750, "lat": 12.9531695, "lon": 77.5738575, "tags": {"highway": "traffic_signals", "traffic_signals:direction": "forward"}}, {"type": "node", "id": 12145344751, "lat": 12.9531995, "lon": 77.5734741, "tags": {"highway": "traffic_signals", "traffic_signals:direction": "backward"}}, {"type": "node", "id": 12147813610, "lat": 12.9818479, "lon": 77.594483, "tags": {"highway": "traffic_signals", "traffic_signals": "signal"}}, {"type": "node", "id": 12147816740, "lat": 12.976575, "lon": 77.599504, "tags": {"highway": "traffic_signals", "traffic_signals": "signal"}}, {"type": "node", "id": 12147929620, "lat": 12.9846592, "lon": 77.5819139, "tags": {"highway": "traffic_signals", "traffic_signals": "signal"}}, {"type": "node", "id": 12168378213, "lat": 12.93179, "lon": 77.6134078, "tags": {"highway": "traffic_signals", "traffic_signals": "signal"}}, {"type": "node", "id": 12168378241, "lat": 12.945892, "lon": 77.5955215, "tags": {"highway": "traffic_signals"}}, {"type": "node", "id": 12229871103, "lat": 12.9065911, "lon": 77.5803998, "tags": {"highway": "traffic_signals", "traffic_signals": "signal", "traffic_signals:countdown": "yes", "traffic_signals:direction": "forward"}}, {"type": "node", "id": 12229871104, "lat": 12.9062056, "lon": 77.5803985, "tags": {"highway": "traffic_signals", "traffic_signals": "signal", "traffic_signals:countdown": "yes", "traffic_signals:direction": "backward"}}, {"type": "node", "id": 12291502365, "lat": 13.0340501, "lon": 77.5685584, "tags": {"highway": "traffic_signals"}}, {"type": "node", "id": 12301590044, "lat": 13.0316187, "lon": 77.6358413, "tags": {"highway": "traffic_signals", "traffic_signals": "signal", "traffic_signals:countdown": "yes"}}, {"type": "node", "id": 12301590045, "lat": 13.0316875, "lon": 77.6360132, "tags": {"highway": "traffic_signals", "traffic_signals": "signal", "traffic_signals:countdown": "yes"}}, {"type": "node", "id": 12301590046, "lat": 13.0317379, "lon": 77.6358464, "tags": {"highway": "traffic_signals", "traffic_signals": "signal", "traffic_signals:countdown": "yes", "traffic_signals:direction": "backward"}}, {"type": "node", "id": 12301590052, "lat": 13.0528885, "lon": 77.6459924, "tags": {"highway": "traffic_signals", "traffic_signals:countdown": "yes", "traffic_signals:direction": "backward"}}, {"type": "node", "id": 12351736608, "lat": 12.930726, "lon": 77.5837174, "tags": {"highway": "traffic_signals"}}, {"type": "node", "id": 12353375375, "lat": 13.0345719, "lon": 77.5296348, "tags": {"highway": "traffic_signals", "name": "SRS"}}, {"type": "node", "id": 12378776040, "lat": 13.0057213, "lon": 77.5932236, "tags": {"highway": "traffic_signals"}}, {"type": "node", "id": 12378776041, "lat": 13.0054652, "lon": 77.5932384, "tags": {"highway": "traffic_signals"}}, {"type": "node", "id": 12421958514, "lat": 12.9755291, "lon": 77.5760333, "tags": {"highway": "traffic_signals", "traffic_signals": "signal"}}, {"type": "node", "id": 12421958517, "lat": 12.9754718, "lon": 77.5746643, "tags": {"highway": "traffic_signals"}}, {"type": "node", "id": 12421958518, "lat": 12.9755302, "lon": 77.5748815, "tags": {"highway": "traffic_signals"}}, {"type": "node", "id": 12425345227, "lat": 12.9992154, "lon": 77.5714022, "tags": {"button_operated": "yes", "crossing_ref": "zebra", "highway": "traffic_signals", "kerb": "flush", "supervised": "06:00-20:00", "traffic_signals:sound": "walk"}}, {"type": "node", "id": 12429482558, "lat": 12.9845899, "lon": 77.5820487, "tags": {"highway": "traffic_signals", "traffic_signals": "signal"}}, {"type": "node", "id": 12429523361, "lat": 12.9599337, "lon": 77.5330143, "tags": {"highway": "traffic_signals"}}, {"type": "node", "id": 12429523363, "lat": 12.9659569, "lon": 77.5353419, "tags": {"highway": "traffic_signals"}}, {"type": "node", "id": 12429523365, "lat": 12.9659558, "lon": 77.5356817, "tags": {"highway": "traffic_signals", "traffic_signals:direction": "backward"}}, {"type": "node", "id": 12429523369, "lat": 12.9730026, "lon": 77.5385023, "tags": {"highway": "traffic_signals", "traffic_signals": "signal", "traffic_signals:direction": "forward"}}, {"type": "node", "id": 12441126037, "lat": 12.9879702, "lon": 77.5373214, "tags": {"highway": "traffic_signals", "traffic_signals:direction": "forward"}}, {"type": "node", "id": 12441746024, "lat": 12.9758188, "lon": 77.5386174, "tags": {"highway": "traffic_signals", "traffic_signals": "signal", "traffic_signals:direction": "backward"}}, {"type": "node", "id": 12441746025, "lat": 12.9757195, "lon": 77.5384055, "tags": {"highway": "traffic_signals", "traffic_signals": "signal", "traffic_signals:direction": "backward"}}, {"type": "node", "id": 12441746026, "lat": 12.9757261, "lon": 77.5386805, "tags": {"highway": "traffic_signals", "traffic_signals": "signal", "traffic_signals:direction": "forward"}}, {"type": "node", "id": 12441746027, "lat": 12.9756009, "lon": 77.5385336, "tags": {"highway": "traffic_signals", "traffic_signals": "signal", "traffic_signals:direction": "backward"}}, {"type": "node", "id": 12441856470, "lat": 12.9808324, "lon": 77.5368826, "tags": {"highway": "traffic_signals"}}, {"type": "node", "id": 12441856493, "lat": 12.9803916, "lon": 77.5370685, "tags": {"highway": "traffic_signals", "traffic_signals": "signal"}}, {"type": "node", "id": 12441867942, "lat": 12.9879213, "lon": 77.5376171, "tags": {"highway": "traffic_signals", "traffic_signals:direction": "forward"}}, {"type": "node", "id": 12441867995, "lat": 12.9992647, "lon": 77.5412835, "tags": {"highway": "traffic_signals", "traffic_signals:countdown": "yes"}}, {"type": "node", "id": 12441867996, "lat": 12.9992135, "lon": 77.5410874, "tags": {"highway": "traffic_signals", "traffic_signals:countdown": "yes", "traffic_signals:direction": "backward"}}, {"type": "node", "id": 12441867997, "lat": 12.9994211, "lon": 77.5409984, "tags": {"highway": "traffic_signals", "traffic_signals:countdown": "yes", "traffic_signals:direction": "forward"}}, {"type": "node", "id": 12441867998, "lat": 12.9994817, "lon": 77.5411392, "tags": {"highway": "traffic_signals", "traffic_signals:countdown": "yes", "traffic_signals:direction": "forward"}}, {"type": "node", "id": 12451306646, "lat": 12.9358648, "lon": 77.6153569, "tags": {"highway": "traffic_signals", "traffic_signals": "signal"}}, {"type": "node", "id": 12451306648, "lat": 12.944004, "lon": 77.6077626, "tags": {"highway": "traffic_signals", "traffic_signals": "signal"}}, {"type": "node", "id": 12452734629, "lat": 12.9762103, "lon": 77.6146324, "tags": {"highway": "traffic_signals", "traffic_signals": "signal"}}, {"type": "node", "id": 12452734630, "lat": 12.9764646, "lon": 77.6147993, "tags": {"highway": "traffic_signals", "traffic_signals": "signal"}}, {"type": "node", "id": 12459218189, "lat": 12.9168636, "lon": 77.5967771, "tags": {"highway": "traffic_signals"}}, {"type": "node", "id": 12459218190, "lat": 12.9167473, "lon": 77.5969502, "tags": {"highway": "traffic_signals"}}, {"type": "node", "id": 12460929659, "lat": 12.9683473, "lon": 77.6062177, "tags": {"highway": "traffic_signals", "traffic_signals": "signal"}}, {"type": "node", "id": 12462507905, "lat": 12.9667589, "lon": 77.6086806, "tags": {"alt_name": "Neelasandra Junction", "highway": "traffic_signals"}}, {"type": "node", "id": 12462507906, "lat": 12.9665551, "lon": 77.6087772, "tags": {"alt_name": "Neelasandra Junction", "highway": "traffic_signals"}}, {"type": "node", "id": 12462507959, "lat": 12.9674596, "lon": 77.6110901, "tags": {"highway": "traffic_signals", "traffic_signals": "signal"}}, {"type": "node", "id": 12462507966, "lat": 12.9670902, "lon": 77.6115269, "tags": {"highway": "traffic_signals", "traffic_signals": "signal"}}, {"type": "node", "id": 12466459946, "lat": 12.9622087, "lon": 77.5760105, "tags": {"highway": "traffic_signals", "traffic_signals": "signal"}}, {"type": "node", "id": 12466459959, "lat": 12.9591296, "lon": 77.5776537, "tags": {"highway": "traffic_signals", "traffic_signals": "signal"}}, {"type": "node", "id": 12466459977, "lat": 12.9586617, "lon": 77.5776465, "tags": {"highway": "traffic_signals", "traffic_signals": "signal", "traffic_signals:direction": "forward"}}, {"type": "node", "id": 12466459995, "lat": 12.9597219, "lon": 77.5747377, "tags": {"highway": "traffic_signals", "traffic_signals": "signal"}}, {"type": "node", "id": 12466459996, "lat": 12.9598301, "lon": 77.574386, "tags": {"highway": "traffic_signals", "traffic_signals": "signal", "traffic_signals:direction": "forward"}}, {"type": "node", "id": 12466460042, "lat": 12.9588299, "lon": 77.577775, "tags": {"highway": "traffic_signals", "traffic_signals": "signal"}}, {"type": "node", "id": 12466639117, "lat": 12.9955586, "lon": 77.6019402, "tags": {"highway": "traffic_signals", "traffic_signals:direction": "forward"}}, {"type": "node", "id": 12492308046, "lat": 12.9168772, "lon": 77.5857882, "tags": {"highway": "traffic_signals"}}, {"type": "node", "id": 12492308047, "lat": 12.9169731, "lon": 77.5859401, "tags": {"highway": "traffic_signals"}}, {"type": "node", "id": 12492308048, "lat": 12.917096, "lon": 77.5857177, "tags": {"highway": "traffic_signals"}}, {"type": "node", "id": 12492308147, "lat": 12.9169038, "lon": 77.5949408, "tags": {"highway": "traffic_signals"}}, {"type": "node", "id": 12492308150, "lat": 12.9167892, "lon": 77.5952352, "tags": {"highway": "traffic_signals"}}, {"type": "node", "id": 12492427237, "lat": 12.9331686, "lon": 77.5839149, "tags": {"direction": "forward", "highway": "traffic_signals"}}, {"type": "node", "id": 12492427238, "lat": 12.9328235, "lon": 77.583907, "tags": {"highway": "traffic_signals"}}, {"type": "node", "id": 12492427239, "lat": 12.9331704, "lon": 77.5837185, "tags": {"highway": "traffic_signals"}}, {"type": "node", "id": 12492427329, "lat": 12.9285856, "lon": 77.5862753, "tags": {"highway": "traffic_signals"}}, {"type": "node", "id": 12492427330, "lat": 12.9284358, "lon": 77.5861041, "tags": {"highway": "traffic_signals"}}, {"type": "node", "id": 12492427331, "lat": 12.9287629, "lon": 77.5860565, "tags": {"highway": "traffic_signals"}}, {"type": "node", "id": 12492427356, "lat": 12.9262944, "lon": 77.5858301, "tags": {"direction": "backward", "highway": "traffic_signals"}}, {"type": "node", "id": 12492427357, "lat": 12.9262931, "lon": 77.5861399, "tags": {"direction": "forward", "highway": "traffic_signals"}}, {"type": "node", "id": 12492427358, "lat": 12.9263884, "lon": 77.5860974, "tags": {"highway": "traffic_signals"}}, {"type": "node", "id": 12492427359, "lat": 12.9261937, "lon": 77.5859531, "tags": {"highway": "traffic_signals"}}, {"type": "node", "id": 12495143479, "lat": 12.943703, "lon": 77.5739828, "tags": {"highway": "traffic_signals"}}, {"type": "node", "id": 12507214356, "lat": 12.9845419, "lon": 77.553981, "tags": {"highway": "traffic_signals", "junction": "yes"}}, {"type": "node", "id": 12507214357, "lat": 12.984628, "lon": 77.5541702, "tags": {"highway": "traffic_signals", "junction": "yes", "traffic_signals:direction": "backward"}}, {"type": "node", "id": 12507214358, "lat": 12.9841711, "lon": 77.5541397, "tags": {"highway": "traffic_signals", "junction": "yes", "traffic_signals:direction": "forward"}}, {"type": "node", "id": 12507214389, "lat": 12.9879583, "lon": 77.5500845, "tags": {"highway": "traffic_signals", "traffic_signals": "signal"}}, {"type": "node", "id": 12525432701, "lat": 12.9437981, "lon": 77.5800905, "tags": {"highway": "traffic_signals", "traffic_signals": "signal"}}, {"type": "node", "id": 12531369249, "lat": 13.004233, "lon": 77.553685, "tags": {"highway": "traffic_signals", "traffic_signals": "signal"}}, {"type": "node", "id": 12531369253, "lat": 13.0044209, "lon": 77.5539197, "tags": {"highway": "traffic_signals", "traffic_signals": "signal"}}, {"type": "node", "id": 12531390543, "lat": 12.9749943, "lon": 77.6252084, "tags": {"highway": "traffic_signals"}}, {"type": "node", "id": 12538092507, "lat": 12.981684, "lon": 77.6311703, "tags": {"crossing": "traffic_signals", "highway": "traffic_signals"}}, {"type": "node", "id": 12538092508, "lat": 12.9816825, "lon": 77.6315592, "tags": {"crossing": "traffic_signals", "highway": "traffic_signals"}}, {"type": "node", "id": 12538092510, "lat": 12.9784575, "lon": 77.6285024, "tags": {"highway": "traffic_signals", "traffic_signals:direction": "forward"}}, {"type": "node", "id": 12538710575, "lat": 12.959504, "lon": 77.5557787, "tags": {"highway": "traffic_signals"}}, {"type": "node", "id": 12550783780, "lat": 12.9665848, "lon": 77.6139004, "tags": {"highway": "traffic_signals", "traffic_signals": "signal"}}, {"type": "node", "id": 12550784915, "lat": 12.9664228, "lon": 77.6139532, "tags": {"highway": "traffic_signals", "traffic_signals": "signal"}}, {"type": "node", "id": 12551629147, "lat": 12.9971273, "lon": 77.6699698, "tags": {"highway": "traffic_signals", "traffic_signals": "signal", "traffic_signals:countdown": "yes"}}, {"type": "node", "id": 12580905278, "lat": 12.9369585, "lon": 77.575426, "tags": {"highway": "traffic_signals"}}, {"type": "node", "id": 12580905279, "lat": 12.9367945, "lon": 77.5755298, "tags": {"highway": "traffic_signals"}}, {"type": "node", "id": 12580905291, "lat": 12.9405756, "lon": 77.574036, "tags": {"highway": "traffic_signals"}}, {"type": "node", "id": 12580905293, "lat": 12.9398731, "lon": 77.57381, "tags": {"highway": "traffic_signals"}}, {"type": "node", "id": 12607355194, "lat": 12.9870648, "lon": 77.5198981, "tags": {"highway": "traffic_signals", "junction": "yes", "name": "Sumanahalli Junction", "name:kn": "\u0cb8\u0cc1\u0cae\u0ca8\u0cb9\u0cb3\u0ccd\u0cb3\u0cbf \u0c9c\u0c82\u0c95\u0ccd\u0cb7\u0ca8\u0ccd"}}, {"type": "node", "id": 12609390302, "lat": 12.9667571, "lon": 77.5873702, "tags": {"highway": "traffic_signals", "traffic_signals": "signal"}}, {"type": "node", "id": 12611782068, "lat": 12.911913, "lon": 77.6491125, "tags": {"highway": "traffic_signals", "traffic_signals": "signal", "traffic_signals:direction": "forward"}}, {"type": "node", "id": 12611782069, "lat": 12.9119103, "lon": 77.6489485, "tags": {"highway": "traffic_signals", "traffic_signals": "signal", "traffic_signals:direction": "backward"}}, {"type": "node", "id": 12611782070, "lat": 12.9117901, "lon": 77.6490604, "tags": {"highway": "traffic_signals", "traffic_signals": "signal", "traffic_signals:direction": "backward"}}, {"type": "node", "id": 12611782071, "lat": 12.9120294, "lon": 77.6490297, "tags": {"highway": "traffic_signals", "traffic_signals": "signal", "traffic_signals:direction": "forward"}}, {"type": "node", "id": 12611782072, "lat": 12.9124071, "lon": 77.6325384, "tags": {"highway": "traffic_signals", "traffic_signals": "signal"}}, {"type": "node", "id": 12611782073, "lat": 12.9125652, "lon": 77.6324581, "tags": {"highway": "traffic_signals", "traffic_signals": "signal"}}, {"type": "node", "id": 12611782074, "lat": 12.9123323, "lon": 77.6324158, "tags": {"highway": "traffic_signals", "traffic_signals": "signal"}}, {"type": "node", "id": 12611782078, "lat": 12.9124145, "lon": 77.6323197, "tags": {"highway": "traffic_signals", "traffic_signals": "signal", "traffic_signals:direction": "backward"}}, {"type": "node", "id": 12625079623, "lat": 12.9209483, "lon": 77.5745401, "tags": {"highway": "traffic_signals"}}, {"type": "node", "id": 12625079624, "lat": 12.9206919, "lon": 77.5744059, "tags": {"highway": "traffic_signals"}}, {"type": "node", "id": 12627849083, "lat": 13.0227909, "lon": 77.6371881, "tags": {"highway": "traffic_signals"}}, {"type": "node", "id": 12632101641, "lat": 13.0186026, "lon": 77.557431, "tags": {"highway": "traffic_signals"}}]}